{"type":"FeatureCollection","features":[{"type":"Feature","geometry":{"type":"LineString","coordinates":[[-12.088,10.59],[-12.037,10.524],[-11.978,10.508],[-11.796,10.559],[-11.741,10.611],[-11.774,10.687],[-11.74,10.787],[-11.636,10.837],[-11.589,10.899],[-11.616,11.015],[-11.592,11.052],[-11.577,11.1],[-11.574,11.125],[-11.566,11.134],[-11.503,11.169],[-11.487,11.19],[-11.484,11.225],[-11.473,11.245],[-11.344,11.279],[-11.327,11.31],[-11.306,11.326],[-11.266,11.385],[-11.231,11.413],[-11.196,11.425],[-11.139,11.467],[-11.121,11.509],[-11.095,11.516],[-11.074,11.612],[-11.001,11.566],[-10.956,11.602],[-10.848,11.597],[-10.806,11.626],[-10.763,11.738],[-10.715,11.754],[-10.654,11.866],[-10.652,11.883],[-10.656,11.899],[-10.646,11.909],[-10.635,11.926],[-10.626,11.944],[-10.622,11.958],[-10.614,11.968],[-10.596,11.98],[-10.576,11.991],[-10.56,11.995],[-10.567,12.017],[-10.556,12.029],[-10.536,12.039],[-10.516,12.053],[-10.505,12.088],[-10.513,12.109],[-10.512,12.118],[-10.494,12.125],[-10.446,12.121],[-10.437,12.135],[-10.43,12.144],[-10.395,12.172],[-10.382,12.18],[-10.369,12.172],[-10.354,12.167],[-10.355,12.181],[-10.349,12.185],[-10.34,12.186],[-10.33,12.191],[-10.326,12.2],[-10.332,12.213],[-10.327,12.221],[-10.335,12.24],[-10.344,12.32],[-10.372,12.317],[-10.376,12.333],[-10.361,12.343],[-10.354,12.345],[-10.349,12.363],[-10.345,12.41],[-10.326,12.427],[-10.276,12.515],[-10.262,12.571],[-10.254,12.582],[-10.235,12.602],[-10.225,12.622],[-10.264,12.722],[-10.197,12.776],[-10.201,12.785],[-10.224,12.794],[-10.235,12.828],[-10.245,12.837],[-10.252,12.84],[-10.259,12.841],[-10.283,12.848],[-10.295,12.85],[-10.3,12.869],[-10.276,12.956],[-10.339,12.962],[-10.351,13.152],[-10.508,13.245],[-10.622,13.262],[-10.724,13.224],[-10.795,13.237],[-10.8,13.359],[-10.728,13.42],[-10.766,13.489],[-10.763,13.567],[-10.821,13.599],[-10.875,13.722],[-10.851,13.814]]},"properties":{"nom":"Bafing"}},{"type":"Feature","geometry":{"type":"MultiLineString","coordinates":[[[-13.09,15.497],[-13.096,15.524],[-13.09,15.561],[-13.093,15.575],[-13.1,15.587],[-13.11,15.597],[-13.123,15.604],[-13.146,15.61],[-13.153,15.613],[-13.172,15.626],[-13.179,15.628],[-13.193,15.629],[-13.223,15.624],[-13.239,15.624],[-13.248,15.649],[-13.249,15.657],[-13.248,15.666],[-13.245,15.674],[-13.229,15.697],[-13.229,15.711],[-13.233,15.72],[-13.245,15.736],[-13.288,15.778],[-13.286,15.787],[-13.283,15.795],[-13.28,15.804],[-13.281,15.823],[-13.294,15.855],[-13.312,15.876],[-13.317,15.882],[-13.319,15.889],[-13.319,15.897],[-13.315,15.914],[-13.314,15.922],[-13.317,15.931],[-13.322,15.938],[-13.348,15.957],[-13.364,15.975],[-13.37,15.986],[-13.395,16.059],[-13.423,16.077],[-13.441,16.102],[-13.456,16.102],[-13.492,16.089],[-13.5,16.111],[-13.484,16.141],[-13.486,16.155],[-13.57,16.138],[-13.6,16.126],[-13.608,16.123],[-13.611,16.123],[-13.636,16.122],[-13.663,16.108],[-13.67,16.106],[-13.677,16.107],[-13.698,16.12],[-13.705,16.129],[-13.715,16.133],[-13.72,16.136],[-13.723,16.146],[-13.713,16.176],[-13.711,16.189],[-13.747,16.183],[-13.773,16.151],[-13.779,16.143],[-13.796,16.131],[-13.812,16.122],[-13.828,16.119],[-13.836,16.121],[-13.846,16.126],[-13.853,16.134],[-13.864,16.152],[-13.873,16.179],[-13.884,16.194],[-13.9,16.205],[-13.908,16.21],[-13.948,16.221],[-13.965,16.23],[-13.968,16.246],[-13.963,16.264],[-13.964,16.273],[-13.968,16.282],[-13.98,16.301],[-13.978,16.309],[-13.972,16.324],[-13.972,16.331],[-13.979,16.338],[-13.988,16.343],[-14.007,16.35],[-14.016,16.356],[-14.04,16.382],[-14.074,16.401],[-14.133,16.453],[-14.167,16.491],[-14.191,16.507],[-14.198,16.514],[-14.215,16.535],[-14.223,16.54],[-14.234,16.542],[-14.258,16.543],[-14.274,16.556],[-14.275,16.574],[-14.279,16.581],[-14.288,16.586],[-14.327,16.583],[-14.336,16.587],[-14.338,16.594],[-14.332,16.624],[-14.344,16.637],[-14.407,16.661],[-14.483,16.634],[-14.505,16.633],[-14.545,16.641],[-14.556,16.641],[-14.598,16.629],[-14.62,16.631],[-14.648,16.644],[-14.667,16.646],[-14.712,16.636],[-14.883,16.648],[-14.913,16.641],[-14.932,16.644],[-14.942,16.656],[-14.951,16.672],[-14.964,16.686],[-14.975,16.692],[-14.997,16.683],[-15.008,16.676],[-15.014,16.667],[-15.019,16.646],[-15.038,16.633],[-15.045,16.632],[-15.052,16.634],[-15.063,16.644],[-15.07,16.655],[-15.08,16.665],[-15.094,16.669],[-15.108,16.666],[-15.117,16.656],[-15.119,16.643],[-15.113,16.629],[-15.097,16.614],[-15.094,16.6],[-15.126,16.583],[-15.233,16.567],[-15.249,16.566],[-15.297,16.573],[-15.329,16.572],[-15.344,16.569],[-15.386,16.552],[-15.427,16.553],[-15.434,16.563],[-15.44,16.573],[-15.45,16.58],[-15.492,16.565],[-15.516,16.531],[-15.537,16.517],[-15.552,16.515],[-15.595,16.524],[-15.61,16.522],[-15.622,16.514],[-15.644,16.495],[-15.658,16.486],[-15.673,16.482],[-15.688,16.481],[-15.704,16.485],[-15.736,16.498],[-15.768,16.5],[-15.814,16.514],[-15.83,16.515],[-15.854,16.51],[-15.863,16.51],[-15.898,16.519],[-15.912,16.517],[-15.951,16.5],[-15.959,16.499],[-15.965,16.499],[-15.986,16.506],[-15.994,16.505],[-16.001,16.501],[-16.008,16.496],[-16.032,16.493],[-16.054,16.496],[-16.075,16.505],[-16.092,16.522],[-16.104,16.54],[-16.12,16.553],[-16.133,16.555],[-16.145,16.553],[-16.156,16.548],[-16.207,16.521],[-16.219,16.522],[-16.252,16.528],[-16.274,16.523],[-16.296,16.511],[-16.328,16.475],[-16.341,16.416],[-16.382,16.247],[-16.392,16.225],[-16.408,16.215],[-16.445,16.206],[-16.459,16.194],[-16.467,16.174],[-16.471,16.107],[-16.488,16.066],[-16.502,16.022],[-16.508,16.011],[-16.51,15.902],[-16.52,15.847],[-16.542,15.806]],[[-10.851,13.814],[-10.965,13.79],[-10.994,13.836],[-11.009,13.846],[-11.031,13.848],[-11.046,13.856],[-11.088,14.031],[-11.148,14.037],[-11.251,14.111],[-11.241,14.227],[-11.284,14.339],[-11.368,14.379],[-11.406,14.456],[-11.578,14.5],[-11.688,14.591],[-11.894,14.619],[-12.061,14.73],[-12.139,14.785],[-12.225,14.764],[-12.247,14.767],[-12.265,14.775],[-12.32,14.817],[-12.383,14.846],[-12.401,14.861],[-12.434,14.9],[-12.448,14.908],[-12.449,14.918],[-12.472,14.998],[-12.477,15.008],[-12.485,15.017],[-12.52,15.028],[-12.548,15.047],[-12.603,15.079],[-12.616,15.095],[-12.624,15.102],[-12.633,15.106],[-12.648,15.103],[-12.68,15.094],[-12.691,15.093],[-12.718,15.104],[-12.755,15.139],[-12.78,15.147],[-12.782,15.149],[-12.785,15.158],[-12.785,15.166],[-12.78,15.192],[-12.783,15.207],[-12.797,15.221],[-12.839,15.219],[-12.848,15.219],[-12.857,15.222],[-12.866,15.229],[-12.889,15.251],[-12.895,15.264],[-12.885,15.271],[-12.851,15.268],[-12.834,15.27],[-12.829,15.284],[-12.835,15.3],[-12.848,15.314],[-12.907,15.353],[-12.932,15.397],[-12.932,15.431],[-12.934,15.439],[-12.938,15.446],[-12.948,15.459],[-12.952,15.466],[-12.956,15.493],[-12.959,15.502],[-12.965,15.509],[-13.04,15.487],[-13.054,15.485],[-13.085,15.493],[-13.083,15.492]]]},"properties":{"nom":"Sénégal"}},{"type":"Feature","geometry":{"type":"MultiLineString","coordinates":[[[-7.106,12.008],[-7.094,12.027],[-7.146,12.058],[-7.161,12.074],[-7.154,12.085],[-7.106,12.091],[-7.123,12.149],[-7.082,12.177],[-7.118,12.224],[-7.106,12.256],[-7.104,12.284],[-7.115,12.298],[-7.128,12.311],[-7.134,12.334],[-7.134,12.407],[-7.134,12.447],[-7.034,12.544],[-6.918,12.563],[-6.867,12.527],[-6.719,12.515],[-6.603,12.554],[-6.518,12.674]],[[-7.463,9.549],[-7.535,9.584],[-7.613,9.731],[-7.55,9.856],[-7.586,9.967],[-7.579,10.059],[-7.616,10.112],[-7.61,10.199],[-7.716,10.296],[-7.756,10.301],[-7.778,10.33],[-7.758,10.334],[-7.736,10.347],[-7.725,10.364],[-7.737,10.378],[-7.723,10.385],[-7.838,10.589],[-7.737,10.748],[-7.684,10.764],[-7.648,10.834],[-7.638,10.933],[-7.687,10.983],[-7.644,11.251],[-7.564,11.3],[-7.475,11.403],[-7.413,11.389],[-7.358,11.435],[-7.371,11.588],[-7.27,11.707],[-7.197,11.742],[-7.141,11.718],[-7.154,11.896],[-7.147,11.955],[-7.111,11.973],[-7.106,12.016]]]},"properties":{"nom":"Baoulé"}},{"type":"Feature","geometry":{"type":"LineString","coordinates":[[-8.73,12.359],[-8.701,12.408],[-8.606,12.448],[-8.568,12.546],[-8.562,12.679],[-8.634,12.859],[-8.634,12.885],[-8.624,12.909],[-8.579,12.978],[-8.571,13.032],[-8.579,13.099],[-8.555,13.218],[-8.533,13.248],[-8.523,13.272],[-8.52,13.292],[-8.5,13.353],[-8.462,13.39],[-8.457,13.463],[-8.468,13.48],[-8.497,13.508],[-8.543,13.579],[-8.555,13.683],[-8.551,13.704],[-8.514,13.744],[-8.506,13.757],[-8.49,13.788],[-8.458,13.823],[-8.465,13.923],[-8.512,13.952],[-8.546,13.952],[-8.566,13.946],[-8.576,13.912],[-8.593,13.879],[-8.594,13.866],[-8.58,13.863],[-8.593,13.84],[-8.618,13.837],[-8.704,13.85],[-8.751,13.917],[-8.847,13.969],[-8.841,14.004],[-8.835,14.024],[-8.832,14.032],[-8.824,14.042],[-8.818,14.058],[-8.824,14.093],[-8.819,14.106],[-8.797,14.114],[-8.765,14.109],[-8.758,14.137],[-8.759,14.16],[-8.764,14.181],[-8.809,14.288],[-8.958,14.358],[-8.965,14.309],[-8.975,14.278],[-9,14.239],[-9.009,14.187],[-8.926,14.094],[-8.927,13.986],[-8.977,13.967],[-9.028,14.03],[-9.086,14.04],[-9.171,13.971],[-9.322,13.961],[-9.414,13.847],[-9.433,13.79],[-9.592,13.678],[-9.685,13.709],[-9.809,13.684],[-9.83,13.592],[-9.889,13.56]]},"properties":{"nom":"Baoulé"}},{"type":"Feature","geometry":{"type":"LineString","coordinates":[[-9.889,13.56],[-9.931,13.552],[-9.977,13.557],[-10.109,13.642],[-10.213,13.661],[-10.377,13.601],[-10.516,13.654],[-10.56,13.714],[-10.637,13.722],[-10.71,13.779],[-10.851,13.814]]},"properties":{"nom":"Bakoy"}}]}