{"type":"FeatureCollection","features":[{"type":"Feature","geometry":{"type":"Polygon","coordinates":[[[-13.861,13.511],[-13.793,13.438],[-13.839,13.333],[-13.952,13.321],[-14.005,13.291],[-14.115,13.279],[-14.142,13.222],[-14.359,13.23],[-14.517,13.306],[-14.578,13.359],[-14.673,13.344],[-14.76,13.417],[-14.913,13.451],[-14.999,13.492],[-15.09,13.6],[-15.197,13.529],[-15.229,13.419],[-15.3,13.366],[-15.38,13.356],[-15.515,13.394],[-15.557,13.359],[-15.683,13.371],[-15.805,13.349],[-15.804,13.167],[-16.001,13.165],[-16.691,13.17],[-16.738,13.115],[-16.741,13.012],[-16.787,12.776],[-16.782,12.656],[-16.752,12.55],[-16.794,12.486],[-16.775,12.406],[-16.69,12.359],[-16.514,12.351],[-16.375,12.376],[-16.203,12.461],[-16.039,12.472],[-15.681,12.425],[-15.429,12.537],[-15.338,12.614],[-15.179,12.685],[-14.794,12.679],[-14.535,12.681],[-14.001,12.676],[-13.51,12.677],[-13.485,12.674],[-13.348,12.659],[-13.345,12.654],[-13.341,12.651],[-13.338,12.651],[-13.335,12.658],[-13.33,12.657],[-13.334,12.646],[-13.323,12.642],[-13.288,12.646],[-13.292,12.653],[-13.282,12.657],[-13.268,12.652],[-13.208,12.655],[-13.123,12.641],[-13.048,12.626],[-13.043,12.579],[-13.068,12.536],[-13.066,12.492],[-12.949,12.481],[-12.945,12.541],[-12.898,12.555],[-12.846,12.519],[-12.838,12.511],[-12.848,12.501],[-12.847,12.497],[-12.829,12.491],[-12.817,12.48],[-12.793,12.486],[-12.755,12.469],[-12.759,12.454],[-12.767,12.44],[-12.765,12.436],[-12.676,12.441],[-12.628,12.437],[-12.613,12.426],[-12.6,12.406],[-12.587,12.41],[-12.583,12.404],[-12.585,12.398],[-12.582,12.392],[-12.583,12.39],[-12.567,12.369],[-12.562,12.369],[-12.549,12.375],[-12.517,12.405],[-12.45,12.4],[-12.396,12.38],[-12.391,12.371],[-12.366,12.336],[-12.364,12.32],[-12.36,12.311],[-12.357,12.308],[-12.325,12.321],[-12.294,12.337],[-12.248,12.353],[-12.225,12.358],[-12.216,12.358],[-12.211,12.354],[-12.207,12.354],[-12.196,12.357],[-12.191,12.357],[-12.187,12.36],[-12.174,12.36],[-12.172,12.366],[-12.166,12.37],[-12.154,12.374],[-12.151,12.376],[-12.148,12.382],[-12.13,12.387],[-12.115,12.411],[-12.105,12.416],[-12.098,12.416],[-12.092,12.418],[-12.087,12.423],[-12.039,12.425],[-12.011,12.4],[-11.899,12.45],[-11.875,12.42],[-11.864,12.419],[-11.863,12.413],[-11.855,12.405],[-11.85,12.402],[-11.848,12.397],[-11.845,12.397],[-11.838,12.401],[-11.831,12.404],[-11.802,12.406],[-11.775,12.396],[-11.767,12.386],[-11.728,12.391],[-11.718,12.401],[-11.714,12.403],[-11.702,12.401],[-11.697,12.402],[-11.69,12.407],[-11.681,12.418],[-11.669,12.426],[-11.631,12.435],[-11.475,12.45],[-11.42,12.437],[-11.399,12.419],[-11.368,12.421],[-11.374,12.455],[-11.353,12.465],[-11.361,12.481],[-11.355,12.494],[-11.361,12.509],[-11.369,12.508],[-11.374,12.496],[-11.371,12.487],[-11.376,12.485],[-11.384,12.493],[-11.38,12.512],[-11.381,12.523],[-11.389,12.537],[-11.416,12.653],[-11.424,12.665],[-11.432,12.663],[-11.445,12.664],[-11.448,12.668],[-11.448,12.679],[-11.426,12.73],[-11.386,12.729],[-11.389,12.768],[-11.383,12.805],[-11.412,12.848],[-11.393,12.934],[-11.381,12.929],[-11.351,12.935],[-11.348,12.94],[-11.348,12.943],[-11.353,12.949],[-11.358,12.96],[-11.358,12.979],[-11.367,12.991],[-11.375,12.994],[-11.381,12.994],[-11.385,12.992],[-11.381,12.976],[-11.385,12.967],[-11.393,12.966],[-11.404,12.975],[-11.408,12.984],[-11.416,12.993],[-11.417,13],[-11.398,13.005],[-11.397,13.007],[-11.397,13.01],[-11.401,13.015],[-11.416,13.02],[-11.411,13.034],[-11.428,13.085],[-11.47,13.097],[-11.496,13.12],[-11.502,13.144],[-11.515,13.147],[-11.519,13.156],[-11.518,13.159],[-11.535,13.198],[-11.527,13.249],[-11.596,13.338],[-11.595,13.362],[-11.601,13.367],[-11.619,13.361],[-11.637,13.364],[-11.626,13.381],[-11.625,13.386],[-11.627,13.394],[-11.692,13.389],[-11.729,13.416],[-11.76,13.366],[-11.767,13.34],[-11.784,13.338],[-11.793,13.33],[-11.795,13.316],[-11.797,13.311],[-11.826,13.308],[-11.828,13.324],[-11.871,13.379],[-11.884,13.382],[-11.888,13.385],[-11.874,13.426],[-11.865,13.435],[-11.865,13.449],[-11.871,13.465],[-11.933,13.517],[-11.952,13.521],[-11.959,13.528],[-11.971,13.535],[-11.973,13.54],[-11.974,13.549],[-11.983,13.56],[-11.998,13.568],[-11.998,13.584],[-12,13.589],[-12.036,13.621],[-12.05,13.684],[-12.069,13.707],[-12.074,13.72],[-12.005,13.756],[-11.953,13.821],[-11.951,13.825],[-11.95,13.838],[-11.947,13.846],[-11.948,13.857],[-11.943,13.862],[-11.933,13.924],[-12.011,13.988],[-12.004,14],[-12.006,14.012],[-12.015,14.028],[-12.008,14.033],[-12.009,14.05],[-12.002,14.053],[-12,14.058],[-11.998,14.058],[-11.995,14.064],[-11.998,14.076],[-11.997,14.085],[-11.983,14.088],[-11.989,14.124],[-11.978,14.148],[-11.978,14.164],[-11.975,14.184],[-11.977,14.187],[-11.989,14.193],[-11.989,14.206],[-11.999,14.214],[-12.024,14.284],[-12.06,14.298],[-12.076,14.297],[-12.081,14.304],[-12.091,14.304],[-12.095,14.308],[-12.101,14.305],[-12.103,14.312],[-12.096,14.313],[-12.093,14.318],[-12.106,14.334],[-12.103,14.347],[-12.098,14.355],[-12.093,14.354],[-12.095,14.358],[-12.093,14.362],[-12.093,14.367],[-12.102,14.374],[-12.117,14.366],[-12.13,14.385],[-12.199,14.405],[-12.2,14.423],[-12.197,14.427],[-12.189,14.436],[-12.189,14.443],[-12.205,14.459],[-12.197,14.479],[-12.216,14.488],[-12.219,14.506],[-12.212,14.525],[-12.215,14.547],[-12.212,14.552],[-12.206,14.556],[-12.192,14.554],[-12.185,14.556],[-12.171,14.586],[-12.171,14.613],[-12.152,14.617],[-12.148,14.621],[-12.144,14.63],[-12.142,14.64],[-12.144,14.653],[-12.158,14.681],[-12.181,14.697],[-12.2,14.697],[-12.215,14.737],[-12.232,14.739],[-12.238,14.767],[-12.278,14.779],[-12.285,14.785],[-12.32,14.826],[-12.334,14.832],[-12.355,14.831],[-12.37,14.836],[-12.385,14.847],[-12.391,14.846],[-12.394,14.847],[-12.448,14.893],[-12.449,14.898],[-12.446,14.906],[-12.445,14.915],[-12.449,14.925],[-12.455,14.975],[-12.458,14.987],[-12.469,15.002],[-12.477,15.006],[-12.481,15.011],[-12.492,15.018],[-12.551,15.034],[-12.578,15.061],[-12.584,15.064],[-12.596,15.078],[-12.601,15.082],[-12.611,15.088],[-12.632,15.096],[-12.658,15.11],[-12.672,15.11],[-12.682,15.105],[-12.685,15.101],[-12.686,15.089],[-12.688,15.087],[-12.693,15.095],[-12.703,15.102],[-12.719,15.108],[-12.74,15.13],[-12.751,15.138],[-12.78,15.149],[-12.787,15.153],[-12.79,15.16],[-12.79,15.166],[-12.783,15.188],[-12.788,15.207],[-12.792,15.211],[-12.803,15.217],[-12.815,15.217],[-12.822,15.215],[-12.838,15.202],[-12.85,15.205],[-12.854,15.219],[-12.864,15.231],[-12.874,15.237],[-12.888,15.244],[-12.893,15.251],[-12.896,15.257],[-12.895,15.263],[-12.889,15.267],[-12.882,15.269],[-12.875,15.268],[-12.862,15.256],[-12.851,15.254],[-12.847,15.254],[-12.834,15.272],[-12.831,15.279],[-12.831,15.285],[-12.842,15.312],[-12.879,15.336],[-12.886,15.339],[-12.907,15.341],[-12.926,15.349],[-12.937,15.357],[-12.944,15.369],[-12.942,15.394],[-12.944,15.407],[-12.943,15.417],[-12.941,15.421],[-12.927,15.432],[-12.923,15.441],[-12.925,15.444],[-12.93,15.448],[-12.951,15.444],[-12.958,15.449],[-12.959,15.455],[-12.958,15.48],[-12.96,15.49],[-12.958,15.499],[-12.945,15.504],[-12.937,15.502],[-12.937,15.507],[-12.952,15.505],[-12.954,15.501],[-12.963,15.505],[-12.982,15.501],[-13,15.497],[-13.008,15.493],[-13.014,15.485],[-13.019,15.483],[-13.041,15.481],[-13.06,15.483],[-13.079,15.493],[-13.097,15.498],[-13.103,15.503],[-13.103,15.508],[-13.099,15.527],[-13.085,15.549],[-13.085,15.558],[-13.087,15.563],[-13.093,15.574],[-13.086,15.578],[-13.087,15.584],[-13.1,15.589],[-13.114,15.598],[-13.144,15.607],[-13.148,15.608],[-13.158,15.614],[-13.157,15.615],[-13.162,15.619],[-13.177,15.627],[-13.182,15.629],[-13.214,15.628],[-13.215,15.627],[-13.214,15.625],[-13.21,15.626],[-13.201,15.626],[-13.21,15.618],[-13.225,15.615],[-13.229,15.62],[-13.234,15.632],[-13.249,15.653],[-13.252,15.659],[-13.253,15.663],[-13.252,15.669],[-13.247,15.678],[-13.228,15.672],[-13.216,15.678],[-13.21,15.687],[-13.207,15.697],[-13.224,15.712],[-13.242,15.731],[-13.269,15.749],[-13.281,15.761],[-13.288,15.764],[-13.29,15.769],[-13.291,15.772],[-13.287,15.788],[-13.283,15.789],[-13.274,15.785],[-13.268,15.784],[-13.265,15.785],[-13.263,15.789],[-13.27,15.799],[-13.286,15.809],[-13.294,15.818],[-13.3,15.829],[-13.301,15.839],[-13.296,15.859],[-13.3,15.872],[-13.303,15.876],[-13.314,15.883],[-13.323,15.886],[-13.331,15.892],[-13.334,15.897],[-13.315,15.914],[-13.312,15.92],[-13.312,15.924],[-13.313,15.927],[-13.318,15.931],[-13.321,15.933],[-13.33,15.933],[-13.34,15.939],[-13.355,15.956],[-13.358,15.962],[-13.364,15.972],[-13.366,15.979],[-13.364,16.001],[-13.376,16.014],[-13.377,16.018],[-13.377,16.033],[-13.374,16.048],[-13.378,16.057],[-13.383,16.061],[-13.393,16.063],[-13.445,16.085],[-13.452,16.093],[-13.457,16.107],[-13.459,16.11],[-13.466,16.11],[-13.476,16.104],[-13.484,16.087],[-13.489,16.081],[-13.502,16.083],[-13.511,16.089],[-13.516,16.101],[-13.514,16.11],[-13.511,16.116],[-13.498,16.125],[-13.482,16.128],[-13.476,16.131],[-13.476,16.135],[-13.479,16.143],[-13.486,16.148],[-13.488,16.148],[-13.516,16.126],[-13.53,16.126],[-13.559,16.136],[-13.574,16.134],[-13.632,16.108],[-13.641,16.107],[-13.657,16.111],[-13.667,16.108],[-13.674,16.097],[-13.678,16.094],[-13.681,16.093],[-13.687,16.097],[-13.704,16.112],[-13.712,16.123],[-13.719,16.136],[-13.721,16.141],[-13.721,16.148],[-13.71,16.158],[-13.702,16.17],[-13.702,16.176],[-13.708,16.182],[-13.714,16.182],[-13.719,16.179],[-13.743,16.157],[-13.757,16.148],[-13.777,16.143],[-13.795,16.146],[-13.832,16.126],[-13.84,16.114],[-13.847,16.107],[-13.849,16.106],[-13.852,16.107],[-13.856,16.116],[-13.857,16.124],[-13.859,16.126],[-13.868,16.129],[-13.871,16.141],[-13.878,16.15],[-13.88,16.161],[-13.878,16.166],[-13.871,16.176],[-13.869,16.181],[-13.87,16.186],[-13.873,16.19],[-13.884,16.197],[-13.897,16.19],[-13.905,16.19],[-13.915,16.196],[-13.919,16.204],[-13.921,16.216],[-13.92,16.226],[-13.921,16.228],[-13.932,16.225],[-13.943,16.233],[-13.954,16.229],[-13.968,16.222],[-13.974,16.222],[-13.97,16.251],[-13.987,16.275],[-13.989,16.277],[-13.99,16.283],[-13.991,16.303],[-13.99,16.307],[-13.983,16.31],[-13.972,16.31],[-13.963,16.306],[-13.96,16.307],[-13.958,16.309],[-13.958,16.314],[-13.966,16.33],[-13.969,16.334],[-13.971,16.336],[-13.977,16.336],[-13.987,16.34],[-14,16.349],[-14.028,16.346],[-14.031,16.35],[-14.037,16.364],[-14.043,16.373],[-14.068,16.396],[-14.069,16.401],[-14.071,16.404],[-14.087,16.417],[-14.092,16.42],[-14.102,16.423],[-14.108,16.428],[-14.11,16.439],[-14.114,16.444],[-14.126,16.451],[-14.138,16.453],[-14.141,16.462],[-14.131,16.477],[-14.138,16.478],[-14.145,16.472],[-14.149,16.472],[-14.153,16.473],[-14.166,16.492],[-14.18,16.498],[-14.188,16.504],[-14.2,16.508],[-14.204,16.516],[-14.2,16.53],[-14.221,16.543],[-14.239,16.547],[-14.249,16.545],[-14.253,16.543],[-14.257,16.535],[-14.26,16.527],[-14.255,16.515],[-14.257,16.514],[-14.272,16.54],[-14.276,16.55],[-14.276,16.559],[-14.268,16.573],[-14.269,16.576],[-14.272,16.578],[-14.275,16.581],[-14.284,16.586],[-14.289,16.585],[-14.292,16.582],[-14.297,16.574],[-14.299,16.572],[-14.315,16.571],[-14.326,16.566],[-14.333,16.569],[-14.334,16.573],[-14.334,16.577],[-14.328,16.606],[-14.328,16.631],[-14.333,16.639],[-14.338,16.641],[-14.355,16.638],[-14.367,16.633],[-14.383,16.637],[-14.397,16.633],[-14.405,16.633],[-14.412,16.638],[-14.415,16.65],[-14.42,16.652],[-14.437,16.642],[-14.444,16.629],[-14.449,16.624],[-14.458,16.623],[-14.473,16.626],[-14.478,16.626],[-14.491,16.615],[-14.501,16.614],[-14.51,16.622],[-14.523,16.627],[-14.53,16.631],[-14.54,16.642],[-14.543,16.644],[-14.548,16.643],[-14.549,16.641],[-14.554,16.622],[-14.557,16.618],[-14.56,16.618],[-14.572,16.624],[-14.583,16.62],[-14.593,16.624],[-14.597,16.623],[-14.603,16.618],[-14.605,16.619],[-14.611,16.627],[-14.619,16.629],[-14.629,16.628],[-14.639,16.618],[-14.646,16.623],[-14.651,16.631],[-14.641,16.634],[-14.639,16.637],[-14.64,16.646],[-14.642,16.649],[-14.65,16.65],[-14.67,16.646],[-14.687,16.646],[-14.707,16.64],[-14.712,16.639],[-14.718,16.642],[-14.724,16.647],[-14.727,16.646],[-14.729,16.633],[-14.736,16.633],[-14.739,16.629],[-14.751,16.63],[-14.751,16.646],[-14.763,16.656],[-14.769,16.656],[-14.773,16.652],[-14.807,16.653],[-14.813,16.656],[-14.816,16.655],[-14.82,16.653],[-14.823,16.639],[-14.825,16.637],[-14.828,16.637],[-14.839,16.641],[-14.858,16.638],[-14.86,16.64],[-14.874,16.662],[-14.878,16.663],[-14.884,16.661],[-14.886,16.658],[-14.889,16.645],[-14.893,16.636],[-14.895,16.634],[-14.9,16.634],[-14.908,16.637],[-14.91,16.642],[-14.909,16.65],[-14.914,16.651],[-14.927,16.639],[-14.933,16.635],[-14.938,16.634],[-14.946,16.639],[-14.954,16.653],[-14.95,16.672],[-14.951,16.679],[-14.98,16.693],[-14.994,16.69],[-14.997,16.685],[-14.998,16.677],[-14.998,16.653],[-15.005,16.641],[-15.032,16.63],[-15.053,16.627],[-15.067,16.646],[-15.07,16.659],[-15.074,16.666],[-15.083,16.676],[-15.091,16.678],[-15.097,16.678],[-15.118,16.654],[-15.122,16.646],[-15.121,16.64],[-15.116,16.632],[-15.096,16.629],[-15.085,16.607],[-15.091,16.598],[-15.112,16.58],[-15.118,16.577],[-15.132,16.578],[-15.141,16.581],[-15.157,16.588],[-15.17,16.59],[-15.181,16.577],[-15.202,16.568],[-15.222,16.554],[-15.23,16.551],[-15.244,16.557],[-15.258,16.57],[-15.272,16.569],[-15.295,16.576],[-15.31,16.576],[-15.318,16.574],[-15.332,16.562],[-15.337,16.559],[-15.343,16.559],[-15.352,16.561],[-15.361,16.56],[-15.377,16.545],[-15.389,16.538],[-15.399,16.536],[-15.413,16.537],[-15.427,16.544],[-15.433,16.552],[-15.438,16.574],[-15.445,16.582],[-15.449,16.586],[-15.458,16.592],[-15.473,16.59],[-15.482,16.579],[-15.505,16.572],[-15.516,16.565],[-15.52,16.555],[-15.52,16.546],[-15.51,16.532],[-15.509,16.528],[-15.517,16.521],[-15.526,16.52],[-15.543,16.514],[-15.558,16.511],[-15.577,16.515],[-15.598,16.528],[-15.608,16.526],[-15.62,16.526],[-15.626,16.524],[-15.632,16.514],[-15.627,16.499],[-15.631,16.492],[-15.647,16.483],[-15.693,16.478],[-15.702,16.471],[-15.708,16.473],[-15.732,16.488],[-15.81,16.507],[-15.831,16.505],[-15.851,16.492],[-15.859,16.491],[-15.861,16.495],[-15.86,16.505],[-15.862,16.511],[-15.869,16.514],[-15.886,16.516],[-15.893,16.516],[-15.916,16.512],[-15.934,16.502],[-15.947,16.49],[-15.96,16.484],[-15.97,16.485],[-15.975,16.492],[-15.981,16.496],[-15.985,16.498],[-15.988,16.5],[-16.003,16.505],[-16.006,16.504],[-16.033,16.483],[-16.042,16.479],[-16.051,16.48],[-16.057,16.483],[-16.062,16.492],[-16.077,16.51],[-16.099,16.523],[-16.101,16.528],[-16.098,16.538],[-16.1,16.547],[-16.108,16.556],[-16.115,16.557],[-16.143,16.552],[-16.157,16.545],[-16.171,16.529],[-16.174,16.526],[-16.184,16.524],[-16.189,16.519],[-16.209,16.516],[-16.215,16.517],[-16.231,16.525],[-16.245,16.528],[-16.26,16.525],[-16.278,16.515],[-16.284,16.506],[-16.287,16.474],[-16.299,16.47],[-16.304,16.463],[-16.309,16.438],[-16.308,16.415],[-16.31,16.41],[-16.314,16.406],[-16.324,16.405],[-16.328,16.402],[-16.33,16.397],[-16.333,16.382],[-16.331,16.348],[-16.343,16.336],[-16.35,16.335],[-16.355,16.33],[-16.365,16.315],[-16.368,16.303],[-16.367,16.294],[-16.356,16.28],[-16.355,16.266],[-16.373,16.231],[-16.388,16.213],[-16.392,16.211],[-16.402,16.211],[-16.41,16.217],[-16.428,16.215],[-16.436,16.209],[-16.443,16.202],[-16.45,16.191],[-16.454,16.181],[-16.455,16.165],[-16.452,16.154],[-16.454,16.149],[-16.451,16.133],[-16.455,16.12],[-16.453,16.114],[-16.445,16.11],[-16.443,16.108],[-16.442,16.103],[-16.457,16.091],[-16.46,16.082],[-16.473,16.069],[-16.477,16.067],[-16.481,16.063],[-16.483,16.063],[-16.49,16.073],[-16.494,16.075],[-16.505,16.068],[-16.505,16.062],[-16.508,16.047],[-16.51,16.047],[-16.512,16.026],[-16.51,15.999],[-16.519,15.889],[-16.517,15.872],[-16.526,15.833],[-16.528,15.819],[-16.55,15.747],[-16.58,15.686],[-16.617,15.623],[-16.81,15.329],[-16.942,15.143],[-17.101,14.964],[-17.131,14.91],[-17.289,14.831],[-17.522,14.741],[-17.432,14.717],[-17.348,14.736],[-17.246,14.699],[-17.164,14.626],[-17.059,14.453],[-16.938,14.361],[-16.871,14.185],[-16.804,14.133],[-16.778,14.063],[-16.761,13.835],[-16.633,13.737],[-16.618,13.658],[-16.548,13.594],[-16.09,13.593],[-15.475,13.592],[-15.41,13.749],[-15.342,13.784],[-15.216,13.751],[-15.061,13.828],[-14.834,13.769],[-14.784,13.656],[-14.716,13.618],[-14.624,13.659],[-14.508,13.628],[-14.455,13.534],[-14.436,13.518],[-14.426,13.504],[-14.321,13.457],[-14.239,13.476],[-14.168,13.533],[-13.977,13.581],[-13.961,13.58],[-13.861,13.511]]]},"properties":{"pays":"Sénégal","code":"SN"}},{"type":"Feature","geometry":{"type":"MultiPolygon","coordinates":[[[[-16.431,19.756],[-16.457,19.727],[-16.451,19.621],[-16.366,19.702],[-16.337,19.856],[-16.422,19.819],[-16.431,19.756]]],[[[-12.747,15.13],[-12.726,15.109],[-12.714,15.103],[-12.699,15.099],[-12.695,15.092],[-12.696,15.089],[-12.692,15.084],[-12.689,15.084],[-12.687,15.087],[-12.686,15.098],[-12.682,15.105],[-12.671,15.108],[-12.66,15.107],[-12.637,15.095],[-12.608,15.083],[-12.551,15.031],[-12.529,15.023],[-12.509,15.018],[-12.501,15.017],[-12.492,15.014],[-12.478,15.002],[-12.462,14.982],[-12.453,14.922],[-12.453,14.893],[-12.396,14.844],[-12.354,14.828],[-12.338,14.828],[-12.326,14.825],[-12.317,14.817],[-12.304,14.799],[-12.294,14.789],[-12.284,14.775],[-12.247,14.766],[-12.241,14.764],[-12.239,14.759],[-12.236,14.758],[-12.221,14.757],[-12.206,14.759],[-12.18,14.758],[-12.153,14.772],[-12.136,14.773],[-12.128,14.769],[-12.112,14.745],[-12.062,14.717],[-12.057,14.716],[-12.05,14.723],[-12.045,14.74],[-12.05,14.752],[-12.047,14.758],[-12.04,14.76],[-12.023,14.759],[-12.008,14.763],[-12,14.763],[-11.991,14.76],[-11.979,14.762],[-11.956,14.776],[-11.944,14.79],[-11.94,14.808],[-11.937,14.814],[-11.93,14.817],[-11.907,14.822],[-11.869,14.844],[-11.806,14.902],[-11.815,14.922],[-11.815,14.939],[-11.807,14.966],[-11.801,14.994],[-11.793,15.019],[-11.792,15.025],[-11.802,15.044],[-11.815,15.047],[-11.822,15.046],[-11.828,15.039],[-11.832,15.037],[-11.843,15.041],[-11.847,15.048],[-11.847,15.092],[-11.838,15.112],[-11.82,15.128],[-11.838,15.172],[-11.837,15.18],[-11.832,15.189],[-11.823,15.201],[-11.813,15.216],[-11.805,15.242],[-11.807,15.26],[-11.805,15.278],[-11.797,15.305],[-11.786,15.321],[-11.771,15.337],[-11.753,15.411],[-11.747,15.456],[-11.736,15.473],[-11.715,15.487],[-11.715,15.526],[-11.712,15.538],[-11.705,15.536],[-11.703,15.532],[-11.679,15.532],[-11.669,15.536],[-11.654,15.522],[-11.646,15.521],[-11.629,15.522],[-11.571,15.543],[-11.569,15.55],[-11.572,15.556],[-11.57,15.571],[-11.567,15.576],[-11.56,15.578],[-11.552,15.583],[-11.526,15.606],[-11.502,15.619],[-11.503,15.622],[-11.511,15.638],[-11.499,15.643],[-11.429,15.645],[-11.422,15.641],[-11.412,15.63],[-11.398,15.607],[-11.369,15.569],[-11.368,15.542],[-11.363,15.526],[-11.328,15.507],[-11.319,15.497],[-11.291,15.455],[-11.282,15.445],[-11.254,15.42],[-11.241,15.411],[-11.21,15.4],[-11.2,15.394],[-11.177,15.373],[-11.143,15.349],[-11.139,15.349],[-11.075,15.304],[-10.999,15.238],[-10.946,15.17],[-10.945,15.154],[-10.928,15.143],[-10.921,15.128],[-10.903,15.104],[-10.88,15.13],[-10.88,15.141],[-10.877,15.15],[-10.874,15.178],[-10.874,15.189],[-10.857,15.206],[-10.843,15.21],[-10.835,15.218],[-10.825,15.244],[-10.829,15.269],[-10.823,15.274],[-10.798,15.305],[-10.795,15.306],[-10.788,15.303],[-10.78,15.303],[-10.778,15.306],[-10.776,15.32],[-10.762,15.33],[-10.75,15.333],[-10.748,15.331],[-10.743,15.332],[-10.727,15.349],[-10.718,15.368],[-10.72,15.374],[-10.721,15.388],[-10.724,15.401],[-10.726,15.406],[-10.729,15.424],[-10.728,15.432],[-10.724,15.437],[-10.713,15.438],[-10.694,15.434],[-10.688,15.434],[-10.68,15.428],[-10.664,15.405],[-10.656,15.406],[-10.645,15.413],[-10.643,15.413],[-10.633,15.42],[-10.626,15.422],[-10.597,15.421],[-10.591,15.424],[-10.588,15.427],[-10.585,15.428],[-10.508,15.44],[-10.394,15.439],[-10.371,15.432],[-10.336,15.434],[-10.321,15.431],[-10.131,15.367],[-9.998,15.357],[-9.966,15.362],[-9.922,15.374],[-9.793,15.373],[-9.752,15.408],[-9.716,15.403],[-9.707,15.41],[-9.704,15.425],[-9.698,15.427],[-9.408,15.434],[-9.409,15.441],[-9.438,15.577],[-9.437,15.583],[-9.443,15.598],[-9.332,15.692],[-9.313,15.675],[-9.311,15.666],[-9.32,15.632],[-9.332,15.569],[-9.335,15.524],[-9.334,15.515],[-9.328,15.496],[-9.201,15.496],[-9.134,15.497],[-9.124,15.498],[-9.119,15.497],[-9.001,15.497],[-8.899,15.496],[-8.862,15.498],[-8.245,15.497],[-7.639,15.5],[-6.903,15.497],[-6.373,15.497],[-6.157,15.495],[-5.999,15.495],[-5.809,15.496],[-5.773,15.499],[-5.688,15.5],[-5.597,15.499],[-5.515,15.502],[-5.506,15.508],[-5.451,15.757],[-5.45,15.767],[-5.447,15.775],[-5.398,16],[-5.327,16.333],[-5.603,16.499],[-5.658,17.004],[-5.749,17.84],[-5.828,18.54],[-5.938,19.542],[-5.995,20.024],[-6.055,20.561],[-6.135,21.259],[-6.166,21.513],[-6.195,21.769],[-6.207,21.859],[-6.215,21.947],[-6.224,22.015],[-6.225,22.035],[-6.253,22.278],[-6.312,22.781],[-6.321,22.862],[-6.325,22.904],[-6.327,22.912],[-6.334,22.971],[-6.353,23.14],[-6.381,23.379],[-6.418,23.673],[-6.417,23.687],[-6.433,23.79],[-6.485,24.307],[-6.553,24.884],[-6.555,24.921],[-6.564,25],[-5.752,25],[-5,25],[-5,24.996],[-4.941,24.994],[-4.937,24.996],[-4.908,24.995],[-4.904,24.996],[-4.828,24.997],[-5.409,25.366],[-6.342,25.939],[-7,26.341],[-7.602,26.69],[-7.895,26.854],[-8.664,27.294],[-8.672,27.288],[-8.672,26.667],[-8.674,25.998],[-9.563,26],[-10.374,25.999],[-11.286,25.998],[-12.004,25.999],[-12.004,25.385],[-12.006,24.787],[-12,24],[-12,23.455],[-12.74,23.391],[-12.807,23.362],[-12.957,23.213],[-13.085,22.995],[-13.146,22.731],[-13.055,21.84],[-13.002,21.331],[-14.018,21.341],[-14.652,21.342],[-15.635,21.342],[-16.309,21.337],[-16.94,21.327],[-17.003,21.105],[-17.066,20.923],[-17.017,20.915],[-17.003,21.018],[-16.949,21.104],[-16.885,21.12],[-16.862,21.027],[-16.778,20.928],[-16.758,20.832],[-16.673,20.675],[-16.532,20.563],[-16.528,20.713],[-16.4,20.565],[-16.311,20.34],[-16.204,20.218],[-16.236,20.085],[-16.224,19.995],[-16.278,19.911],[-16.256,19.784],[-16.318,19.735],[-16.394,19.615],[-16.386,19.515],[-16.288,19.528],[-16.354,19.435],[-16.51,19.348],[-16.471,19.255],[-16.362,19.196],[-16.252,19.072],[-16.218,18.996],[-16.181,18.911],[-16.135,18.662],[-16.094,18.58],[-16.073,18.509],[-16.06,18.475],[-16.056,18.456],[-16.055,18.446],[-16.053,18.438],[-16.05,18.39],[-16.05,18.34],[-16.038,18.274],[-16.037,18.212],[-16.031,18.188],[-16.029,18.171],[-16.02,17.982],[-16.027,17.961],[-16.032,17.931],[-16.033,17.927],[-16.034,17.917],[-16.036,17.913],[-16.037,17.887],[-16.04,17.845],[-16.042,17.838],[-16.041,17.828],[-16.043,17.822],[-16.042,17.813],[-16.044,17.79],[-16.046,17.718],[-16.096,17.469],[-16.11,17.427],[-16.128,17.377],[-16.132,17.363],[-16.152,17.309],[-16.155,17.305],[-16.167,17.275],[-16.171,17.267],[-16.172,17.263],[-16.18,17.245],[-16.181,17.24],[-16.188,17.228],[-16.2,17.197],[-16.211,17.172],[-16.215,17.167],[-16.214,17.165],[-16.222,17.152],[-16.247,17.089],[-16.283,17.013],[-16.353,16.847],[-16.441,16.62],[-16.451,16.55],[-16.451,16.512],[-16.465,16.447],[-16.508,16.329],[-16.521,16.277],[-16.511,16.217],[-16.514,16.166],[-16.51,16.095],[-16.511,16.084],[-16.51,16.078],[-16.51,16.063],[-16.506,16.062],[-16.51,16.062],[-16.483,16.062],[-16.483,16.066],[-16.479,16.068],[-16.472,16.079],[-16.466,16.083],[-16.462,16.093],[-16.448,16.107],[-16.46,16.117],[-16.456,16.134],[-16.459,16.184],[-16.447,16.204],[-16.437,16.215],[-16.419,16.221],[-16.413,16.221],[-16.401,16.214],[-16.391,16.218],[-16.376,16.234],[-16.367,16.26],[-16.358,16.268],[-16.357,16.278],[-16.36,16.284],[-16.368,16.291],[-16.371,16.298],[-16.371,16.304],[-16.365,16.324],[-16.36,16.33],[-16.353,16.335],[-16.343,16.338],[-16.334,16.352],[-16.337,16.369],[-16.337,16.389],[-16.332,16.402],[-16.322,16.408],[-16.313,16.41],[-16.31,16.457],[-16.301,16.471],[-16.288,16.476],[-16.287,16.486],[-16.289,16.499],[-16.287,16.508],[-16.28,16.515],[-16.267,16.524],[-16.26,16.527],[-16.244,16.53],[-16.23,16.527],[-16.214,16.519],[-16.191,16.52],[-16.184,16.525],[-16.176,16.528],[-16.162,16.544],[-16.152,16.551],[-16.137,16.555],[-16.134,16.555],[-16.134,16.553],[-16.121,16.556],[-16.113,16.556],[-16.098,16.539],[-16.101,16.526],[-16.1,16.523],[-16.057,16.481],[-16.054,16.479],[-16.045,16.478],[-16.037,16.481],[-16.03,16.485],[-16.014,16.499],[-16.008,16.502],[-16.002,16.503],[-15.996,16.503],[-15.986,16.499],[-15.975,16.492],[-15.971,16.486],[-15.967,16.485],[-15.961,16.508],[-15.942,16.541],[-15.908,16.562],[-15.907,16.553],[-15.913,16.531],[-15.924,16.509],[-15.913,16.514],[-15.892,16.518],[-15.868,16.514],[-15.863,16.511],[-15.86,16.507],[-15.859,16.503],[-15.86,16.495],[-15.859,16.492],[-15.854,16.493],[-15.834,16.506],[-15.811,16.509],[-15.73,16.489],[-15.714,16.478],[-15.7,16.472],[-15.698,16.473],[-15.694,16.479],[-15.689,16.481],[-15.65,16.484],[-15.64,16.487],[-15.633,16.491],[-15.629,16.494],[-15.628,16.5],[-15.633,16.514],[-15.632,16.518],[-15.631,16.523],[-15.626,16.526],[-15.626,16.528],[-15.623,16.529],[-15.599,16.529],[-15.591,16.527],[-15.575,16.516],[-15.561,16.513],[-15.545,16.514],[-15.518,16.522],[-15.511,16.526],[-15.509,16.529],[-15.511,16.533],[-15.52,16.546],[-15.52,16.556],[-15.516,16.563],[-15.505,16.572],[-15.482,16.582],[-15.478,16.588],[-15.469,16.593],[-15.458,16.593],[-15.445,16.585],[-15.434,16.574],[-15.431,16.567],[-15.43,16.554],[-15.427,16.546],[-15.399,16.537],[-15.375,16.548],[-15.361,16.56],[-15.356,16.562],[-15.345,16.56],[-15.339,16.561],[-15.315,16.573],[-15.309,16.574],[-15.291,16.572],[-15.271,16.567],[-15.263,16.568],[-15.257,16.568],[-15.241,16.554],[-15.234,16.552],[-15.226,16.553],[-15.202,16.568],[-15.181,16.577],[-15.172,16.588],[-15.161,16.588],[-15.138,16.579],[-15.121,16.577],[-15.111,16.581],[-15.1,16.592],[-15.09,16.599],[-15.084,16.608],[-15.084,16.616],[-15.095,16.631],[-15.11,16.633],[-15.117,16.635],[-15.12,16.645],[-15.118,16.654],[-15.097,16.677],[-15.086,16.677],[-15.078,16.672],[-15.072,16.664],[-15.064,16.643],[-15.053,16.628],[-15.047,16.632],[-15.041,16.631],[-15.033,16.631],[-15.006,16.64],[-15.002,16.643],[-14.998,16.652],[-14.996,16.683],[-14.989,16.691],[-14.979,16.69],[-14.954,16.679],[-14.951,16.674],[-14.953,16.663],[-14.955,16.655],[-14.954,16.648],[-14.944,16.633],[-14.936,16.631],[-14.928,16.635],[-14.917,16.646],[-14.912,16.648],[-14.912,16.637],[-14.903,16.63],[-14.894,16.633],[-14.752,16.627],[-14.741,16.62],[-14.733,16.621],[-14.738,16.629],[-14.736,16.632],[-14.729,16.632],[-14.727,16.633],[-14.728,16.645],[-14.726,16.647],[-14.72,16.641],[-14.714,16.638],[-14.69,16.645],[-14.666,16.646],[-14.651,16.65],[-14.646,16.649],[-14.642,16.647],[-14.64,16.645],[-14.641,16.636],[-14.651,16.633],[-14.652,16.629],[-14.649,16.625],[-14.639,16.617],[-14.636,16.618],[-14.629,16.628],[-14.617,16.629],[-14.613,16.628],[-14.61,16.626],[-14.606,16.618],[-14.603,16.617],[-14.595,16.623],[-14.585,16.62],[-14.572,16.624],[-14.566,16.622],[-14.56,16.617],[-14.556,16.617],[-14.552,16.624],[-14.548,16.642],[-14.544,16.643],[-14.529,16.629],[-14.501,16.614],[-14.498,16.614],[-14.487,16.617],[-14.481,16.623],[-14.476,16.626],[-14.448,16.623],[-14.411,16.636],[-14.406,16.632],[-14.4,16.632],[-14.389,16.637],[-14.383,16.637],[-14.366,16.633],[-14.352,16.639],[-14.341,16.641],[-14.333,16.64],[-14.33,16.638],[-14.327,16.63],[-14.328,16.601],[-14.335,16.577],[-14.334,16.571],[-14.33,16.566],[-14.324,16.565],[-14.313,16.57],[-14.298,16.571],[-14.289,16.583],[-14.283,16.586],[-14.279,16.585],[-14.27,16.576],[-14.27,16.571],[-14.274,16.563],[-14.276,16.553],[-14.273,16.543],[-14.261,16.522],[-14.257,16.522],[-14.258,16.525],[-14.256,16.536],[-14.253,16.541],[-14.247,16.546],[-14.238,16.547],[-14.22,16.544],[-14.2,16.531],[-14.199,16.529],[-14.204,16.52],[-14.203,16.513],[-14.201,16.51],[-14.167,16.493],[-14.163,16.489],[-14.156,16.476],[-14.152,16.472],[-14.145,16.471],[-14.138,16.478],[-14.133,16.477],[-14.133,16.475],[-14.141,16.464],[-14.141,16.459],[-14.138,16.454],[-14.119,16.448],[-14.111,16.441],[-14.107,16.427],[-14.103,16.424],[-14.087,16.418],[-14.075,16.409],[-14.069,16.402],[-14.066,16.396],[-14.041,16.372],[-14.035,16.363],[-14.031,16.352],[-14.01,16.349],[-14,16.347],[-13.995,16.346],[-13.989,16.339],[-13.972,16.334],[-13.968,16.331],[-13.957,16.315],[-13.958,16.308],[-13.961,16.306],[-13.973,16.311],[-13.976,16.311],[-13.987,16.309],[-13.991,16.304],[-13.989,16.295],[-13.989,16.279],[-13.987,16.275],[-13.983,16.275],[-13.971,16.276],[-13.96,16.275],[-13.955,16.273],[-13.952,16.269],[-13.968,16.251],[-13.971,16.246],[-13.971,16.233],[-13.974,16.224],[-13.97,16.222],[-13.966,16.223],[-13.953,16.231],[-13.942,16.235],[-13.921,16.23],[-13.917,16.202],[-13.91,16.194],[-13.902,16.191],[-13.895,16.192],[-13.885,16.199],[-13.876,16.196],[-13.869,16.188],[-13.868,16.182],[-13.877,16.169],[-13.879,16.159],[-13.878,16.153],[-13.868,16.14],[-13.867,16.13],[-13.856,16.127],[-13.849,16.107],[-13.846,16.106],[-13.844,16.107],[-13.827,16.127],[-13.792,16.143],[-13.773,16.141],[-13.747,16.15],[-13.736,16.161],[-13.727,16.174],[-13.718,16.181],[-13.708,16.181],[-13.704,16.178],[-13.702,16.169],[-13.703,16.164],[-13.719,16.147],[-13.719,16.141],[-13.715,16.13],[-13.702,16.111],[-13.682,16.095],[-13.678,16.094],[-13.674,16.097],[-13.665,16.107],[-13.661,16.109],[-13.644,16.106],[-13.631,16.107],[-13.576,16.133],[-13.522,16.124],[-13.515,16.126],[-13.488,16.147],[-13.481,16.145],[-13.475,16.134],[-13.476,16.131],[-13.499,16.123],[-13.509,16.116],[-13.514,16.108],[-13.514,16.098],[-13.512,16.093],[-13.499,16.081],[-13.49,16.08],[-13.485,16.082],[-13.475,16.099],[-13.468,16.106],[-13.46,16.109],[-13.457,16.107],[-13.455,16.095],[-13.445,16.084],[-13.379,16.057],[-13.375,16.053],[-13.378,16.021],[-13.377,16.013],[-13.364,15.998],[-13.364,15.993],[-13.366,15.981],[-13.361,15.962],[-13.342,15.937],[-13.328,15.93],[-13.318,15.929],[-13.313,15.925],[-13.312,15.921],[-13.314,15.916],[-13.324,15.906],[-13.329,15.898],[-13.329,15.891],[-13.324,15.885],[-13.307,15.877],[-13.3,15.87],[-13.298,15.86],[-13.302,15.838],[-13.298,15.819],[-13.288,15.788],[-13.292,15.779],[-13.292,15.767],[-13.246,15.73],[-13.22,15.705],[-13.208,15.695],[-13.212,15.684],[-13.219,15.674],[-13.229,15.673],[-13.246,15.678],[-13.251,15.674],[-13.252,15.671],[-13.252,15.655],[-13.239,15.636],[-13.228,15.612],[-13.214,15.609],[-13.201,15.624],[-13.181,15.624],[-13.143,15.603],[-13.087,15.581],[-13.088,15.578],[-13.093,15.575],[-13.094,15.573],[-13.087,15.563],[-13.086,15.551],[-13.099,15.526],[-13.105,15.506],[-13.1,15.495],[-13.053,15.478],[-13.02,15.48],[-13,15.495],[-12.964,15.5],[-12.96,15.476],[-12.963,15.455],[-12.957,15.443],[-12.947,15.418],[-12.948,15.367],[-12.924,15.34],[-12.89,15.337],[-12.882,15.334],[-12.854,15.318],[-12.847,15.312],[-12.835,15.288],[-12.835,15.272],[-12.849,15.254],[-12.864,15.258],[-12.876,15.268],[-12.892,15.269],[-12.899,15.261],[-12.896,15.248],[-12.87,15.232],[-12.849,15.2],[-12.838,15.2],[-12.828,15.211],[-12.822,15.214],[-12.808,15.215],[-12.793,15.207],[-12.786,15.192],[-12.794,15.166],[-12.79,15.151],[-12.747,15.13]]]]},"properties":{"pays":"Mauritanie","code":"MR"}},{"type":"Feature","geometry":{"type":"Polygon","coordinates":[[[-8.531,11.486],[-8.502,11.413],[-8.41,11.396],[-8.381,11.367],[-8.402,11.354],[-8.406,11.329],[-8.356,11.322],[-8.368,11.28],[-8.373,11.277],[-8.389,11.274],[-8.408,11.275],[-8.438,11.29],[-8.46,11.294],[-8.473,11.289],[-8.486,11.268],[-8.483,11.221],[-8.506,11.223],[-8.515,11.214],[-8.54,11.215],[-8.546,11.213],[-8.553,11.208],[-8.559,11.184],[-8.552,11.158],[-8.562,11.134],[-8.68,10.996],[-8.677,10.968],[-8.671,10.948],[-8.647,10.945],[-8.628,10.955],[-8.613,10.959],[-8.605,10.95],[-8.595,10.965],[-8.581,10.954],[-8.547,10.981],[-8.513,10.991],[-8.498,11.003],[-8.477,11.064],[-8.339,11.055],[-8.315,11.024],[-8.302,11.018],[-8.289,11.015],[-8.287,11.012],[-8.26,10.887],[-8.304,10.852],[-8.332,10.768],[-8.32,10.669],[-8.325,10.586],[-8.283,10.586],[-8.276,10.579],[-8.275,10.572],[-8.272,10.57],[-8.271,10.566],[-8.273,10.552],[-8.246,10.507],[-8.23,10.417],[-8.111,10.451],[-8.105,10.394],[-8.102,10.383],[-8.088,10.366],[-8.077,10.343],[-8.07,10.334],[-8.052,10.325],[-8.028,10.34],[-7.999,10.346],[-7.982,10.333],[-7.978,10.314],[-7.974,10.308],[-7.966,10.278],[-7.955,10.266],[-7.956,10.261],[-7.953,10.258],[-7.949,10.255],[-7.946,10.246],[-7.947,10.235],[-7.955,10.229],[-7.958,10.224],[-7.957,10.207],[-7.962,10.193],[-7.979,10.166],[-7.814,10.233],[-7.786,10.277],[-7.769,10.281],[-7.77,10.314],[-7.764,10.318],[-7.751,10.323],[-7.755,10.34],[-7.739,10.346],[-7.729,10.343],[-7.726,10.344],[-7.719,10.358],[-7.73,10.374],[-7.717,10.391],[-7.686,10.4],[-7.67,10.424],[-7.62,10.456],[-7.52,10.452],[-7.357,10.298],[-7.373,10.244],[-7.149,10.247],[-7.015,10.15],[-6.978,10.209],[-7.013,10.257],[-6.94,10.351],[-6.79,10.367],[-6.679,10.337],[-6.639,10.447],[-6.676,10.468],[-6.676,10.593],[-6.637,10.67],[-6.534,10.587],[-6.428,10.558],[-6.399,10.594],[-6.415,10.69],[-6.317,10.681],[-6.249,10.735],[-6.183,10.472],[-6.18,10.371],[-6.232,10.304],[-6.22,10.26],[-6.126,10.203],[-5.998,10.19],[-5.769,10.433],[-5.703,10.425],[-5.644,10.462],[-5.521,10.426],[-5.456,10.552],[-5.463,10.721],[-5.403,10.85],[-5.447,10.908],[-5.49,11.078],[-5.331,11.136],[-5.322,11.205],[-5.252,11.256],[-5.244,11.389],[-5.2,11.423],[-5.2,11.53],[-5.242,11.604],[-5.292,11.613],[-5.26,11.732],[-5.355,11.815],[-5.237,11.865],[-5.121,11.956],[-4.932,12],[-4.736,11.997],[-4.698,12.058],[-4.557,12.134],[-4.581,12.192],[-4.472,12.28],[-4.441,12.33],[-4.422,12.485],[-4.368,12.534],[-4.473,12.691],[-4.346,12.739],[-4.302,12.699],[-4.235,12.726],[-4.21,12.815],[-4.22,12.959],[-4.347,13.113],[-4.259,13.232],[-4.135,13.293],[-4.1,13.383],[-3.94,13.469],[-3.961,13.375],[-3.796,13.367],[-3.738,13.298],[-3.673,13.27],[-3.543,13.162],[-3.422,13.175],[-3.438,13.271],[-3.233,13.284],[-3.279,13.552],[-3.246,13.676],[-3.113,13.687],[-3.058,13.65],[-2.875,13.65],[-2.907,13.725],[-2.907,13.818],[-2.836,13.988],[-2.84,14.048],[-2.677,14.131],[-2.474,14.295],[-2.295,14.244],[-2.104,14.142],[-2.031,14.177],[-2.006,14.231],[-1.979,14.5],[-1.71,14.56],[-1.508,14.665],[-1.34,14.739],[-1.219,14.749],[-1.096,14.783],[-1.051,14.837],[-0.717,15.078],[-0.445,15.079],[-0.385,14.999],[-0.242,15.074],[0.05,14.973],[0.228,14.993],[0.397,14.96],[0.52,14.994],[0.683,14.941],[0.967,14.976],[0.999,14.995],[1.311,15.274],[2.129,15.316],[2.595,15.341],[3.018,15.333],[3.029,15.424],[3.495,15.353],[3.535,15.395],[3.537,15.482],[3.588,15.511],[3.705,15.646],[3.797,15.659],[3.901,15.745],[3.942,15.933],[3.991,15.97],[3.987,16.079],[4.113,16.344],[4.2,16.393],[4.196,16.808],[4.214,16.998],[4.245,16.998],[4.244,17.724],[4.242,18.512],[4.242,19.14],[3.732,19.035],[3.357,18.965],[3.164,19.111],[3.121,19.182],[3.208,19.256],[3.298,19.382],[3.23,19.582],[3.23,19.683],[3.259,19.817],[3.038,19.911],[2.972,19.966],[2.781,19.99],[2.698,20.079],[2.557,20.047],[2.515,20.109],[2.391,20.078],[2.385,20.162],[2.31,20.232],[2.302,20.288],[2.187,20.332],[2.11,20.252],[2.031,20.284],[1.899,20.242],[1.886,20.294],[1.8,20.295],[1.766,20.348],[1.673,20.402],[1.669,20.528],[1.594,20.597],[1.351,20.687],[1.319,20.738],[1.167,20.736],[1.195,20.943],[1.179,21.114],[0.886,21.296],[0.665,21.457],[0.245,21.746],[-0.014,21.907],[-0.508,22.235],[-1.15,22.659],[-1.668,22.995],[-1.994,23.201],[-2.846,23.745],[-3.453,24.13],[-4.354,24.688],[-4.588,24.841],[-4.8,24.976],[-4.833,25],[-4.84,24.998],[-5.244,24.998],[-6.008,24.998],[-6.299,24.999],[-6.566,24.998],[-6.572,24.996],[-6.459,23.997],[-6.403,23.553],[-6.342,23.073],[-6.321,22.849],[-6.25,22.233],[-6.208,21.893],[-6.187,21.69],[-6.143,21.312],[-6.078,20.731],[-6.002,20.069],[-5.996,19.949],[-5.904,19.144],[-5.8,18.25],[-5.723,17.557],[-5.669,17.081],[-5.608,16.495],[-5.333,16.329],[-5.398,16.014],[-5.399,15.996],[-5.445,15.781],[-5.451,15.764],[-5.45,15.757],[-5.506,15.506],[-5.517,15.5],[-5.729,15.499],[-5.9,15.496],[-6.309,15.496],[-6.911,15.496],[-7.27,15.495],[-8.344,15.496],[-8.721,15.497],[-8.983,15.496],[-9,15.497],[-9.136,15.497],[-9.329,15.497],[-9.334,15.512],[-9.335,15.522],[-9.333,15.566],[-9.309,15.689],[-9.331,15.699],[-9.446,15.6],[-9.402,15.434],[-9.694,15.422],[-9.707,15.422],[-9.726,15.426],[-9.765,15.439],[-9.954,15.42],[-10.005,15.434],[-10.134,15.464],[-10.258,15.474],[-10.308,15.448],[-10.337,15.431],[-10.371,15.429],[-10.394,15.436],[-10.508,15.437],[-10.563,15.43],[-10.57,15.427],[-10.596,15.423],[-10.609,15.419],[-10.617,15.421],[-10.625,15.42],[-10.631,15.417],[-10.64,15.416],[-10.657,15.42],[-10.669,15.429],[-10.705,15.44],[-10.721,15.439],[-10.727,15.434],[-10.729,15.424],[-10.722,15.381],[-10.716,15.367],[-10.733,15.338],[-10.737,15.333],[-10.745,15.331],[-10.751,15.335],[-10.759,15.332],[-10.765,15.326],[-10.766,15.322],[-10.774,15.321],[-10.777,15.317],[-10.781,15.302],[-10.785,15.302],[-10.793,15.307],[-10.8,15.305],[-10.804,15.3],[-10.806,15.294],[-10.812,15.289],[-10.825,15.283],[-10.831,15.268],[-10.831,15.263],[-10.827,15.253],[-10.825,15.243],[-10.837,15.212],[-10.869,15.189],[-10.876,15.156],[-10.876,15.148],[-10.88,15.138],[-10.911,15.115],[-10.913,15.124],[-10.92,15.132],[-10.92,15.139],[-10.946,15.155],[-10.953,15.157],[-10.989,15.218],[-10.991,15.228],[-11,15.232],[-11.015,15.245],[-11.044,15.265],[-11.06,15.284],[-11.073,15.291],[-11.141,15.347],[-11.189,15.376],[-11.202,15.393],[-11.253,15.416],[-11.256,15.426],[-11.265,15.437],[-11.298,15.466],[-11.307,15.484],[-11.322,15.501],[-11.329,15.502],[-11.337,15.511],[-11.341,15.52],[-11.357,15.527],[-11.36,15.534],[-11.358,15.553],[-11.368,15.569],[-11.39,15.597],[-11.409,15.631],[-11.411,15.633],[-11.423,15.634],[-11.432,15.639],[-11.434,15.636],[-11.449,15.639],[-11.49,15.637],[-11.515,15.636],[-11.518,15.636],[-11.516,15.633],[-11.503,15.628],[-11.492,15.614],[-11.519,15.592],[-11.536,15.597],[-11.54,15.594],[-11.547,15.592],[-11.553,15.582],[-11.56,15.582],[-11.565,15.579],[-11.573,15.555],[-11.583,15.544],[-11.594,15.542],[-11.62,15.527],[-11.642,15.522],[-11.652,15.533],[-11.655,15.532],[-11.661,15.527],[-11.664,15.535],[-11.67,15.536],[-11.68,15.535],[-11.698,15.537],[-11.7,15.539],[-11.711,15.538],[-11.715,15.526],[-11.709,15.489],[-11.713,15.483],[-11.727,15.477],[-11.748,15.45],[-11.747,15.415],[-11.765,15.346],[-11.776,15.329],[-11.79,15.32],[-11.792,15.306],[-11.792,15.293],[-11.805,15.276],[-11.808,15.266],[-11.805,15.258],[-11.805,15.252],[-11.803,15.249],[-11.804,15.243],[-11.802,15.234],[-11.81,15.209],[-11.815,15.205],[-11.817,15.2],[-11.824,15.196],[-11.831,15.189],[-11.839,15.178],[-11.847,15.093],[-11.846,15.085],[-11.843,15.08],[-11.834,15.075],[-11.831,15.066],[-11.832,15.062],[-11.841,15.052],[-11.845,15.043],[-11.842,15.033],[-11.831,15.03],[-11.811,15.042],[-11.806,15.039],[-11.801,15.039],[-11.796,15.028],[-11.792,15.025],[-11.791,15.023],[-11.8,14.997],[-11.799,14.981],[-11.804,14.973],[-11.805,14.964],[-11.81,14.957],[-11.811,14.95],[-11.814,14.948],[-11.818,14.937],[-11.818,14.926],[-11.81,14.916],[-11.81,14.912],[-11.805,14.911],[-11.8,14.904],[-11.801,14.897],[-11.801,14.894],[-11.945,14.773],[-11.979,14.761],[-11.985,14.762],[-11.992,14.76],[-11.996,14.764],[-12.003,14.764],[-12.008,14.758],[-12.008,14.762],[-12.022,14.76],[-12.033,14.762],[-12.036,14.766],[-12.042,14.765],[-12.049,14.759],[-12.046,14.755],[-12.047,14.748],[-12.044,14.732],[-12.053,14.719],[-12.071,14.726],[-12.11,14.748],[-12.114,14.753],[-12.122,14.77],[-12.14,14.773],[-12.154,14.769],[-12.173,14.758],[-12.213,14.755],[-12.232,14.758],[-12.239,14.761],[-12.236,14.754],[-12.234,14.735],[-12.214,14.728],[-12.207,14.695],[-12.183,14.692],[-12.176,14.665],[-12.144,14.644],[-12.144,14.631],[-12.15,14.617],[-12.168,14.612],[-12.173,14.607],[-12.174,14.583],[-12.185,14.566],[-12.186,14.555],[-12.187,14.552],[-12.209,14.552],[-12.212,14.551],[-12.216,14.543],[-12.214,14.521],[-12.219,14.509],[-12.222,14.494],[-12.217,14.483],[-12.199,14.476],[-12.207,14.456],[-12.19,14.435],[-12.19,14.432],[-12.196,14.426],[-12.201,14.415],[-12.2,14.403],[-12.161,14.384],[-12.127,14.372],[-12.118,14.364],[-12.108,14.37],[-12.093,14.365],[-12.092,14.359],[-12.093,14.35],[-12.098,14.349],[-12.101,14.341],[-12.095,14.339],[-12.088,14.332],[-12.092,14.327],[-12.09,14.321],[-12.095,14.31],[-12.101,14.307],[-12.092,14.301],[-12.083,14.301],[-12.072,14.294],[-12.062,14.296],[-12.027,14.283],[-12.002,14.214],[-11.995,14.206],[-11.987,14.2],[-11.988,14.188],[-11.974,14.181],[-11.976,14.098],[-11.983,14.086],[-11.997,14.082],[-11.999,14.072],[-11.995,14.06],[-12.003,14.049],[-12.01,14.047],[-12.008,14.03],[-12.016,14.023],[-12.01,13.984],[-11.989,13.96],[-11.934,13.919],[-11.944,13.862],[-11.943,13.857],[-11.947,13.853],[-11.947,13.838],[-11.953,13.814],[-12.004,13.752],[-12.04,13.73],[-12.062,13.723],[-12.066,13.716],[-12.073,13.715],[-12.038,13.619],[-12.017,13.597],[-11.998,13.585],[-11.999,13.567],[-11.982,13.556],[-11.975,13.548],[-11.971,13.539],[-11.971,13.533],[-11.949,13.517],[-11.873,13.461],[-11.865,13.446],[-11.867,13.432],[-11.884,13.396],[-11.887,13.384],[-11.886,13.379],[-11.872,13.376],[-11.862,13.359],[-11.83,13.325],[-11.826,13.304],[-11.799,13.307],[-11.797,13.309],[-11.794,13.319],[-11.788,13.33],[-11.771,13.333],[-11.766,13.34],[-11.762,13.356],[-11.742,13.384],[-11.643,13.39],[-11.631,13.391],[-11.626,13.389],[-11.624,13.381],[-11.637,13.363],[-11.633,13.358],[-11.613,13.358],[-11.6,13.363],[-11.597,13.362],[-11.595,13.358],[-11.542,13.281],[-11.525,13.25],[-11.526,13.195],[-11.505,13.193],[-11.502,13.174],[-11.508,13.164],[-11.517,13.154],[-11.518,13.147],[-11.502,13.138],[-11.495,13.116],[-11.466,13.093],[-11.425,13.076],[-11.434,13.051],[-11.418,13.034],[-11.412,13.031],[-11.411,13.027],[-11.416,13.017],[-11.403,13.012],[-11.4,13.009],[-11.398,13.003],[-11.4,12.999],[-11.415,12.997],[-11.416,12.992],[-11.414,12.989],[-11.41,12.979],[-11.392,12.963],[-11.387,12.964],[-11.385,12.97],[-11.387,12.989],[-11.384,12.991],[-11.378,12.992],[-11.371,12.99],[-11.361,12.984],[-11.357,12.978],[-11.355,12.953],[-11.351,12.943],[-11.348,12.941],[-11.348,12.932],[-11.355,12.929],[-11.404,12.877],[-11.382,12.802],[-11.384,12.74],[-11.373,12.725],[-11.424,12.719],[-11.441,12.694],[-11.447,12.673],[-11.447,12.667],[-11.444,12.662],[-11.421,12.559],[-11.41,12.541],[-11.388,12.532],[-11.391,12.523],[-11.383,12.522],[-11.378,12.516],[-11.382,12.499],[-11.376,12.493],[-11.375,12.497],[-11.371,12.498],[-11.368,12.506],[-11.357,12.498],[-11.357,12.492],[-11.359,12.483],[-11.351,12.459],[-11.367,12.45],[-11.365,12.43],[-11.366,12.419],[-11.375,12.414],[-11.374,12.386],[-11.436,12.376],[-11.433,12.365],[-11.435,12.357],[-11.439,12.355],[-11.442,12.359],[-11.445,12.358],[-11.446,12.351],[-11.43,12.324],[-11.432,12.28],[-11.447,12.253],[-11.478,12.236],[-11.495,12.184],[-11.457,12.134],[-11.371,12.107],[-11.309,12.02],[-11.272,12.002],[-11.254,12.003],[-11.236,11.993],[-11.223,11.993],[-11.185,12.01],[-11.171,12.027],[-11.16,12.033],[-11.157,12.039],[-11.149,12.041],[-11.136,12.061],[-11.073,12.134],[-11.071,12.14],[-11.07,12.149],[-11.067,12.161],[-11.046,12.212],[-10.99,12.21],[-10.972,12.226],[-10.942,12.22],[-10.934,12.227],[-10.91,12.208],[-10.903,12.204],[-10.892,12.203],[-10.791,12.11],[-10.791,12.1],[-10.786,12.087],[-10.788,12.08],[-10.785,12.064],[-10.792,12.061],[-10.793,12.046],[-10.801,12.037],[-10.755,11.937],[-10.738,11.924],[-10.734,11.923],[-10.734,11.918],[-10.73,11.918],[-10.724,11.912],[-10.708,11.903],[-10.699,11.901],[-10.695,11.903],[-10.682,11.897],[-10.675,11.896],[-10.672,11.894],[-10.668,11.895],[-10.659,11.893],[-10.651,11.901],[-10.639,11.904],[-10.634,11.91],[-10.636,11.923],[-10.635,11.928],[-10.633,11.931],[-10.628,11.932],[-10.624,11.936],[-10.621,11.957],[-10.615,11.97],[-10.606,11.974],[-10.601,11.974],[-10.598,11.971],[-10.584,11.984],[-10.573,11.984],[-10.568,11.988],[-10.565,11.995],[-10.566,11.999],[-10.574,12.004],[-10.58,12.013],[-10.581,12.019],[-10.57,12.023],[-10.565,12.022],[-10.557,12.026],[-10.547,12.027],[-10.537,12.031],[-10.534,12.031],[-10.532,12.029],[-10.524,12.037],[-10.519,12.047],[-10.465,12.115],[-10.447,12.12],[-10.437,12.133],[-10.43,12.138],[-10.413,12.14],[-10.411,12.142],[-10.412,12.15],[-10.414,12.153],[-10.417,12.163],[-10.415,12.173],[-10.396,12.179],[-10.388,12.175],[-10.379,12.166],[-10.366,12.17],[-10.36,12.174],[-10.362,12.182],[-10.366,12.189],[-10.352,12.194],[-10.339,12.189],[-10.332,12.191],[-10.332,12.199],[-10.342,12.213],[-10.343,12.22],[-10.341,12.221],[-10.331,12.218],[-10.323,12.212],[-10.321,12.215],[-10.321,12.221],[-10.311,12.217],[-10.302,12.19],[-10.298,12.188],[-10.286,12.192],[-10.285,12.195],[-10.287,12.208],[-10.275,12.208],[-10.272,12.209],[-10.265,12.204],[-10.261,12.211],[-10.249,12.211],[-10.244,12.194],[-10.225,12.203],[-10.214,12.198],[-10.194,12.2],[-10.193,12.189],[-10.178,12.181],[-10.171,12.184],[-10.156,12.174],[-10.14,12.17],[-10.099,12.172],[-10.092,12.181],[-10.085,12.171],[-10.093,12.168],[-10.096,12.147],[-9.914,12.097],[-9.901,12.067],[-9.872,12.051],[-9.852,12.056],[-9.827,12.051],[-9.82,12.06],[-9.817,12.06],[-9.806,12.052],[-9.791,12.046],[-9.792,12.041],[-9.791,12.038],[-9.781,12.031],[-9.715,12.021],[-9.709,12.024],[-9.698,12.025],[-9.688,12.032],[-9.695,12.053],[-9.674,12.08],[-9.679,12.099],[-9.68,12.118],[-9.671,12.132],[-9.669,12.135],[-9.668,12.14],[-9.636,12.17],[-9.625,12.172],[-9.616,12.171],[-9.596,12.183],[-9.578,12.187],[-9.575,12.191],[-9.558,12.186],[-9.536,12.19],[-9.5,12.219],[-9.492,12.228],[-9.492,12.237],[-9.485,12.249],[-9.422,12.259],[-9.407,12.257],[-9.406,12.253],[-9.4,12.249],[-9.393,12.255],[-9.39,12.253],[-9.378,12.248],[-9.373,12.244],[-9.369,12.246],[-9.366,12.246],[-9.36,12.248],[-9.359,12.245],[-9.349,12.243],[-9.344,12.242],[-9.342,12.244],[-9.349,12.252],[-9.342,12.269],[-9.322,12.275],[-9.325,12.314],[-9.312,12.321],[-9.313,12.341],[-9.304,12.362],[-9.34,12.375],[-9.341,12.393],[-9.382,12.425],[-9.382,12.444],[-9.385,12.447],[-9.394,12.447],[-9.4,12.441],[-9.408,12.453],[-9.405,12.465],[-9.369,12.477],[-9.369,12.491],[-9.361,12.498],[-9.354,12.499],[-9.315,12.502],[-9.286,12.484],[-9.252,12.504],[-9.158,12.488],[-9.111,12.46],[-9.095,12.448],[-9.084,12.437],[-9.045,12.426],[-9.023,12.419],[-9.012,12.413],[-9.005,12.387],[-8.962,12.352],[-8.933,12.319],[-8.984,12.245],[-8.983,12.217],[-8.978,12.199],[-8.969,12.195],[-8.972,12.188],[-8.971,12.184],[-8.968,12.181],[-8.927,12.184],[-8.925,12.19],[-8.917,12.196],[-8.918,12.191],[-8.884,12.145],[-8.912,12.089],[-8.913,12.054],[-8.908,12.052],[-8.91,12.046],[-8.909,12.04],[-8.906,12.037],[-8.872,12.023],[-8.861,12.026],[-8.852,12.031],[-8.85,12.039],[-8.848,12.037],[-8.843,12.038],[-8.843,12.032],[-8.84,12.029],[-8.834,12.031],[-8.829,12.035],[-8.828,12.03],[-8.824,12.027],[-8.824,12.024],[-8.814,12.014],[-8.81,12.014],[-8.809,12.012],[-8.802,12.008],[-8.806,12.001],[-8.773,11.971],[-8.79,11.857],[-8.849,11.651],[-8.789,11.625],[-8.76,11.627],[-8.746,11.604],[-8.701,11.64],[-8.654,11.516],[-8.614,11.468],[-8.531,11.486]]]},"properties":{"pays":"Mali","code":"ML"}},{"type":"Feature","geometry":{"type":"MultiPolygon","coordinates":[[[[-14.959,10.863],[-14.905,10.927],[-14.954,10.975],[-15.078,10.89],[-15.079,10.845],[-15.015,10.778],[-14.953,10.773],[-14.959,10.863]]],[[[-11.478,10],[-11.207,10],[-11.16,9.891],[-11.039,9.798],[-10.968,9.674],[-10.831,9.521],[-10.843,9.443],[-10.817,9.392],[-10.731,9.38],[-10.669,9.309],[-10.664,9.21],[-10.723,9.183],[-10.73,9.079],[-10.66,9.082],[-10.585,9.043],[-10.598,8.959],[-10.587,8.804],[-10.536,8.772],[-10.469,8.675],[-10.482,8.638],[-10.582,8.591],[-10.65,8.476],[-10.674,8.341],[-10.554,8.308],[-10.446,8.403],[-10.386,8.493],[-10.287,8.485],[-10.126,8.525],[-9.999,8.439],[-9.919,8.498],[-9.804,8.503],[-9.773,8.552],[-9.671,8.494],[-9.533,8.383],[-9.489,8.264],[-9.515,8.176],[-9.459,8.105],[-9.412,7.973],[-9.423,7.862],[-9.344,7.749],[-9.355,7.626],[-9.419,7.472],[-9.406,7.42],[-9.295,7.423],[-9.227,7.389],[-9.19,7.303],[-9.121,7.277],[-9.066,7.201],[-9.017,7.244],[-8.833,7.283],[-8.846,7.347],[-8.707,7.514],[-8.707,7.64],[-8.659,7.696],[-8.56,7.693],[-8.565,7.626],[-8.472,7.555],[-8.303,7.601],[-8.215,7.534],[-8.173,7.582],[-8.14,7.693],[-8.094,7.722],[-8.072,7.808],[-8.115,7.845],[-8.011,8.094],[-8.069,8.162],[-8.219,8.234],[-8.242,8.457],[-8.065,8.507],[-7.852,8.42],[-7.788,8.464],[-7.752,8.379],[-7.641,8.377],[-7.68,8.455],[-7.688,8.545],[-7.773,8.767],[-7.901,8.765],[-7.947,8.787],[-7.955,8.869],[-7.918,9.004],[-7.788,9.106],[-7.882,9.158],[-7.926,9.217],[-7.866,9.375],[-7.883,9.436],[-7.968,9.396],[-8.06,9.402],[-8.149,9.532],[-8.147,9.584],[-8.101,9.833],[-8.129,9.882],[-8.125,9.901],[-8.167,9.947],[-8.148,9.949],[-8.152,9.98],[-8.148,9.986],[-8.137,9.992],[-8.135,10.008],[-8.017,10.097],[-7.978,10.18],[-7.957,10.201],[-7.952,10.21],[-7.951,10.233],[-7.947,10.241],[-7.949,10.252],[-7.959,10.285],[-7.961,10.295],[-7.969,10.314],[-7.98,10.326],[-7.995,10.338],[-8.007,10.343],[-8.051,10.351],[-8.081,10.353],[-8.092,10.358],[-8.232,10.416],[-8.278,10.531],[-8.273,10.56],[-8.273,10.578],[-8.278,10.588],[-8.301,10.636],[-8.276,10.853],[-8.282,10.896],[-8.279,10.926],[-8.291,10.971],[-8.287,10.995],[-8.293,11.008],[-8.296,11.008],[-8.306,11.026],[-8.324,11.048],[-8.382,11.076],[-8.399,11.064],[-8.416,11.069],[-8.482,11.065],[-8.503,11.031],[-8.514,10.995],[-8.514,10.986],[-8.513,10.974],[-8.515,10.972],[-8.59,10.95],[-8.598,10.955],[-8.611,10.958],[-8.622,10.965],[-8.629,10.964],[-8.661,10.949],[-8.672,10.95],[-8.681,10.967],[-8.679,11.011],[-8.564,11.155],[-8.566,11.205],[-8.553,11.212],[-8.53,11.21],[-8.518,11.219],[-8.512,11.219],[-8.498,11.216],[-8.493,11.218],[-8.486,11.222],[-8.499,11.263],[-8.493,11.277],[-8.479,11.289],[-8.467,11.289],[-8.422,11.27],[-8.394,11.272],[-8.382,11.276],[-8.377,11.279],[-8.364,11.317],[-8.402,11.322],[-8.422,11.336],[-8.397,11.382],[-8.502,11.399],[-8.535,11.478],[-8.582,11.443],[-8.654,11.499],[-8.691,11.587],[-8.76,11.607],[-8.773,11.618],[-8.822,11.626],[-8.854,11.628],[-8.822,11.769],[-8.795,11.924],[-8.816,11.973],[-8.805,12.005],[-8.812,12.014],[-8.831,12.031],[-8.832,12.039],[-8.842,12.036],[-8.846,12.037],[-8.85,12.041],[-8.856,12.042],[-8.868,12.026],[-8.896,12.04],[-8.907,12.038],[-8.907,12.041],[-8.913,12.041],[-8.915,12.095],[-8.895,12.147],[-8.914,12.185],[-8.922,12.184],[-8.925,12.19],[-8.922,12.196],[-8.925,12.199],[-8.931,12.196],[-8.939,12.187],[-8.965,12.188],[-8.973,12.183],[-8.979,12.193],[-8.993,12.221],[-8.987,12.281],[-8.969,12.348],[-9.013,12.39],[-9.025,12.413],[-9.034,12.423],[-9.046,12.428],[-9.086,12.439],[-9.136,12.469],[-9.162,12.486],[-9.253,12.503],[-9.284,12.482],[-9.32,12.501],[-9.34,12.493],[-9.349,12.492],[-9.362,12.496],[-9.367,12.476],[-9.405,12.462],[-9.384,12.447],[-9.377,12.426],[-9.356,12.417],[-9.337,12.393],[-9.334,12.377],[-9.312,12.369],[-9.3,12.362],[-9.297,12.355],[-9.308,12.345],[-9.309,12.323],[-9.319,12.277],[-9.345,12.252],[-9.34,12.243],[-9.354,12.246],[-9.36,12.247],[-9.366,12.245],[-9.387,12.251],[-9.391,12.255],[-9.401,12.25],[-9.406,12.25],[-9.411,12.259],[-9.415,12.26],[-9.425,12.258],[-9.442,12.251],[-9.479,12.246],[-9.491,12.239],[-9.5,12.223],[-9.505,12.217],[-9.541,12.193],[-9.569,12.191],[-9.578,12.188],[-9.584,12.187],[-9.589,12.185],[-9.612,12.18],[-9.63,12.173],[-9.637,12.166],[-9.64,12.161],[-9.664,12.141],[-9.678,12.124],[-9.681,12.116],[-9.68,12.1],[-9.676,12.079],[-9.698,12.051],[-9.698,12.035],[-9.7,12.024],[-9.734,12.026],[-9.77,12.032],[-9.791,12.041],[-9.81,12.057],[-9.816,12.058],[-9.825,12.053],[-9.864,12.059],[-9.883,12.057],[-9.914,12.098],[-10.067,12.139],[-10.087,12.178],[-10.091,12.18],[-10.099,12.179],[-10.113,12.176],[-10.131,12.178],[-10.149,12.173],[-10.168,12.184],[-10.184,12.187],[-10.191,12.199],[-10.195,12.201],[-10.254,12.215],[-10.267,12.207],[-10.276,12.213],[-10.283,12.213],[-10.287,12.21],[-10.289,12.204],[-10.286,12.195],[-10.289,12.191],[-10.294,12.191],[-10.299,12.193],[-10.309,12.219],[-10.32,12.221],[-10.327,12.219],[-10.339,12.225],[-10.341,12.22],[-10.34,12.216],[-10.332,12.202],[-10.332,12.194],[-10.335,12.187],[-10.352,12.193],[-10.361,12.176],[-10.363,12.172],[-10.371,12.169],[-10.381,12.17],[-10.396,12.176],[-10.414,12.167],[-10.412,12.145],[-10.414,12.141],[-10.434,12.133],[-10.44,12.13],[-10.449,12.12],[-10.456,12.117],[-10.467,12.118],[-10.477,12.121],[-10.494,12.123],[-10.503,12.122],[-10.511,12.118],[-10.517,12.113],[-10.519,12.106],[-10.507,12.091],[-10.524,12.069],[-10.52,12.05],[-10.523,12.041],[-10.533,12.032],[-10.559,12.027],[-10.571,12.027],[-10.578,12.022],[-10.579,12.014],[-10.564,12.001],[-10.564,11.996],[-10.573,11.994],[-10.577,11.986],[-10.582,11.984],[-10.589,11.985],[-10.599,11.974],[-10.606,11.974],[-10.613,11.977],[-10.621,11.969],[-10.63,11.94],[-10.64,11.929],[-10.641,11.924],[-10.64,11.913],[-10.642,11.91],[-10.651,11.906],[-10.66,11.904],[-10.663,11.899],[-10.672,11.894],[-10.697,11.896],[-10.717,11.916],[-10.731,11.917],[-10.735,11.919],[-10.742,11.934],[-10.751,11.944],[-10.756,11.994],[-10.795,12.038],[-10.789,12.048],[-10.785,12.066],[-10.784,12.074],[-10.787,12.105],[-10.79,12.109],[-10.796,12.114],[-10.815,12.116],[-10.845,12.132],[-10.877,12.161],[-10.933,12.223],[-10.94,12.218],[-10.967,12.221],[-10.986,12.209],[-11.015,12.206],[-11.073,12.135],[-11.082,12.129],[-11.092,12.124],[-11.099,12.122],[-11.106,12.114],[-11.109,12.095],[-11.134,12.095],[-11.167,12.033],[-11.179,12.02],[-11.192,12.015],[-11.213,12.018],[-11.238,11.996],[-11.247,11.992],[-11.257,11.992],[-11.312,12.021],[-11.371,12.099],[-11.464,12.134],[-11.494,12.178],[-11.498,12.21],[-11.492,12.215],[-11.483,12.233],[-11.453,12.253],[-11.434,12.297],[-11.44,12.335],[-11.45,12.351],[-11.449,12.355],[-11.442,12.358],[-11.44,12.363],[-11.44,12.379],[-11.426,12.385],[-11.379,12.414],[-11.409,12.418],[-11.46,12.441],[-11.531,12.443],[-11.6,12.427],[-11.664,12.423],[-11.672,12.42],[-11.688,12.41],[-11.703,12.397],[-11.712,12.393],[-11.762,12.388],[-11.786,12.394],[-11.814,12.393],[-11.849,12.397],[-11.861,12.402],[-11.894,12.427],[-12.017,12.397],[-12.05,12.423],[-12.076,12.418],[-12.082,12.421],[-12.097,12.421],[-12.113,12.412],[-12.14,12.389],[-12.159,12.368],[-12.166,12.368],[-12.173,12.363],[-12.178,12.361],[-12.186,12.361],[-12.189,12.359],[-12.211,12.358],[-12.235,12.355],[-12.344,12.307],[-12.353,12.307],[-12.36,12.311],[-12.368,12.321],[-12.369,12.325],[-12.377,12.337],[-12.39,12.356],[-12.404,12.369],[-12.474,12.399],[-12.563,12.367],[-12.577,12.382],[-12.584,12.395],[-12.59,12.399],[-12.606,12.405],[-12.622,12.426],[-12.738,12.429],[-12.755,12.435],[-12.759,12.442],[-12.761,12.458],[-12.782,12.476],[-12.8,12.473],[-12.834,12.487],[-12.842,12.496],[-12.842,12.511],[-12.846,12.516],[-12.869,12.523],[-12.888,12.541],[-12.923,12.537],[-12.94,12.487],[-12.969,12.462],[-13.051,12.474],[-13.071,12.491],[-13.077,12.53],[-13.057,12.619],[-13.134,12.642],[-13.197,12.637],[-13.233,12.64],[-13.263,12.649],[-13.288,12.652],[-13.291,12.652],[-13.295,12.647],[-13.305,12.642],[-13.324,12.642],[-13.333,12.645],[-13.336,12.652],[-13.339,12.655],[-13.342,12.654],[-13.346,12.65],[-13.35,12.653],[-13.351,12.66],[-13.453,12.666],[-13.462,12.665],[-13.467,12.667],[-13.579,12.675],[-13.708,12.676],[-13.712,12.644],[-13.711,12.599],[-13.632,12.46],[-13.67,12.396],[-13.672,12.31],[-13.732,12.249],[-13.824,12.258],[-13.915,12.236],[-13.958,12.181],[-13.819,12.084],[-13.807,12.05],[-13.703,12.006],[-13.722,11.889],[-13.713,11.71],[-13.821,11.704],[-14.083,11.626],[-14.143,11.659],[-14.266,11.666],[-14.324,11.602],[-14.517,11.493],[-14.671,11.492],[-14.78,11.353],[-14.841,11.199],[-14.926,11.053],[-14.804,10.853],[-14.754,10.836],[-14.775,10.724],[-14.723,10.699],[-14.706,10.635],[-14.617,10.681],[-14.617,10.599],[-14.669,10.514],[-14.652,10.476],[-14.555,10.469],[-14.535,10.391],[-14.463,10.339],[-14.458,10.212],[-14.379,10.233],[-14.138,10.047],[-14.067,10.029],[-13.878,9.906],[-13.827,9.846],[-13.734,9.863],[-13.76,9.78],[-13.624,9.724],[-13.633,9.634],[-13.604,9.562],[-13.433,9.352],[-13.397,9.273],[-13.31,9.241],[-13.326,9.18],[-13.249,9.144],[-13.324,9.07],[-13.151,9.086],[-13.088,9.048],[-13.002,9.097],[-12.954,9.19],[-12.935,9.287],[-12.794,9.297],[-12.758,9.388],[-12.685,9.431],[-12.657,9.539],[-12.49,9.826],[-12.432,9.882],[-12.227,9.925],[-12.148,9.878],[-12.12,9.872],[-11.907,9.936],[-11.886,9.997],[-11.478,10]]]]},"properties":{"pays":"Guinée","code":"GN"}}]}