{"type":"FeatureCollection","features":[{"type":"Feature","geometry":{"type":"Polygon","coordinates":[[[-11.888,13.385],[-11.874,13.426],[-11.865,13.435],[-11.865,13.449],[-11.871,13.465],[-11.933,13.517],[-11.952,13.521],[-11.959,13.528],[-11.971,13.535],[-11.973,13.54],[-11.974,13.549],[-11.983,13.56],[-11.998,13.568],[-11.998,13.584],[-12,13.589],[-12.036,13.621],[-12.05,13.684],[-12.069,13.707],[-12.074,13.72],[-12.005,13.756],[-11.953,13.821],[-11.951,13.825],[-11.95,13.838],[-11.947,13.846],[-11.948,13.857],[-11.943,13.862],[-11.933,13.924],[-12.011,13.988],[-12.004,14],[-12.006,14.012],[-12.015,14.028],[-12.008,14.033],[-12.009,14.05],[-12.002,14.053],[-12,14.058],[-11.998,14.058],[-11.995,14.064],[-11.998,14.076],[-11.997,14.085],[-11.983,14.088],[-11.989,14.124],[-11.978,14.148],[-11.978,14.164],[-11.975,14.184],[-11.977,14.187],[-11.989,14.193],[-11.989,14.206],[-11.999,14.214],[-12.024,14.284],[-12.06,14.298],[-12.076,14.297],[-12.081,14.304],[-12.091,14.304],[-12.095,14.308],[-12.101,14.305],[-12.103,14.312],[-12.096,14.313],[-12.093,14.318],[-12.106,14.334],[-12.103,14.347],[-12.098,14.355],[-12.093,14.354],[-12.095,14.358],[-12.093,14.362],[-12.093,14.367],[-12.102,14.374],[-12.117,14.366],[-12.13,14.385],[-12.199,14.405],[-12.2,14.423],[-12.197,14.427],[-12.189,14.436],[-12.189,14.443],[-12.205,14.459],[-12.197,14.479],[-12.216,14.488],[-12.219,14.506],[-12.212,14.525],[-12.215,14.547],[-12.212,14.552],[-12.206,14.556],[-12.192,14.554],[-12.185,14.556],[-12.171,14.586],[-12.171,14.613],[-12.152,14.617],[-12.148,14.621],[-12.144,14.63],[-12.142,14.64],[-12.144,14.653],[-12.158,14.681],[-12.181,14.697],[-12.2,14.697],[-12.215,14.737],[-12.232,14.739],[-12.238,14.767],[-12.278,14.779],[-12.285,14.785],[-12.32,14.826],[-12.334,14.832],[-12.355,14.831],[-12.37,14.836],[-12.385,14.847],[-12.391,14.846],[-12.394,14.847],[-12.448,14.893],[-12.449,14.898],[-12.446,14.906],[-12.445,14.915],[-12.449,14.925],[-12.455,14.975],[-12.458,14.987],[-12.469,15.002],[-12.477,15.006],[-12.481,15.011],[-12.492,15.018],[-12.551,15.034],[-12.578,15.061],[-12.584,15.064],[-12.596,15.078],[-12.601,15.082],[-12.611,15.088],[-12.632,15.096],[-12.658,15.11],[-12.672,15.11],[-12.682,15.105],[-12.685,15.101],[-12.686,15.089],[-12.688,15.087],[-12.626,15],[-12.602,14.931],[-12.598,14.876],[-12.652,14.708],[-12.507,14.671],[-12.498,14.177],[-12.337,14.174],[-12.334,13.523],[-12.315,13.508],[-12.245,13.458],[-12.243,13.461],[-12.014,13.313],[-11.888,13.385]]]},"properties":{"code":"SN-BAKEL","nom":"Bakel","region":"Tambacounda","code_region":"SN-TAMBACOUNDA","pays":"Sénégal"}},{"type":"Feature","geometry":{"type":"Polygon","coordinates":[[[-15.333,16.561],[-15.343,16.559],[-15.352,16.561],[-15.361,16.56],[-15.371,16.55],[-15.389,16.538],[-15.396,16.536],[-15.411,16.537],[-15.424,16.542],[-15.432,16.549],[-15.438,16.574],[-15.449,16.586],[-15.458,16.592],[-15.473,16.59],[-15.482,16.579],[-15.505,16.572],[-15.516,16.565],[-15.52,16.555],[-15.52,16.546],[-15.51,16.532],[-15.509,16.528],[-15.517,16.521],[-15.526,16.52],[-15.543,16.514],[-15.558,16.511],[-15.577,16.515],[-15.598,16.528],[-15.608,16.526],[-15.62,16.526],[-15.626,16.524],[-15.632,16.514],[-15.627,16.499],[-15.631,16.492],[-15.647,16.483],[-15.693,16.478],[-15.702,16.471],[-15.708,16.473],[-15.732,16.488],[-15.81,16.507],[-15.831,16.505],[-15.851,16.492],[-15.859,16.491],[-15.861,16.495],[-15.86,16.505],[-15.862,16.511],[-15.869,16.514],[-15.886,16.516],[-15.893,16.516],[-15.916,16.512],[-15.934,16.502],[-15.947,16.49],[-15.96,16.484],[-15.97,16.485],[-15.975,16.492],[-15.981,16.496],[-15.985,16.498],[-15.988,16.5],[-16.003,16.505],[-16.006,16.504],[-16.033,16.483],[-16.042,16.479],[-16.051,16.48],[-16.057,16.483],[-16.062,16.492],[-16.077,16.51],[-16.099,16.523],[-16.101,16.528],[-16.098,16.538],[-16.1,16.547],[-16.108,16.556],[-16.115,16.557],[-16.143,16.552],[-16.157,16.545],[-16.171,16.529],[-16.174,16.526],[-16.184,16.524],[-16.189,16.519],[-16.209,16.516],[-16.215,16.517],[-16.231,16.525],[-16.245,16.528],[-16.26,16.525],[-16.278,16.515],[-16.284,16.506],[-16.287,16.474],[-16.299,16.47],[-16.304,16.463],[-16.309,16.438],[-16.308,16.415],[-16.31,16.41],[-16.314,16.406],[-16.324,16.405],[-16.328,16.402],[-16.33,16.397],[-16.333,16.382],[-16.331,16.348],[-16.343,16.336],[-16.35,16.335],[-16.355,16.33],[-16.365,16.315],[-16.368,16.303],[-16.367,16.294],[-16.356,16.28],[-16.355,16.266],[-16.373,16.231],[-16.388,16.213],[-16.392,16.211],[-16.402,16.211],[-16.41,16.217],[-16.428,16.215],[-16.436,16.209],[-16.443,16.202],[-16.453,16.184],[-16.455,16.165],[-16.452,16.154],[-16.454,16.149],[-16.451,16.133],[-16.455,16.123],[-16.455,16.117],[-16.453,16.114],[-16.444,16.109],[-16.442,16.103],[-16.457,16.091],[-16.46,16.082],[-16.473,16.069],[-16.476,16.068],[-16.472,16.067],[-16.451,16.067],[-16.392,16.097],[-16.35,16.101],[-16.33,16.026],[-16.095,16.027],[-16,16.07],[-15.928,16.103],[-15.825,16.187],[-15.581,15.927],[-15.58,16],[-15.439,16],[-15.428,16.161],[-15.4,16.211],[-15.436,16.436],[-15.334,16.502],[-15.333,16.561]]]},"properties":{"code":"SN-DAGANA","nom":"Dagana","region":"Saint-Louis","code_region":"SN-SAINT-LOUIS","pays":"Sénégal"}},{"type":"Feature","geometry":{"type":"Polygon","coordinates":[[[-12.652,14.708],[-12.687,14.659],[-12.722,14.613],[-12.797,14.581],[-12.95,14.559],[-13.245,14.613],[-13.519,14.406],[-13.516,14.303],[-13.592,14.181],[-13.674,14.109],[-13.705,13.951],[-13.662,13.892],[-13.515,13.871],[-13.391,13.825],[-13.342,13.737],[-13.438,13.689],[-13.488,13.627],[-13.306,13.452],[-13.236,13.431],[-13.187,13.477],[-13.121,13.471],[-13.063,13.374],[-12.989,13.39],[-12.756,13.564],[-12.637,13.467],[-12.583,13.457],[-12.48,13.338],[-12.469,13.295],[-12.472,13.268],[-12.473,13.248],[-12.47,13.239],[-12.467,13.237],[-12.465,13.239],[-12.462,13.242],[-12.461,13.25],[-12.228,13.345],[-12.257,13.423],[-12.249,13.457],[-12.245,13.458],[-12.315,13.508],[-12.334,13.523],[-12.337,14.174],[-12.498,14.177],[-12.507,14.671],[-12.652,14.708]]]},"properties":{"code":"SN-GOUDIRY","nom":"Goudiry","region":"Tambacounda","code_region":"SN-TAMBACOUNDA","pays":"Sénégal"}},{"type":"Feature","geometry":{"type":"Polygon","coordinates":[[[-12.688,15.087],[-12.693,15.095],[-12.703,15.102],[-12.719,15.108],[-12.74,15.13],[-12.751,15.138],[-12.78,15.149],[-12.787,15.153],[-12.79,15.16],[-12.79,15.166],[-12.783,15.188],[-12.788,15.207],[-12.792,15.211],[-12.803,15.217],[-12.815,15.217],[-12.822,15.215],[-12.838,15.202],[-12.85,15.205],[-12.854,15.219],[-12.864,15.231],[-12.874,15.237],[-12.888,15.244],[-12.893,15.251],[-12.896,15.257],[-12.895,15.263],[-12.889,15.267],[-12.882,15.269],[-12.875,15.268],[-12.862,15.256],[-12.851,15.254],[-12.847,15.254],[-12.834,15.272],[-12.831,15.279],[-12.831,15.285],[-12.842,15.312],[-12.879,15.336],[-12.886,15.339],[-12.907,15.341],[-12.926,15.349],[-12.937,15.357],[-12.944,15.369],[-12.942,15.394],[-12.944,15.407],[-12.943,15.417],[-12.941,15.421],[-12.927,15.432],[-12.923,15.441],[-12.925,15.444],[-12.93,15.448],[-12.951,15.444],[-12.958,15.449],[-12.959,15.455],[-12.958,15.48],[-12.96,15.49],[-12.958,15.499],[-12.945,15.504],[-12.937,15.502],[-12.937,15.507],[-12.952,15.505],[-12.954,15.501],[-12.963,15.505],[-12.982,15.501],[-12.995,15.499],[-13,15.497],[-13.008,15.493],[-13.016,15.484],[-13.041,15.481],[-13.06,15.483],[-13.079,15.493],[-13.097,15.498],[-13.103,15.503],[-13.103,15.508],[-13.099,15.527],[-13.085,15.549],[-13.085,15.558],[-13.087,15.563],[-13.093,15.574],[-13.086,15.578],[-13.086,15.583],[-13.089,15.586],[-13.1,15.589],[-13.114,15.598],[-13.144,15.607],[-13.147,15.607],[-13.157,15.613],[-13.191,15.529],[-13.219,15.489],[-13.208,15.473],[-13.345,15.427],[-13.448,15.291],[-13.571,15.188],[-13.593,15.121],[-13.666,15.096],[-13.615,15.037],[-13.49,14.946],[-13.535,14.755],[-13.567,14.703],[-13.532,14.407],[-13.519,14.406],[-13.245,14.613],[-12.95,14.559],[-12.797,14.581],[-12.722,14.613],[-12.687,14.659],[-12.652,14.708],[-12.598,14.876],[-12.602,14.931],[-12.626,15],[-12.688,15.087]]]},"properties":{"code":"SN-KANEL","nom":"Kanel","region":"Matam","code_region":"SN-MATAM","pays":"Sénégal"}},{"type":"Feature","geometry":{"type":"Polygon","coordinates":[[[-16.11,14.957],[-16.076,14.963],[-16,14.957],[-15.893,14.998],[-15.806,14.997],[-15.819,15.364],[-16.116,15.398],[-16.211,15.425],[-16.324,15.502],[-16.367,15.616],[-16.421,15.632],[-16.449,15.66],[-16.482,15.643],[-16.543,15.655],[-16.566,15.662],[-16.592,15.666],[-16.617,15.623],[-16.81,15.329],[-16.716,15.291],[-16.571,15.194],[-16.453,15.36],[-16.361,15.328],[-16.282,15.267],[-16.234,15.121],[-16.197,15.092],[-16.177,14.964],[-16.11,14.957]]]},"properties":{"code":"SN-KEBEMER","nom":"Kébémer","region":"Louga","code_region":"SN-LOUGA","pays":"Sénégal"}},{"type":"Feature","geometry":{"type":"Polygon","coordinates":[[[-12.494,13.196],[-12.503,13.198],[-12.668,13.173],[-12.7,13.093],[-12.75,13.079],[-12.825,12.996],[-12.951,13.081],[-13.202,13.052],[-13.207,13.047],[-13.234,13.015],[-13.141,12.911],[-13.125,12.826],[-13.097,12.817],[-13.11,12.808],[-13.108,12.802],[-13.105,12.794],[-12.885,12.796],[-12.77,12.707],[-12.625,12.752],[-12.581,12.696],[-12.589,12.64],[-12.537,12.598],[-12.542,12.534],[-12.447,12.433],[-12.406,12.439],[-12.393,12.376],[-12.391,12.371],[-12.366,12.336],[-12.364,12.32],[-12.36,12.311],[-12.357,12.308],[-12.325,12.321],[-12.294,12.337],[-12.248,12.353],[-12.225,12.358],[-12.216,12.358],[-12.211,12.354],[-12.207,12.354],[-12.196,12.357],[-12.191,12.357],[-12.187,12.36],[-12.174,12.36],[-12.172,12.366],[-12.166,12.37],[-12.154,12.374],[-12.151,12.376],[-12.148,12.382],[-12.13,12.387],[-12.115,12.411],[-12.105,12.416],[-12.098,12.416],[-12.092,12.418],[-12.087,12.423],[-12.039,12.425],[-12.011,12.4],[-11.899,12.45],[-11.875,12.42],[-11.868,12.42],[-11.722,12.641],[-11.792,12.706],[-11.874,12.729],[-11.971,12.718],[-12.102,12.865],[-12.177,12.887],[-12.183,12.933],[-12.322,13.011],[-12.369,13.003],[-12.41,13.098],[-12.453,13.127],[-12.473,13.183],[-12.494,13.19],[-12.494,13.196]]]},"properties":{"code":"SN-KEDOUGOU","nom":"Kédougou","region":"Kédougou","code_region":"SN-KEDOUGOU","pays":"Sénégal"}},{"type":"Feature","geometry":{"type":"Polygon","coordinates":[[[-13.78,14.413],[-13.847,14.414],[-14.071,14.509],[-14.173,14.544],[-14.254,14.571],[-14.28,14.587],[-14.346,14.659],[-14.413,14.638],[-14.483,14.567],[-14.629,14.528],[-14.642,14.301],[-14.597,14.259],[-14.583,13.996],[-14.602,13.941],[-14.692,13.887],[-14.721,13.819],[-14.805,13.812],[-14.834,13.769],[-14.784,13.656],[-14.716,13.618],[-14.624,13.659],[-14.508,13.628],[-14.455,13.534],[-14.436,13.518],[-14.431,13.509],[-14.429,13.511],[-14.373,13.698],[-14.298,13.689],[-14.169,13.838],[-14.173,13.915],[-13.951,14.095],[-13.964,14.178],[-13.863,14.295],[-13.848,14.332],[-13.809,14.374],[-13.787,14.407],[-13.78,14.413]]]},"properties":{"code":"SN-KOUMPENTOUM","nom":"Koumpentoum","region":"Tambacounda","code_region":"SN-TAMBACOUNDA","pays":"Sénégal"}},{"type":"Feature","geometry":{"type":"Polygon","coordinates":[[[-15.581,15.927],[-15.582,15.755],[-15.819,15.364],[-15.806,14.997],[-15.771,14.928],[-15.544,14.824],[-15.436,14.818],[-15.45,14.723],[-15.31,14.664],[-15.024,14.613],[-14.91,14.704],[-14.849,14.631],[-14.785,14.753],[-14.709,14.832],[-14.78,15.02],[-14.75,15.044],[-14.524,15.079],[-14.573,15.115],[-14.511,15.363],[-14.607,15.352],[-14.752,15.412],[-14.74,15.69],[-14.647,15.715],[-14.517,15.805],[-14.595,15.934],[-14.756,15.941],[-14.865,16],[-15.439,16],[-15.58,16],[-15.581,15.927]]]},"properties":{"code":"SN-LINGUERE","nom":"Linguère","region":"Louga","code_region":"SN-LOUGA","pays":"Sénégal"}},{"type":"Feature","geometry":{"type":"Polygon","coordinates":[[[-16.095,16.027],[-16.142,16.004],[-16.256,15.904],[-16.271,15.862],[-16.359,15.835],[-16.526,15.833],[-16.528,15.819],[-16.55,15.747],[-16.58,15.686],[-16.592,15.666],[-16.566,15.662],[-16.543,15.655],[-16.482,15.643],[-16.449,15.66],[-16.421,15.632],[-16.367,15.616],[-16.324,15.502],[-16.211,15.425],[-16.116,15.398],[-15.819,15.364],[-15.582,15.755],[-15.581,15.927],[-15.825,16.187],[-15.928,16.103],[-16,16.07],[-16.095,16.027]]]},"properties":{"code":"SN-LOUGA","nom":"Louga","region":"Louga","code_region":"SN-LOUGA","pays":"Sénégal"}},{"type":"Feature","geometry":{"type":"Polygon","coordinates":[[[-13.157,15.613],[-13.158,15.614],[-13.157,15.615],[-13.177,15.627],[-13.186,15.629],[-13.199,15.628],[-13.214,15.628],[-13.215,15.627],[-13.214,15.625],[-13.21,15.626],[-13.201,15.626],[-13.21,15.618],[-13.225,15.615],[-13.229,15.62],[-13.234,15.632],[-13.249,15.653],[-13.253,15.663],[-13.252,15.669],[-13.248,15.677],[-13.244,15.678],[-13.228,15.672],[-13.218,15.676],[-13.216,15.678],[-13.21,15.687],[-13.207,15.697],[-13.224,15.712],[-13.242,15.731],[-13.269,15.749],[-13.281,15.761],[-13.288,15.764],[-13.29,15.769],[-13.291,15.772],[-13.287,15.788],[-13.283,15.789],[-13.274,15.785],[-13.268,15.784],[-13.265,15.785],[-13.263,15.789],[-13.27,15.799],[-13.286,15.809],[-13.294,15.818],[-13.3,15.829],[-13.301,15.839],[-13.296,15.859],[-13.3,15.872],[-13.303,15.876],[-13.314,15.883],[-13.323,15.886],[-13.331,15.892],[-13.334,15.897],[-13.315,15.914],[-13.312,15.92],[-13.312,15.924],[-13.313,15.927],[-13.318,15.931],[-13.321,15.933],[-13.33,15.933],[-13.34,15.939],[-13.355,15.956],[-13.358,15.962],[-13.364,15.972],[-13.366,15.979],[-13.364,16.001],[-13.376,16.014],[-13.377,16.018],[-13.377,16.033],[-13.374,16.048],[-13.378,16.057],[-13.383,16.061],[-13.393,16.063],[-13.445,16.085],[-13.452,16.093],[-13.457,16.107],[-13.459,16.11],[-13.466,16.11],[-13.476,16.104],[-13.484,16.087],[-13.489,16.081],[-13.502,16.083],[-13.511,16.089],[-13.516,16.101],[-13.514,16.11],[-13.511,16.116],[-13.498,16.125],[-13.482,16.128],[-13.476,16.131],[-13.476,16.135],[-13.479,16.143],[-13.486,16.148],[-13.488,16.148],[-13.516,16.126],[-13.53,16.126],[-13.559,16.136],[-13.574,16.134],[-13.632,16.108],[-13.641,16.107],[-13.657,16.111],[-13.667,16.108],[-13.674,16.097],[-13.678,16.094],[-13.681,16.093],[-13.687,16.097],[-13.704,16.112],[-13.712,16.123],[-13.719,16.136],[-13.724,16.123],[-13.742,16.046],[-13.806,16.023],[-13.85,16.001],[-14,15.835],[-14.229,15.608],[-14.248,15.573],[-13.859,15.539],[-13.694,15.428],[-13.448,15.291],[-13.345,15.427],[-13.208,15.473],[-13.219,15.489],[-13.191,15.529],[-13.157,15.613]]]},"properties":{"code":"SN-MATAM","nom":"Matam","region":"Matam","code_region":"SN-MATAM","pays":"Sénégal"}},{"type":"Feature","geometry":{"type":"Polygon","coordinates":[[[-15.439,16],[-14.865,16],[-14.756,15.941],[-14.595,15.934],[-14.517,15.805],[-14.406,15.62],[-14.422,15.494],[-14.334,15.496],[-14.254,15.565],[-14.248,15.573],[-14.229,15.608],[-14,15.835],[-13.85,16.001],[-13.806,16.023],[-13.742,16.046],[-13.724,16.123],[-13.719,16.136],[-13.721,16.141],[-13.721,16.148],[-13.71,16.158],[-13.702,16.17],[-13.702,16.176],[-13.708,16.182],[-13.714,16.182],[-13.719,16.179],[-13.743,16.157],[-13.757,16.148],[-13.777,16.143],[-13.795,16.146],[-13.832,16.126],[-13.84,16.114],[-13.847,16.107],[-13.849,16.106],[-13.852,16.107],[-13.856,16.116],[-13.857,16.124],[-13.859,16.126],[-13.868,16.129],[-13.871,16.141],[-13.878,16.15],[-13.88,16.161],[-13.878,16.166],[-13.871,16.176],[-13.869,16.181],[-13.87,16.186],[-13.873,16.19],[-13.884,16.197],[-13.897,16.19],[-13.905,16.19],[-13.915,16.196],[-13.919,16.204],[-13.921,16.216],[-13.92,16.226],[-13.921,16.228],[-13.932,16.225],[-13.943,16.233],[-13.954,16.229],[-13.968,16.222],[-13.974,16.222],[-13.97,16.251],[-13.987,16.275],[-13.989,16.277],[-13.99,16.283],[-13.991,16.303],[-13.99,16.307],[-13.983,16.31],[-13.972,16.31],[-13.963,16.306],[-13.96,16.307],[-13.958,16.309],[-13.958,16.314],[-13.966,16.33],[-13.969,16.334],[-13.971,16.336],[-13.977,16.336],[-13.987,16.34],[-14,16.349],[-14.028,16.346],[-14.031,16.35],[-14.037,16.364],[-14.043,16.373],[-14.068,16.396],[-14.069,16.401],[-14.071,16.404],[-14.087,16.417],[-14.092,16.42],[-14.102,16.423],[-14.108,16.428],[-14.11,16.439],[-14.114,16.444],[-14.126,16.451],[-14.138,16.453],[-14.141,16.462],[-14.131,16.477],[-14.138,16.478],[-14.145,16.472],[-14.149,16.472],[-14.153,16.473],[-14.166,16.492],[-14.18,16.498],[-14.188,16.504],[-14.2,16.508],[-14.204,16.516],[-14.2,16.53],[-14.221,16.543],[-14.239,16.547],[-14.249,16.545],[-14.253,16.543],[-14.257,16.535],[-14.26,16.527],[-14.255,16.515],[-14.257,16.514],[-14.272,16.54],[-14.276,16.55],[-14.276,16.559],[-14.268,16.573],[-14.269,16.576],[-14.272,16.578],[-14.275,16.581],[-14.284,16.586],[-14.289,16.585],[-14.292,16.582],[-14.297,16.574],[-14.299,16.572],[-14.315,16.571],[-14.326,16.566],[-14.333,16.569],[-14.334,16.573],[-14.334,16.577],[-14.328,16.606],[-14.328,16.631],[-14.333,16.639],[-14.338,16.641],[-14.355,16.638],[-14.367,16.633],[-14.383,16.637],[-14.397,16.633],[-14.405,16.633],[-14.412,16.638],[-14.415,16.65],[-14.42,16.652],[-14.437,16.642],[-14.444,16.629],[-14.449,16.624],[-14.458,16.623],[-14.473,16.626],[-14.478,16.626],[-14.491,16.615],[-14.501,16.614],[-14.51,16.622],[-14.523,16.627],[-14.53,16.631],[-14.54,16.642],[-14.543,16.644],[-14.548,16.643],[-14.549,16.641],[-14.554,16.622],[-14.557,16.618],[-14.56,16.618],[-14.572,16.624],[-14.583,16.62],[-14.593,16.624],[-14.597,16.623],[-14.603,16.618],[-14.605,16.619],[-14.611,16.627],[-14.619,16.629],[-14.629,16.628],[-14.639,16.618],[-14.646,16.623],[-14.651,16.631],[-14.641,16.634],[-14.639,16.637],[-14.64,16.646],[-14.642,16.649],[-14.65,16.65],[-14.67,16.646],[-14.687,16.646],[-14.707,16.64],[-14.712,16.639],[-14.718,16.642],[-14.724,16.647],[-14.727,16.646],[-14.729,16.633],[-14.736,16.633],[-14.739,16.629],[-14.751,16.63],[-14.751,16.646],[-14.763,16.656],[-14.769,16.656],[-14.773,16.652],[-14.807,16.653],[-14.813,16.656],[-14.816,16.655],[-14.82,16.653],[-14.823,16.639],[-14.825,16.637],[-14.828,16.637],[-14.839,16.641],[-14.858,16.638],[-14.86,16.64],[-14.874,16.662],[-14.878,16.663],[-14.884,16.661],[-14.886,16.658],[-14.889,16.645],[-14.893,16.636],[-14.895,16.634],[-14.9,16.634],[-14.908,16.637],[-14.91,16.642],[-14.909,16.65],[-14.914,16.651],[-14.927,16.639],[-14.933,16.635],[-14.938,16.634],[-14.946,16.639],[-14.954,16.653],[-14.95,16.672],[-14.951,16.679],[-14.98,16.693],[-14.994,16.69],[-14.997,16.685],[-14.998,16.677],[-14.998,16.653],[-15.005,16.641],[-15.032,16.63],[-15.053,16.627],[-15.067,16.646],[-15.07,16.659],[-15.074,16.666],[-15.083,16.676],[-15.091,16.678],[-15.097,16.678],[-15.118,16.654],[-15.122,16.646],[-15.121,16.64],[-15.116,16.632],[-15.096,16.629],[-15.085,16.607],[-15.091,16.598],[-15.112,16.58],[-15.118,16.577],[-15.132,16.578],[-15.141,16.581],[-15.157,16.588],[-15.17,16.59],[-15.181,16.577],[-15.202,16.568],[-15.222,16.554],[-15.23,16.551],[-15.244,16.557],[-15.257,16.569],[-15.272,16.569],[-15.295,16.576],[-15.315,16.575],[-15.333,16.561],[-15.334,16.502],[-15.436,16.436],[-15.4,16.211],[-15.428,16.161],[-15.439,16]]]},"properties":{"code":"SN-PODOR","nom":"Podor","region":"Saint-Louis","code_region":"SN-SAINT-LOUIS","pays":"Sénégal"}},{"type":"Feature","geometry":{"type":"Polygon","coordinates":[[[-13.448,15.291],[-13.694,15.428],[-13.859,15.539],[-14.248,15.573],[-14.254,15.565],[-14.334,15.496],[-14.422,15.494],[-14.406,15.62],[-14.517,15.805],[-14.647,15.715],[-14.74,15.69],[-14.752,15.412],[-14.607,15.352],[-14.511,15.363],[-14.573,15.115],[-14.524,15.079],[-14.75,15.044],[-14.78,15.02],[-14.709,14.832],[-14.785,14.753],[-14.849,14.631],[-14.627,14.567],[-14.629,14.528],[-14.483,14.567],[-14.413,14.638],[-14.346,14.659],[-14.28,14.587],[-14.254,14.571],[-14.173,14.544],[-14.071,14.509],[-13.847,14.414],[-13.78,14.413],[-13.532,14.407],[-13.567,14.703],[-13.535,14.755],[-13.49,14.946],[-13.615,15.037],[-13.666,15.096],[-13.593,15.121],[-13.571,15.188],[-13.448,15.291]]]},"properties":{"code":"SN-RANEROU","nom":"Ranérou","region":"Matam","code_region":"SN-MATAM","pays":"Sénégal"}},{"type":"Feature","geometry":{"type":"Polygon","coordinates":[[[-16.476,16.068],[-16.481,16.063],[-16.483,16.063],[-16.49,16.073],[-16.494,16.075],[-16.505,16.068],[-16.505,16.062],[-16.508,16.047],[-16.51,16.047],[-16.512,16.026],[-16.51,15.999],[-16.519,15.889],[-16.517,15.872],[-16.526,15.833],[-16.359,15.835],[-16.271,15.862],[-16.256,15.904],[-16.142,16.004],[-16.095,16.027],[-16.33,16.026],[-16.35,16.101],[-16.392,16.097],[-16.451,16.067],[-16.472,16.067],[-16.476,16.068]]]},"properties":{"code":"SN-SAINT-LOUIS","nom":"Saint-Louis","region":"Saint-Louis","code_region":"SN-SAINT-LOUIS","pays":"Sénégal"}},{"type":"Feature","geometry":{"type":"Polygon","coordinates":[[[-13.105,12.794],[-13.109,12.793],[-13.113,12.788],[-13.118,12.779],[-13.123,12.641],[-13.048,12.626],[-13.043,12.579],[-13.068,12.536],[-13.066,12.492],[-12.949,12.481],[-12.945,12.541],[-12.898,12.555],[-12.846,12.519],[-12.838,12.511],[-12.848,12.501],[-12.847,12.497],[-12.829,12.491],[-12.817,12.48],[-12.793,12.486],[-12.755,12.469],[-12.759,12.454],[-12.767,12.44],[-12.765,12.436],[-12.676,12.441],[-12.628,12.437],[-12.613,12.426],[-12.6,12.406],[-12.587,12.41],[-12.583,12.404],[-12.585,12.398],[-12.582,12.392],[-12.583,12.39],[-12.567,12.369],[-12.562,12.369],[-12.549,12.375],[-12.517,12.405],[-12.45,12.4],[-12.396,12.38],[-12.393,12.376],[-12.406,12.439],[-12.447,12.433],[-12.542,12.534],[-12.537,12.598],[-12.589,12.64],[-12.581,12.696],[-12.625,12.752],[-12.77,12.707],[-12.885,12.796],[-13.105,12.794]]]},"properties":{"code":"SN-SALEMATA","nom":"Salemata","region":"Kédougou","code_region":"SN-KEDOUGOU","pays":"Sénégal"}},{"type":"Feature","geometry":{"type":"Polygon","coordinates":[[[-12.245,13.458],[-12.249,13.457],[-12.257,13.423],[-12.228,13.345],[-12.461,13.25],[-12.462,13.242],[-12.465,13.239],[-12.467,13.237],[-12.468,13.234],[-12.492,13.194],[-12.494,13.196],[-12.494,13.19],[-12.473,13.183],[-12.453,13.127],[-12.41,13.098],[-12.369,13.003],[-12.322,13.011],[-12.183,12.933],[-12.177,12.887],[-12.102,12.865],[-11.971,12.718],[-11.874,12.729],[-11.792,12.706],[-11.722,12.641],[-11.868,12.42],[-11.864,12.419],[-11.863,12.413],[-11.855,12.405],[-11.85,12.402],[-11.848,12.397],[-11.845,12.397],[-11.838,12.401],[-11.831,12.404],[-11.802,12.406],[-11.775,12.396],[-11.767,12.386],[-11.728,12.391],[-11.718,12.401],[-11.714,12.403],[-11.702,12.401],[-11.697,12.402],[-11.69,12.407],[-11.681,12.418],[-11.669,12.426],[-11.631,12.435],[-11.475,12.45],[-11.42,12.437],[-11.399,12.419],[-11.368,12.421],[-11.374,12.455],[-11.353,12.465],[-11.361,12.481],[-11.355,12.494],[-11.361,12.509],[-11.369,12.508],[-11.374,12.496],[-11.371,12.487],[-11.376,12.485],[-11.384,12.493],[-11.38,12.512],[-11.381,12.523],[-11.389,12.537],[-11.416,12.653],[-11.424,12.665],[-11.432,12.663],[-11.445,12.664],[-11.448,12.668],[-11.448,12.679],[-11.426,12.73],[-11.386,12.729],[-11.389,12.768],[-11.383,12.805],[-11.412,12.848],[-11.393,12.934],[-11.381,12.929],[-11.351,12.935],[-11.348,12.943],[-11.353,12.949],[-11.358,12.959],[-11.358,12.979],[-11.367,12.991],[-11.375,12.994],[-11.384,12.993],[-11.381,12.976],[-11.385,12.967],[-11.393,12.966],[-11.404,12.975],[-11.408,12.984],[-11.416,12.993],[-11.417,13],[-11.398,13.005],[-11.397,13.007],[-11.397,13.01],[-11.401,13.015],[-11.416,13.02],[-11.411,13.034],[-11.428,13.085],[-11.47,13.097],[-11.496,13.12],[-11.502,13.144],[-11.515,13.147],[-11.519,13.156],[-11.518,13.159],[-11.535,13.198],[-11.527,13.249],[-11.596,13.338],[-11.595,13.362],[-11.601,13.367],[-11.619,13.361],[-11.637,13.364],[-11.626,13.381],[-11.625,13.386],[-11.627,13.394],[-11.692,13.389],[-11.729,13.416],[-11.76,13.366],[-11.767,13.34],[-11.784,13.338],[-11.793,13.33],[-11.795,13.316],[-11.797,13.311],[-11.826,13.308],[-11.828,13.324],[-11.871,13.379],[-11.884,13.382],[-11.888,13.385],[-12.014,13.313],[-12.243,13.461],[-12.245,13.458]]]},"properties":{"code":"SN-SARAYA","nom":"Saraya","region":"Kédougou","code_region":"SN-KEDOUGOU","pays":"Sénégal"}},{"type":"Feature","geometry":{"type":"Polygon","coordinates":[[[-13.519,14.406],[-13.532,14.407],[-13.78,14.413],[-13.787,14.407],[-13.809,14.374],[-13.848,14.332],[-13.863,14.295],[-13.964,14.178],[-13.951,14.095],[-14.173,13.915],[-14.169,13.838],[-14.298,13.689],[-14.373,13.698],[-14.429,13.511],[-14.431,13.509],[-14.426,13.504],[-14.321,13.457],[-14.239,13.476],[-14.168,13.533],[-13.977,13.581],[-13.961,13.58],[-13.861,13.511],[-13.793,13.466],[-13.69,13.291],[-13.615,13.246],[-13.617,13.132],[-13.501,12.998],[-13.5,12.911],[-13.459,12.724],[-13.485,12.674],[-13.348,12.659],[-13.345,12.654],[-13.341,12.651],[-13.338,12.651],[-13.335,12.658],[-13.33,12.657],[-13.334,12.646],[-13.323,12.642],[-13.288,12.646],[-13.292,12.653],[-13.282,12.657],[-13.268,12.652],[-13.208,12.655],[-13.123,12.641],[-13.118,12.779],[-13.113,12.788],[-13.109,12.793],[-13.105,12.794],[-13.108,12.802],[-13.11,12.808],[-13.097,12.817],[-13.125,12.826],[-13.141,12.911],[-13.234,13.015],[-13.207,13.047],[-13.202,13.052],[-12.951,13.081],[-12.825,12.996],[-12.75,13.079],[-12.7,13.093],[-12.668,13.173],[-12.503,13.198],[-12.494,13.196],[-12.492,13.194],[-12.468,13.234],[-12.467,13.237],[-12.47,13.239],[-12.473,13.248],[-12.472,13.268],[-12.469,13.295],[-12.48,13.338],[-12.583,13.457],[-12.637,13.467],[-12.756,13.564],[-12.989,13.39],[-13.063,13.374],[-13.121,13.471],[-13.187,13.477],[-13.236,13.431],[-13.306,13.452],[-13.488,13.627],[-13.438,13.689],[-13.342,13.737],[-13.391,13.825],[-13.515,13.871],[-13.662,13.892],[-13.705,13.951],[-13.674,14.109],[-13.592,14.181],[-13.516,14.303],[-13.519,14.406]]]},"properties":{"code":"SN-TAMBACOUNDA","nom":"Tambacounda","region":"Tambacounda","code_region":"SN-TAMBACOUNDA","pays":"Sénégal"}},{"type":"Feature","geometry":{"type":"Polygon","coordinates":[[[-12.825,16.917],[-13.247,17.302],[-13.696,17.762],[-13.756,17.786],[-13.951,17.63],[-14.17,17.314],[-14.196,17.273],[-14.202,17.256],[-14.229,17.209],[-14.245,17.192],[-14.331,17.052],[-14.556,16.917],[-14.545,16.863],[-14.657,16.804],[-14.537,16.798],[-14.357,16.763],[-13.988,16.665],[-13.77,16.666],[-13.75,16.471],[-13.713,16.363],[-13.626,16.295],[-13.223,16.404],[-13.185,16.416],[-13.164,16.45],[-13.158,16.541],[-13.12,16.584],[-12.966,16.606],[-12.929,16.635],[-12.904,16.706],[-12.84,16.789],[-12.834,16.832],[-12.825,16.917]]]},"properties":{"code":"MR-ALEG","nom":"Aleg","region":"Brakna","code_region":"MR-BRAKNA","pays":"Mauritanie"}},{"type":"Feature","geometry":{"type":"Polygon","coordinates":[[[-13.988,16.665],[-13.949,16.606],[-14.172,16.496],[-14.164,16.489],[-14.153,16.472],[-14.15,16.472],[-14.136,16.478],[-14.132,16.477],[-14.142,16.463],[-14.14,16.456],[-14.123,16.45],[-14.112,16.442],[-14.109,16.431],[-14.102,16.423],[-14.084,16.415],[-14.073,16.406],[-14.068,16.397],[-14.04,16.369],[-14.034,16.36],[-14.03,16.348],[-14.025,16.346],[-13.999,16.349],[-13.989,16.34],[-13.976,16.335],[-13.968,16.334],[-13.963,16.322],[-13.96,16.32],[-13.957,16.308],[-13.96,16.306],[-13.972,16.309],[-13.98,16.31],[-13.99,16.305],[-13.988,16.28],[-13.987,16.276],[-13.971,16.277],[-13.956,16.274],[-13.952,16.27],[-13.953,16.266],[-13.886,16.291],[-13.75,16.471],[-13.77,16.666],[-13.988,16.665]]]},"properties":{"code":"MR-BABABE","nom":"Bababé","region":"Brakna","code_region":"MR-BRAKNA","pays":"Mauritanie"}},{"type":"Feature","geometry":{"type":"Polygon","coordinates":[[[-12.834,16.832],[-12.834,16.779],[-12.833,16.715],[-12.839,16.675],[-12.824,16.669],[-12.817,16.664],[-12.784,16.654],[-12.762,16.621],[-12.764,16.61],[-12.748,16.568],[-12.734,16.543],[-12.767,16.46],[-12.671,16.489],[-12.433,16.443],[-12.441,16.424],[-12.429,16.403],[-12.419,16.395],[-12.425,16.389],[-12.42,16.366],[-12.407,16.324],[-12.42,16.286],[-12.42,16.261],[-12.433,16.254],[-12.429,16.239],[-12.435,16.203],[-12.422,16.2],[-12.409,16.2],[-12.381,16.217],[-12.343,16.249],[-12.301,16.26],[-12.286,16.244],[-12.255,16.24],[-12.242,16.226],[-12.24,16.185],[-12.24,16.152],[-12.221,16.128],[-12.196,16.128],[-12.16,16.11],[-12.146,16.12],[-12.109,16.114],[-12.009,16.05],[-12.033,16.246],[-11.985,16.307],[-11.945,16.441],[-12.018,16.474],[-12.04,16.541],[-12.102,16.559],[-12.107,16.69],[-12.172,16.784],[-12.201,16.907],[-12.263,16.943],[-12.256,17.073],[-12.276,17.115],[-12.274,17.171],[-12.285,17.181],[-12.286,17.227],[-12.331,17.23],[-12.335,17.243],[-12.35,17.25],[-12.492,17.185],[-12.542,17.124],[-12.728,17.063],[-12.753,17.042],[-12.762,17.003],[-12.789,16.981],[-12.808,16.95],[-12.808,16.94],[-12.825,16.917],[-12.834,16.832]]]},"properties":{"code":"MR-BARKEOL","nom":"Barkéol","region":"Assaba","code_region":"MR-ASSABA","pays":"Mauritanie"}},{"type":"Feature","geometry":{"type":"Polygon","coordinates":[[[-14.657,16.804],[-14.729,16.767],[-14.898,16.677],[-14.922,16.656],[-14.93,16.65],[-14.934,16.643],[-14.945,16.638],[-14.941,16.635],[-14.935,16.634],[-14.926,16.638],[-14.913,16.651],[-14.911,16.64],[-14.903,16.635],[-14.896,16.634],[-14.89,16.643],[-14.885,16.659],[-14.882,16.662],[-14.874,16.662],[-14.863,16.644],[-14.858,16.638],[-14.825,16.637],[-14.821,16.649],[-14.817,16.655],[-14.811,16.655],[-14.789,16.631],[-14.769,16.656],[-14.761,16.656],[-14.751,16.646],[-14.75,16.641],[-14.751,16.63],[-14.742,16.622],[-14.733,16.633],[-14.726,16.636],[-14.726,16.646],[-14.724,16.647],[-14.719,16.643],[-14.708,16.639],[-14.688,16.647],[-14.664,16.647],[-14.647,16.651],[-14.643,16.65],[-14.631,16.626],[-14.625,16.63],[-14.608,16.626],[-14.604,16.618],[-14.592,16.623],[-14.572,16.625],[-14.562,16.619],[-14.555,16.621],[-14.55,16.641],[-14.548,16.644],[-14.545,16.645],[-14.538,16.64],[-14.529,16.63],[-14.513,16.623],[-14.497,16.614],[-14.477,16.626],[-14.448,16.624],[-14.443,16.631],[-14.438,16.64],[-14.422,16.652],[-14.419,16.652],[-14.415,16.65],[-14.411,16.637],[-14.409,16.634],[-14.399,16.632],[-14.381,16.637],[-14.372,16.633],[-14.356,16.637],[-14.343,16.642],[-14.336,16.641],[-14.33,16.636],[-14.328,16.629],[-14.329,16.611],[-14.328,16.604],[-14.334,16.579],[-14.328,16.567],[-14.324,16.567],[-14.314,16.571],[-14.304,16.572],[-14.286,16.586],[-14.277,16.583],[-14.27,16.576],[-14.268,16.571],[-14.276,16.557],[-14.274,16.544],[-14.264,16.526],[-14.26,16.523],[-14.259,16.533],[-14.253,16.544],[-14.241,16.547],[-14.223,16.544],[-14.2,16.53],[-14.204,16.517],[-14.2,16.509],[-14.197,16.506],[-14.185,16.502],[-14.172,16.496],[-13.949,16.606],[-13.988,16.665],[-14.357,16.763],[-14.537,16.798],[-14.657,16.804]]]},"properties":{"code":"MR-BOGHE","nom":"Boghé","region":"Brakna","code_region":"MR-BRAKNA","pays":"Mauritanie"}},{"type":"Feature","geometry":{"type":"Polygon","coordinates":[[[-11.037,17.485],[-11.082,17.711],[-10.968,18.279],[-10.986,18.286],[-11.041,18.31],[-11.128,18.247],[-11.242,18.159],[-11.258,18.101],[-11.317,18.061],[-11.341,18.054],[-11.361,18.059],[-11.388,18.074],[-11.395,18.083],[-11.508,18.081],[-11.586,18.047],[-11.627,17.954],[-11.581,17.927],[-11.574,17.885],[-11.541,17.85],[-11.464,17.745],[-11.388,17.623],[-11.297,17.547],[-11.352,17.494],[-11.403,17.523],[-11.422,17.556],[-11.445,17.574],[-11.461,17.579],[-11.506,17.581],[-11.528,17.532],[-11.474,17.518],[-11.508,17.459],[-11.503,17.447],[-11.467,17.405],[-11.5,17.337],[-11.576,17.29],[-11.539,17.224],[-11.511,17.185],[-11.296,17.394],[-11.12,17.397],[-11.037,17.485]]]},"properties":{"code":"MR-BOUMDEID","nom":"Boumdeid","region":"Assaba","code_region":"MR-ASSABA","pays":"Mauritanie"}},{"type":"Feature","geometry":{"type":"Polygon","coordinates":[[[-14.51,19.001],[-14.888,18.154],[-14.842,17.951],[-15.259,17.792],[-15.271,17.746],[-15.272,17.487],[-15.317,17.321],[-15.172,17.367],[-14.991,17.249],[-14.659,17.158],[-14.693,16.958],[-14.729,16.767],[-14.657,16.804],[-14.545,16.863],[-14.556,16.917],[-14.331,17.052],[-14.245,17.192],[-14.229,17.209],[-14.202,17.256],[-14.196,17.273],[-14.17,17.314],[-13.951,17.63],[-13.756,17.786],[-13.455,18.015],[-13.294,18.126],[-12.989,18.329],[-12.665,18.573],[-13.201,18.995],[-13.551,18.996],[-14.215,18.994],[-14.51,19.001]]]},"properties":{"code":"MR-BOUTILIMIT","nom":"Boutilimit","region":"Trarza","code_region":"MR-TRARZA","pays":"Mauritanie"}},{"type":"Feature","geometry":{"type":"Polygon","coordinates":[[[-11.952,15.342],[-12.141,15.2],[-12.141,15.121],[-12.211,15.11],[-12.214,15.218],[-12.39,15.23],[-12.462,15.099],[-12.596,15.078],[-12.585,15.064],[-12.577,15.059],[-12.549,15.032],[-12.481,15.009],[-12.457,14.981],[-12.447,14.906],[-12.393,14.847],[-12.357,14.831],[-12.33,14.83],[-12.299,14.801],[-12.277,14.785],[-12.251,14.769],[-12.212,14.758],[-12.133,14.778],[-12.111,14.751],[-12.048,14.72],[-12.035,14.734],[-12.034,14.764],[-11.984,14.761],[-11.951,14.77],[-11.933,14.787],[-11.931,14.82],[-11.886,14.83],[-11.849,14.855],[-11.823,14.884],[-11.799,14.895],[-11.791,15.016],[-11.805,15.044],[-11.839,15.041],[-11.832,15.081],[-11.841,15.102],[-11.806,15.137],[-11.823,15.192],[-11.907,15.307],[-11.952,15.342]]]},"properties":{"code":"MR-GHABOU","nom":"Ghabou","region":"Guidimakha","code_region":"MR-GUIDIMAKHA","pays":"Mauritanie"}},{"type":"Feature","geometry":{"type":"Polygon","coordinates":[[[-12.04,16.541],[-11.899,16.588],[-11.857,16.628],[-11.733,16.82],[-11.662,16.897],[-11.734,16.99],[-11.801,17],[-11.863,17.087],[-11.879,17.095],[-11.893,17.089],[-11.895,17.095],[-11.919,17.083],[-12.286,17.227],[-12.285,17.181],[-12.274,17.171],[-12.276,17.115],[-12.256,17.073],[-12.263,16.943],[-12.201,16.907],[-12.172,16.784],[-12.107,16.69],[-12.102,16.559],[-12.04,16.541]]]},"properties":{"code":"MR-GUEROU","nom":"Guérou","region":"Assaba","code_region":"MR-ASSABA","pays":"Mauritanie"}},{"type":"Feature","geometry":{"type":"Polygon","coordinates":[[[-13.626,16.295],[-13.632,16.294],[-13.655,16.183],[-13.702,16.168],[-13.707,16.161],[-13.72,16.148],[-13.721,16.142],[-13.715,16.129],[-13.709,16.12],[-13.688,16.099],[-13.681,16.095],[-13.678,16.096],[-13.664,16.112],[-13.66,16.113],[-13.642,16.108],[-13.636,16.109],[-13.584,16.134],[-13.564,16.138],[-13.559,16.138],[-13.524,16.127],[-13.488,16.149],[-13.479,16.143],[-13.476,16.134],[-13.48,16.128],[-13.495,16.126],[-13.509,16.118],[-13.515,16.104],[-13.506,16.087],[-13.499,16.079],[-13.489,16.083],[-13.476,16.106],[-13.467,16.11],[-13.458,16.11],[-13.456,16.1],[-13.452,16.09],[-13.441,16.083],[-13.425,16.076],[-13.394,16.064],[-13.383,16.061],[-13.376,16.054],[-13.378,16.016],[-13.365,16.001],[-13.364,15.993],[-13.365,15.971],[-13.35,15.948],[-13.342,15.939],[-13.33,15.932],[-13.322,15.931],[-13.317,15.929],[-13.313,15.925],[-13.313,15.917],[-13.334,15.896],[-13.329,15.888],[-13.309,15.879],[-13.304,15.875],[-13.3,15.869],[-13.297,15.86],[-13.301,15.84],[-13.301,15.831],[-13.298,15.823],[-13.283,15.805],[-13.276,15.803],[-13.272,15.799],[-13.264,15.789],[-13.267,15.784],[-13.27,15.783],[-13.279,15.786],[-13.282,15.788],[-13.286,15.788],[-13.29,15.782],[-13.291,15.769],[-13.289,15.764],[-13.283,15.761],[-13.267,15.747],[-13.252,15.737],[-13.224,15.71],[-13.208,15.698],[-13.207,15.695],[-13.21,15.686],[-13.216,15.676],[-13.222,15.673],[-13.229,15.671],[-13.244,15.677],[-13.252,15.664],[-13.252,15.659],[-13.251,15.655],[-13.235,15.633],[-13.232,15.627],[-13.23,15.619],[-13.226,15.614],[-13.217,15.61],[-13.213,15.611],[-13.212,15.611],[-13.209,15.617],[-13.204,15.622],[-13.195,15.627],[-13.109,15.673],[-12.948,15.763],[-12.879,15.85],[-12.755,15.929],[-12.729,15.998],[-12.999,16.225],[-13.153,16.234],[-13.19,16.328],[-13.223,16.404],[-13.626,16.295]]]},"properties":{"code":"MR-KAEDI","nom":"Kaédi","region":"Gorgol","code_region":"MR-GORGOL","pays":"Mauritanie"}},{"type":"Feature","geometry":{"type":"Polygon","coordinates":[[[-10.829,16.284],[-11.001,16.289],[-11.339,16.291],[-11.671,16.288],[-11.666,16.004],[-11.586,15.97],[-11.633,15.904],[-11.572,15.857],[-11.588,15.832],[-11.606,15.78],[-11.622,15.763],[-11.639,15.735],[-11.651,15.723],[-11.66,15.695],[-11.665,15.626],[-11.681,15.585],[-11.662,15.561],[-11.66,15.535],[-11.664,15.527],[-11.632,15.525],[-11.579,15.552],[-11.462,15.608],[-11.419,15.63],[-11.394,15.595],[-11.358,15.551],[-11.332,15.512],[-11.308,15.489],[-11.294,15.469],[-11.264,15.439],[-11.223,15.418],[-11.186,15.385],[-11.18,15.375],[-11.158,15.362],[-11.075,15.292],[-11.062,15.287],[-11.053,15.272],[-11.038,15.257],[-11.023,15.255],[-10.998,15.234],[-10.986,15.219],[-10.971,15.193],[-10.955,15.177],[-10.911,15.119],[-10.88,15.144],[-10.871,15.189],[-10.858,15.206],[-10.85,15.213],[-10.834,15.218],[-10.824,15.25],[-10.823,15.284],[-10.816,15.294],[-10.806,15.296],[-10.79,15.308],[-10.778,15.326],[-10.755,15.339],[-10.745,15.333],[-10.726,15.365],[-10.721,15.391],[-10.729,15.404],[-10.729,15.427],[-10.718,15.441],[-10.677,15.428],[-10.656,15.418],[-10.633,15.418],[-10.619,15.421],[-10.61,15.419],[-10.605,15.423],[-10.596,15.426],[-10.591,15.431],[-10.599,15.483],[-10.623,15.686],[-10.643,15.8],[-10.654,15.836],[-10.673,15.952],[-10.685,15.957],[-10.685,15.969],[-10.695,15.967],[-10.685,15.983],[-10.67,15.996],[-10.722,16],[-10.76,16.017],[-10.769,16.023],[-10.776,16.035],[-10.766,16.054],[-10.769,16.085],[-10.739,16.136],[-10.744,16.181],[-10.829,16.284]]]},"properties":{"code":"MR-KANKOSSA","nom":"Kankossa","region":"Assaba","code_region":"MR-ASSABA","pays":"Mauritanie"}},{"type":"Feature","geometry":{"type":"Polygon","coordinates":[[[-15.901,16.679],[-15.971,16.714],[-16.029,16.926],[-15.999,16.999],[-16.275,17.021],[-16.372,16.797],[-16.445,16.604],[-16.444,16.593],[-16.449,16.507],[-16.453,16.48],[-16.517,16.289],[-16.51,16.201],[-16.509,16.107],[-16.51,16.046],[-16.508,16.045],[-16.508,16.051],[-16.504,16.065],[-16.493,16.074],[-16.488,16.068],[-16.486,16.058],[-16.474,16.071],[-16.47,16.078],[-16.463,16.081],[-16.458,16.093],[-16.447,16.1],[-16.443,16.105],[-16.445,16.11],[-16.454,16.115],[-16.457,16.12],[-16.453,16.133],[-16.455,16.14],[-16.454,16.154],[-16.456,16.172],[-16.452,16.189],[-16.448,16.196],[-16.435,16.21],[-16.428,16.213],[-16.414,16.216],[-16.402,16.21],[-16.398,16.21],[-16.39,16.212],[-16.376,16.227],[-16.362,16.26],[-16.364,16.284],[-16.368,16.297],[-16.368,16.303],[-16.35,16.333],[-16.344,16.333],[-16.333,16.346],[-16.341,16.368],[-16.33,16.4],[-16.324,16.405],[-16.313,16.406],[-16.31,16.408],[-16.309,16.414],[-16.309,16.441],[-16.305,16.461],[-16.3,16.468],[-16.295,16.471],[-16.291,16.479],[-16.283,16.51],[-16.264,16.523],[-16.249,16.529],[-16.231,16.526],[-16.216,16.517],[-16.188,16.518],[-16.174,16.526],[-16.169,16.534],[-16.144,16.551],[-16.116,16.559],[-16.1,16.534],[-16.09,16.516],[-16.073,16.503],[-16.055,16.48],[-16.033,16.481],[-16.005,16.505],[-15.973,16.604],[-15.901,16.679]]]},"properties":{"code":"MR-KEUR-MACENE","nom":"Keur Macène","region":"Trarza","code_region":"MR-TRARZA","pays":"Mauritanie"}},{"type":"Feature","geometry":{"type":"Polygon","coordinates":[[[-12.009,16.05],[-12.02,16.01],[-12.004,15.971],[-12.007,15.943],[-12,15.937],[-11.948,15.901],[-11.884,15.913],[-11.835,15.908],[-11.844,15.934],[-11.832,15.946],[-11.814,15.945],[-11.814,15.959],[-11.817,15.97],[-11.797,15.98],[-11.82,16.005],[-11.813,16.024],[-11.805,16.033],[-11.789,16.035],[-11.779,16.052],[-11.754,16.05],[-11.706,16.041],[-11.696,16.022],[-11.666,16.004],[-11.671,16.288],[-11.339,16.291],[-11.001,16.289],[-10.829,16.284],[-10.826,16.33],[-10.82,16.368],[-10.813,16.374],[-10.809,16.394],[-10.817,16.407],[-10.816,16.426],[-10.849,16.427],[-10.872,16.477],[-10.798,16.5],[-10.734,16.582],[-10.764,16.594],[-10.817,16.601],[-10.846,16.629],[-10.863,16.653],[-10.871,16.688],[-10.866,16.712],[-10.883,16.722],[-10.885,16.738],[-10.9,16.755],[-10.932,16.761],[-10.987,16.85],[-10.987,16.857],[-10.98,16.878],[-10.989,16.888],[-10.982,16.916],[-10.994,16.936],[-10.991,16.959],[-10.991,16.982],[-10.995,17.007],[-10.987,17.034],[-10.98,17.071],[-10.98,17.106],[-10.982,17.132],[-11.012,17.155],[-11.011,17.17],[-11.001,17.22],[-10.989,17.266],[-10.985,17.358],[-10.995,17.403],[-11.037,17.485],[-11.12,17.397],[-11.296,17.394],[-11.511,17.185],[-11.527,17.097],[-11.767,17.128],[-11.879,17.095],[-11.863,17.087],[-11.801,17],[-11.734,16.99],[-11.662,16.897],[-11.733,16.82],[-11.857,16.628],[-11.899,16.588],[-12.04,16.541],[-12.018,16.474],[-11.945,16.441],[-11.985,16.307],[-12.033,16.246],[-12.009,16.05]]]},"properties":{"code":"MR-KIFFA","nom":"Kiffa","region":"Assaba","code_region":"MR-ASSABA","pays":"Mauritanie"}},{"type":"Feature","geometry":{"type":"Polygon","coordinates":[[[-13.75,16.471],[-13.886,16.291],[-13.953,16.266],[-13.965,16.257],[-13.969,16.252],[-13.971,16.244],[-13.973,16.223],[-13.968,16.223],[-13.945,16.234],[-13.939,16.233],[-13.933,16.226],[-13.92,16.228],[-13.919,16.21],[-13.916,16.2],[-13.906,16.191],[-13.901,16.189],[-13.888,16.197],[-13.879,16.196],[-13.871,16.189],[-13.869,16.179],[-13.879,16.165],[-13.878,16.154],[-13.874,16.147],[-13.872,16.145],[-13.868,16.131],[-13.864,16.127],[-13.858,16.127],[-13.853,16.11],[-13.849,16.107],[-13.828,16.132],[-13.797,16.146],[-13.793,16.147],[-13.784,16.144],[-13.775,16.143],[-13.721,16.18],[-13.715,16.182],[-13.71,16.183],[-13.705,16.181],[-13.701,16.175],[-13.702,16.168],[-13.655,16.183],[-13.632,16.294],[-13.626,16.295],[-13.713,16.363],[-13.75,16.471]]]},"properties":{"code":"MR-MBAGNE","nom":"Mbagne","region":"Brakna","code_region":"MR-BRAKNA","pays":"Mauritanie"}},{"type":"Feature","geometry":{"type":"Polygon","coordinates":[[[-12.767,16.46],[-12.842,16.376],[-12.935,16.234],[-12.999,16.225],[-12.729,15.998],[-12.755,15.929],[-12.79,15.769],[-12.731,15.697],[-12.683,15.687],[-12.666,15.575],[-12.608,15.555],[-12.538,15.534],[-12.529,15.547],[-12.497,15.566],[-12.474,15.65],[-12.459,15.669],[-12.403,15.708],[-12.36,15.753],[-12.28,15.82],[-12.271,15.84],[-12.264,15.86],[-12.23,15.885],[-12.188,15.898],[-12.144,15.888],[-12.002,15.926],[-12,15.937],[-12.007,15.943],[-12.004,15.971],[-12.02,16.01],[-12.009,16.05],[-12.109,16.114],[-12.146,16.12],[-12.16,16.11],[-12.196,16.128],[-12.221,16.128],[-12.24,16.152],[-12.24,16.185],[-12.242,16.226],[-12.255,16.24],[-12.286,16.244],[-12.301,16.26],[-12.343,16.249],[-12.381,16.217],[-12.409,16.2],[-12.422,16.2],[-12.435,16.203],[-12.429,16.239],[-12.433,16.254],[-12.42,16.261],[-12.42,16.286],[-12.407,16.324],[-12.42,16.366],[-12.425,16.389],[-12.419,16.395],[-12.429,16.403],[-12.441,16.424],[-12.433,16.443],[-12.671,16.489],[-12.767,16.46]]]},"properties":{"code":"MR-MBOUT","nom":"Mbout","region":"Gorgol","code_region":"MR-GORGOL","pays":"Mauritanie"}},{"type":"Feature","geometry":{"type":"Polygon","coordinates":[[[-13.195,15.627],[-13.175,15.625],[-13.157,15.614],[-13.158,15.613],[-13.154,15.61],[-13.146,15.606],[-13.116,15.597],[-13.099,15.587],[-13.087,15.583],[-13.086,15.577],[-13.093,15.574],[-13.093,15.572],[-13.087,15.562],[-13.085,15.552],[-13.086,15.547],[-13.096,15.532],[-13.099,15.524],[-13.103,15.504],[-13.102,15.501],[-13.096,15.496],[-13.078,15.492],[-13.058,15.481],[-13.04,15.48],[-13.017,15.482],[-13.002,15.496],[-12.998,15.498],[-12.976,15.5],[-12.959,15.504],[-12.958,15.499],[-12.961,15.489],[-12.957,15.475],[-12.959,15.45],[-12.952,15.443],[-12.933,15.447],[-12.925,15.443],[-12.924,15.438],[-12.929,15.43],[-12.941,15.422],[-12.944,15.414],[-12.944,15.369],[-12.938,15.357],[-12.926,15.348],[-12.908,15.339],[-12.888,15.338],[-12.881,15.336],[-12.846,15.315],[-12.841,15.309],[-12.837,15.296],[-12.834,15.291],[-12.831,15.279],[-12.834,15.27],[-12.845,15.259],[-12.846,15.254],[-12.849,15.253],[-12.862,15.255],[-12.875,15.267],[-12.889,15.267],[-12.895,15.262],[-12.896,15.259],[-12.894,15.252],[-12.886,15.242],[-12.869,15.234],[-12.862,15.228],[-12.855,15.218],[-12.849,15.203],[-12.841,15.2],[-12.819,15.216],[-12.806,15.217],[-12.791,15.209],[-12.783,15.189],[-12.791,15.164],[-12.789,15.156],[-12.782,15.149],[-12.757,15.14],[-12.707,15.261],[-12.686,15.305],[-12.683,15.33],[-12.608,15.555],[-12.666,15.575],[-12.683,15.687],[-12.731,15.697],[-12.79,15.769],[-12.755,15.929],[-12.879,15.85],[-12.948,15.763],[-13.109,15.673],[-13.195,15.627]]]},"properties":{"code":"MR-MAGHAMA","nom":"Maghama","region":"Gorgol","code_region":"MR-GORGOL","pays":"Mauritanie"}},{"type":"Feature","geometry":{"type":"Polygon","coordinates":[[[-12.825,16.917],[-12.808,16.94],[-12.808,16.95],[-12.789,16.981],[-12.762,17.003],[-12.753,17.042],[-12.728,17.063],[-12.542,17.124],[-12.492,17.185],[-12.35,17.25],[-12.328,17.264],[-12.323,17.29],[-12.336,17.318],[-12.443,17.392],[-12.509,17.455],[-12.54,17.476],[-12.527,17.547],[-12.473,18.025],[-12.451,18.268],[-12.665,18.573],[-12.989,18.329],[-13.294,18.126],[-13.455,18.015],[-13.756,17.786],[-13.696,17.762],[-13.247,17.302],[-12.825,16.917]]]},"properties":{"code":"MR-MAGTA-LAHJAR","nom":"Magta-Lahjar","region":"Brakna","code_region":"MR-BRAKNA","pays":"Mauritanie"}},{"type":"Feature","geometry":{"type":"Polygon","coordinates":[[[-15.272,17.487],[-15.502,17.354],[-15.503,17.603],[-15.742,17.5],[-15.835,17.529],[-15.897,17.446],[-15.881,17.339],[-15.836,17.273],[-16.159,17.293],[-16.275,17.021],[-15.999,16.999],[-16.029,16.926],[-15.971,16.714],[-15.901,16.679],[-15.734,16.726],[-15.494,16.846],[-15.332,17.079],[-15.311,17.131],[-15.317,17.321],[-15.272,17.487]]]},"properties":{"code":"MR-MEDERDRA","nom":"Méderdra","region":"Trarza","code_region":"MR-TRARZA","pays":"Mauritanie"}},{"type":"Feature","geometry":{"type":"Polygon","coordinates":[[[-13.223,16.404],[-13.19,16.328],[-13.153,16.234],[-12.999,16.225],[-12.935,16.234],[-12.842,16.376],[-12.767,16.46],[-12.734,16.543],[-12.748,16.568],[-12.764,16.61],[-12.762,16.621],[-12.784,16.654],[-12.817,16.664],[-12.824,16.669],[-12.839,16.675],[-12.833,16.715],[-12.834,16.779],[-12.834,16.832],[-12.84,16.789],[-12.904,16.706],[-12.929,16.635],[-12.966,16.606],[-13.12,16.584],[-13.158,16.541],[-13.164,16.45],[-13.185,16.416],[-13.223,16.404]]]},"properties":{"code":"MR-MONGUEL","nom":"Monguel","region":"Gorgol","code_region":"MR-GORGOL","pays":"Mauritanie"}},{"type":"Feature","geometry":{"type":"Polygon","coordinates":[[[-14.51,19.001],[-15.221,19.011],[-15.24,19.016],[-15.61,18.688],[-15.874,18.457],[-16.059,18.449],[-16.045,18.176],[-15.996,18.177],[-15.947,18.177],[-15.893,18.177],[-15.888,17.977],[-15.972,17.977],[-16.044,17.976],[-16.034,17.948],[-16.034,17.924],[-16.038,17.87],[-16.043,17.72],[-16.065,17.577],[-16.1,17.45],[-16.159,17.293],[-15.836,17.273],[-15.881,17.339],[-15.897,17.446],[-15.835,17.529],[-15.742,17.5],[-15.503,17.603],[-15.502,17.354],[-15.272,17.487],[-15.271,17.746],[-15.259,17.792],[-14.842,17.951],[-14.888,18.154],[-14.51,19.001]]]},"properties":{"code":"MR-OUAD-NAGA","nom":"Ouad Naga","region":"Trarza","code_region":"MR-TRARZA","pays":"Mauritanie"}},{"type":"Feature","geometry":{"type":"Polygon","coordinates":[[[-11.823,15.192],[-11.809,15.208],[-11.802,15.236],[-11.8,15.252],[-11.805,15.267],[-11.758,15.353],[-11.746,15.396],[-11.74,15.454],[-11.71,15.49],[-11.698,15.494],[-11.684,15.5],[-11.664,15.527],[-11.66,15.535],[-11.662,15.561],[-11.681,15.585],[-11.665,15.626],[-11.66,15.695],[-11.651,15.723],[-11.639,15.735],[-11.622,15.763],[-11.606,15.78],[-11.588,15.832],[-11.572,15.857],[-11.633,15.904],[-11.586,15.97],[-11.666,16.004],[-11.696,16.022],[-11.706,16.041],[-11.754,16.05],[-11.779,16.052],[-11.789,16.035],[-11.805,16.033],[-11.813,16.024],[-11.82,16.005],[-11.797,15.98],[-11.817,15.97],[-11.814,15.959],[-11.814,15.945],[-11.832,15.946],[-11.844,15.934],[-11.835,15.908],[-11.884,15.913],[-11.948,15.901],[-12,15.937],[-12.002,15.926],[-12.144,15.888],[-12.188,15.898],[-12.23,15.885],[-12.264,15.86],[-12.166,15.734],[-12.13,15.579],[-12.058,15.469],[-12.068,15.421],[-11.952,15.342],[-11.907,15.307],[-11.823,15.192]]]},"properties":{"code":"MR-OULD-YENGE","nom":"Ould Yengé","region":"Guidimakha","code_region":"MR-GUIDIMAKHA","pays":"Mauritanie"}},{"type":"Feature","geometry":{"type":"Polygon","coordinates":[[[-14.729,16.767],[-14.693,16.958],[-14.659,17.158],[-14.991,17.249],[-15.172,17.367],[-15.317,17.321],[-15.311,17.131],[-15.332,17.079],[-15.494,16.846],[-15.441,16.59],[-15.439,16.575],[-15.429,16.549],[-15.421,16.538],[-15.408,16.536],[-15.395,16.537],[-15.375,16.543],[-15.354,16.56],[-15.333,16.565],[-15.314,16.574],[-15.293,16.572],[-15.285,16.568],[-15.262,16.569],[-15.249,16.56],[-15.228,16.555],[-15.209,16.559],[-15.171,16.582],[-15.158,16.591],[-15.139,16.587],[-15.125,16.577],[-15.103,16.581],[-15.078,16.605],[-15.076,16.621],[-15.109,16.645],[-15.106,16.657],[-15.107,16.669],[-15.092,16.669],[-15.082,16.68],[-15.058,16.668],[-15.052,16.652],[-15.039,16.63],[-15.023,16.63],[-14.992,16.643],[-14.984,16.663],[-14.978,16.691],[-14.963,16.695],[-14.943,16.673],[-14.942,16.66],[-14.945,16.638],[-14.934,16.643],[-14.93,16.65],[-14.922,16.656],[-14.898,16.677],[-14.729,16.767]]]},"properties":{"code":"MR-RKIZ","nom":"Rkiz","region":"Trarza","code_region":"MR-TRARZA","pays":"Mauritanie"}},{"type":"Feature","geometry":{"type":"Polygon","coordinates":[[[-16.005,16.505],[-15.982,16.495],[-15.955,16.486],[-15.916,16.511],[-15.902,16.513],[-15.873,16.514],[-15.865,16.511],[-15.856,16.49],[-15.835,16.501],[-15.827,16.504],[-15.751,16.49],[-15.716,16.478],[-15.693,16.477],[-15.661,16.481],[-15.637,16.489],[-15.63,16.528],[-15.554,16.511],[-15.534,16.516],[-15.514,16.525],[-15.519,16.543],[-15.518,16.561],[-15.498,16.574],[-15.463,16.58],[-15.441,16.59],[-15.494,16.846],[-15.734,16.726],[-15.901,16.679],[-15.973,16.604],[-16.005,16.505]]]},"properties":{"code":"MR-ROSSO","nom":"Rosso","region":"Trarza","code_region":"MR-TRARZA","pays":"Mauritanie"}},{"type":"Feature","geometry":{"type":"Polygon","coordinates":[[[-11.952,15.342],[-12.068,15.421],[-12.058,15.469],[-12.13,15.579],[-12.166,15.734],[-12.264,15.86],[-12.271,15.84],[-12.28,15.82],[-12.36,15.753],[-12.403,15.708],[-12.459,15.669],[-12.474,15.65],[-12.497,15.566],[-12.529,15.547],[-12.538,15.534],[-12.608,15.555],[-12.683,15.33],[-12.686,15.305],[-12.707,15.261],[-12.757,15.14],[-12.74,15.129],[-12.719,15.107],[-12.701,15.1],[-12.692,15.093],[-12.688,15.086],[-12.686,15.087],[-12.685,15.099],[-12.679,15.106],[-12.669,15.11],[-12.663,15.11],[-12.649,15.105],[-12.627,15.093],[-12.606,15.085],[-12.596,15.078],[-12.462,15.099],[-12.39,15.23],[-12.214,15.218],[-12.211,15.11],[-12.141,15.121],[-12.141,15.2],[-11.952,15.342]]]},"properties":{"code":"MR-SELIBABY","nom":"Sélibaby","region":"Guidimakha","code_region":"MR-GUIDIMAKHA","pays":"Mauritanie"}},{"type":"Feature","geometry":{"type":"Polygon","coordinates":[[[-10.195,14.606],[-10.347,14.645],[-10.42,14.614],[-10.656,14.62],[-10.77,14.628],[-10.77,14.482],[-10.855,14.33],[-10.826,14.246],[-10.863,14.152],[-10.933,14.109],[-10.926,14.013],[-10.977,13.876],[-11.019,13.85],[-11.048,13.835],[-11.077,13.775],[-11.183,13.753],[-11.26,13.774],[-11.382,13.845],[-11.443,13.789],[-11.469,13.691],[-11.441,13.686],[-11.384,13.559],[-11.263,13.466],[-11.19,13.351],[-11.115,13.307],[-10.993,13.319],[-10.993,13.135],[-10.887,13.043],[-10.818,12.939],[-10.765,12.902],[-10.743,12.82],[-10.651,12.729],[-10.585,12.73],[-10.505,12.775],[-10.433,12.782],[-10.256,12.836],[-10.256,12.844],[-10.265,12.853],[-10.251,12.873],[-10.229,12.874],[-10.234,12.996],[-10.204,13.052],[-10.227,13.136],[-10.202,13.251],[-10.15,13.292],[-10.046,13.429],[-9.892,13.448],[-9.915,13.538],[-9.963,13.571],[-10.035,13.719],[-10.136,13.834],[-10.176,13.998],[-10.171,14.049],[-9.992,14.131],[-9.903,14.237],[-9.822,14.254],[-9.951,14.309],[-10.102,14.397],[-10.147,14.553],[-10.195,14.606]]]},"properties":{"code":"ML-BAFOULABE","nom":"Bafoulabé","region":"Kayes","code_region":"ML-KAYES","pays":"Mali"}},{"type":"Feature","geometry":{"type":"Polygon","coordinates":[[[-9.822,14.254],[-9.661,14.334],[-9.625,14.327],[-9.465,14.18],[-9.386,14.194],[-9.39,14.314],[-9.272,14.334],[-9.2,14.17],[-9.116,14.134],[-8.986,14.137],[-9.015,14.187],[-8.998,14.246],[-8.98,14.261],[-8.971,14.272],[-8.968,14.288],[-8.972,14.301],[-8.977,14.311],[-8.971,14.363],[-8.879,14.337],[-8.799,14.29],[-8.65,14.311],[-8.591,14.398],[-8.529,14.377],[-8.443,14.295],[-8.162,14.317],[-8.132,14.337],[-8.164,14.5],[-8.237,14.517],[-8.361,14.622],[-8.471,14.677],[-8.475,14.873],[-8.507,14.96],[-8.677,14.979],[-8.756,14.842],[-8.915,14.718],[-9.001,14.723],[-9.037,14.946],[-9.189,15.105],[-9.323,15.147],[-9.38,15.2],[-9.454,15.18],[-9.527,15.056],[-9.506,14.947],[-9.461,14.831],[-9.474,14.747],[-9.708,14.693],[-9.762,14.695],[-9.812,14.807],[-9.886,14.819],[-9.985,14.76],[-10.143,14.621],[-10.195,14.606],[-10.147,14.553],[-10.102,14.397],[-9.951,14.309],[-9.822,14.254]]]},"properties":{"code":"ML-DIEMA","nom":"Diéma","region":"Kayes","code_region":"ML-KAYES","pays":"Mali"}},{"type":"Feature","geometry":{"type":"Polygon","coordinates":[[[-10.77,14.628],[-10.819,14.62],[-10.826,14.817],[-10.918,14.946],[-11.006,15.039],[-11.018,15.133],[-11.009,15.179],[-10.991,15.227],[-11,15.232],[-11.015,15.245],[-11.044,15.265],[-11.06,15.284],[-11.073,15.291],[-11.141,15.347],[-11.189,15.376],[-11.202,15.393],[-11.253,15.416],[-11.256,15.426],[-11.265,15.437],[-11.298,15.466],[-11.307,15.484],[-11.322,15.501],[-11.329,15.502],[-11.337,15.511],[-11.341,15.52],[-11.357,15.527],[-11.36,15.534],[-11.358,15.553],[-11.368,15.569],[-11.39,15.597],[-11.409,15.631],[-11.411,15.633],[-11.423,15.634],[-11.432,15.639],[-11.434,15.636],[-11.449,15.639],[-11.49,15.637],[-11.518,15.636],[-11.516,15.633],[-11.503,15.628],[-11.492,15.614],[-11.519,15.592],[-11.536,15.597],[-11.54,15.594],[-11.547,15.592],[-11.553,15.582],[-11.56,15.582],[-11.565,15.579],[-11.573,15.555],[-11.583,15.544],[-11.594,15.542],[-11.62,15.527],[-11.642,15.522],[-11.652,15.533],[-11.655,15.532],[-11.661,15.527],[-11.664,15.535],[-11.67,15.536],[-11.68,15.535],[-11.698,15.537],[-11.7,15.539],[-11.711,15.538],[-11.715,15.526],[-11.709,15.489],[-11.713,15.483],[-11.727,15.477],[-11.748,15.45],[-11.747,15.415],[-11.765,15.346],[-11.776,15.329],[-11.79,15.32],[-11.792,15.306],[-11.792,15.293],[-11.805,15.276],[-11.808,15.266],[-11.805,15.258],[-11.805,15.252],[-11.803,15.249],[-11.804,15.243],[-11.802,15.234],[-11.81,15.209],[-11.815,15.205],[-11.817,15.2],[-11.824,15.196],[-11.831,15.189],[-11.839,15.178],[-11.847,15.093],[-11.846,15.085],[-11.843,15.08],[-11.834,15.075],[-11.831,15.066],[-11.832,15.062],[-11.841,15.052],[-11.845,15.043],[-11.842,15.033],[-11.831,15.03],[-11.811,15.042],[-11.806,15.039],[-11.801,15.039],[-11.796,15.028],[-11.792,15.025],[-11.791,15.023],[-11.8,14.997],[-11.799,14.981],[-11.804,14.973],[-11.805,14.964],[-11.81,14.957],[-11.811,14.95],[-11.814,14.948],[-11.818,14.937],[-11.818,14.926],[-11.81,14.916],[-11.81,14.912],[-11.805,14.911],[-11.8,14.904],[-11.801,14.897],[-11.801,14.894],[-11.945,14.773],[-11.979,14.761],[-11.985,14.762],[-11.992,14.76],[-11.996,14.764],[-12.003,14.764],[-12.008,14.758],[-12.008,14.762],[-12.022,14.76],[-12.033,14.762],[-12.036,14.766],[-12.042,14.765],[-12.049,14.759],[-12.046,14.755],[-12.047,14.748],[-12.044,14.732],[-12.053,14.719],[-12.071,14.726],[-12.11,14.748],[-12.114,14.753],[-12.122,14.77],[-12.14,14.773],[-12.154,14.769],[-12.173,14.758],[-12.213,14.755],[-12.232,14.758],[-12.239,14.761],[-12.236,14.754],[-12.234,14.735],[-12.214,14.728],[-12.207,14.695],[-12.183,14.692],[-12.176,14.665],[-12.144,14.644],[-12.144,14.631],[-12.15,14.617],[-12.168,14.612],[-12.173,14.607],[-12.174,14.583],[-12.185,14.566],[-12.186,14.555],[-12.187,14.552],[-12.209,14.552],[-12.212,14.551],[-12.216,14.543],[-12.214,14.521],[-12.219,14.509],[-12.222,14.494],[-12.217,14.483],[-12.199,14.476],[-12.207,14.456],[-12.19,14.435],[-12.19,14.432],[-12.196,14.426],[-12.201,14.415],[-12.2,14.403],[-12.161,14.384],[-12.127,14.372],[-12.118,14.364],[-12.108,14.37],[-12.093,14.365],[-12.092,14.359],[-12.093,14.35],[-12.098,14.349],[-12.101,14.341],[-12.095,14.339],[-12.088,14.332],[-12.092,14.327],[-12.09,14.321],[-12.095,14.31],[-12.101,14.307],[-12.092,14.301],[-12.083,14.301],[-12.072,14.294],[-12.062,14.296],[-12.027,14.283],[-12.002,14.214],[-11.995,14.206],[-11.987,14.2],[-11.988,14.188],[-11.974,14.181],[-11.976,14.098],[-11.983,14.086],[-11.997,14.082],[-11.999,14.072],[-11.995,14.06],[-12.003,14.049],[-12.01,14.047],[-12.008,14.03],[-12.016,14.023],[-12.01,13.984],[-11.989,13.96],[-11.934,13.919],[-11.944,13.862],[-11.943,13.857],[-11.947,13.853],[-11.947,13.838],[-11.953,13.814],[-12.004,13.752],[-12.04,13.73],[-12.062,13.723],[-12.066,13.716],[-12.073,13.715],[-12.038,13.619],[-12.017,13.597],[-11.998,13.585],[-11.999,13.567],[-11.982,13.556],[-11.975,13.548],[-11.971,13.539],[-11.971,13.534],[-11.967,13.537],[-11.962,13.552],[-11.944,13.569],[-11.801,13.526],[-11.588,13.592],[-11.498,13.636],[-11.469,13.691],[-11.443,13.789],[-11.382,13.845],[-11.26,13.774],[-11.183,13.753],[-11.077,13.775],[-11.048,13.835],[-11.019,13.85],[-10.977,13.876],[-10.926,14.013],[-10.933,14.109],[-10.863,14.152],[-10.826,14.246],[-10.855,14.33],[-10.77,14.482],[-10.77,14.628]]]},"properties":{"code":"ML-KAYES","nom":"Kayes","region":"Kayes","code_region":"ML-KAYES","pays":"Mali"}},{"type":"Feature","geometry":{"type":"Polygon","coordinates":[[[-11.469,13.691],[-11.498,13.636],[-11.588,13.592],[-11.801,13.526],[-11.944,13.569],[-11.962,13.552],[-11.967,13.537],[-11.971,13.534],[-11.949,13.517],[-11.873,13.461],[-11.865,13.446],[-11.867,13.432],[-11.884,13.396],[-11.887,13.384],[-11.886,13.379],[-11.872,13.376],[-11.862,13.359],[-11.83,13.325],[-11.826,13.304],[-11.799,13.307],[-11.797,13.309],[-11.794,13.319],[-11.788,13.33],[-11.771,13.333],[-11.766,13.34],[-11.762,13.356],[-11.742,13.384],[-11.643,13.39],[-11.631,13.391],[-11.626,13.389],[-11.624,13.381],[-11.637,13.363],[-11.633,13.358],[-11.613,13.358],[-11.6,13.363],[-11.597,13.362],[-11.595,13.358],[-11.542,13.281],[-11.525,13.25],[-11.526,13.195],[-11.505,13.193],[-11.502,13.174],[-11.508,13.164],[-11.517,13.154],[-11.518,13.147],[-11.502,13.138],[-11.495,13.116],[-11.466,13.093],[-11.425,13.076],[-11.434,13.051],[-11.418,13.034],[-11.412,13.031],[-11.411,13.027],[-11.416,13.017],[-11.403,13.012],[-11.4,13.009],[-11.398,13.003],[-11.4,12.999],[-11.415,12.997],[-11.416,12.992],[-11.414,12.989],[-11.41,12.979],[-11.392,12.963],[-11.387,12.964],[-11.385,12.97],[-11.387,12.989],[-11.384,12.991],[-11.378,12.992],[-11.371,12.99],[-11.361,12.984],[-11.357,12.978],[-11.355,12.953],[-11.351,12.943],[-11.348,12.941],[-11.348,12.932],[-11.355,12.929],[-11.404,12.877],[-11.382,12.802],[-11.384,12.74],[-11.373,12.725],[-11.424,12.719],[-11.441,12.694],[-11.447,12.673],[-11.447,12.667],[-11.444,12.662],[-11.421,12.559],[-11.41,12.541],[-11.388,12.532],[-11.391,12.523],[-11.383,12.522],[-11.378,12.516],[-11.382,12.499],[-11.376,12.493],[-11.375,12.497],[-11.371,12.498],[-11.368,12.506],[-11.357,12.498],[-11.357,12.492],[-11.359,12.483],[-11.351,12.459],[-11.367,12.45],[-11.365,12.43],[-11.366,12.419],[-11.375,12.414],[-11.374,12.386],[-11.436,12.376],[-11.433,12.365],[-11.435,12.357],[-11.439,12.355],[-11.442,12.359],[-11.445,12.358],[-11.446,12.355],[-11.446,12.351],[-11.43,12.324],[-11.432,12.28],[-11.447,12.253],[-11.478,12.236],[-11.495,12.184],[-11.457,12.134],[-11.371,12.107],[-11.309,12.02],[-11.272,12.002],[-11.254,12.003],[-11.236,11.993],[-11.223,11.993],[-11.185,12.01],[-11.171,12.027],[-11.16,12.033],[-11.157,12.039],[-11.149,12.041],[-11.136,12.061],[-11.073,12.134],[-11.071,12.14],[-11.07,12.149],[-11.067,12.161],[-11.046,12.212],[-10.99,12.21],[-10.972,12.226],[-10.942,12.22],[-10.934,12.227],[-10.91,12.208],[-10.903,12.204],[-10.892,12.203],[-10.791,12.11],[-10.791,12.1],[-10.786,12.087],[-10.788,12.08],[-10.785,12.064],[-10.792,12.061],[-10.793,12.046],[-10.801,12.037],[-10.755,11.937],[-10.738,11.924],[-10.734,11.923],[-10.734,11.918],[-10.73,11.918],[-10.724,11.912],[-10.708,11.903],[-10.699,11.901],[-10.695,11.903],[-10.682,11.897],[-10.675,11.896],[-10.672,11.894],[-10.668,11.895],[-10.659,11.893],[-10.651,11.901],[-10.639,11.904],[-10.634,11.91],[-10.636,11.923],[-10.635,11.928],[-10.633,11.931],[-10.628,11.932],[-10.624,11.936],[-10.621,11.957],[-10.615,11.97],[-10.606,11.974],[-10.601,11.974],[-10.598,11.971],[-10.584,11.984],[-10.573,11.984],[-10.568,11.988],[-10.565,11.995],[-10.566,11.999],[-10.574,12.004],[-10.58,12.013],[-10.581,12.019],[-10.57,12.023],[-10.565,12.022],[-10.557,12.026],[-10.547,12.027],[-10.537,12.031],[-10.534,12.031],[-10.532,12.029],[-10.521,12.042],[-10.519,12.047],[-10.465,12.115],[-10.447,12.12],[-10.437,12.133],[-10.43,12.138],[-10.413,12.14],[-10.411,12.142],[-10.412,12.15],[-10.414,12.153],[-10.417,12.163],[-10.415,12.173],[-10.396,12.179],[-10.388,12.175],[-10.379,12.166],[-10.366,12.17],[-10.36,12.174],[-10.362,12.182],[-10.366,12.189],[-10.352,12.194],[-10.339,12.189],[-10.332,12.191],[-10.332,12.199],[-10.342,12.213],[-10.343,12.22],[-10.34,12.221],[-10.34,12.222],[-10.343,12.223],[-10.338,12.23],[-10.34,12.245],[-10.346,12.265],[-10.346,12.307],[-10.374,12.3],[-10.379,12.334],[-10.371,12.338],[-10.355,12.337],[-10.347,12.34],[-10.342,12.356],[-10.349,12.372],[-10.354,12.399],[-10.333,12.425],[-10.312,12.438],[-10.289,12.486],[-10.259,12.511],[-10.268,12.531],[-10.255,12.56],[-10.251,12.577],[-10.256,12.587],[-10.247,12.592],[-10.234,12.596],[-10.216,12.62],[-10.239,12.724],[-10.213,12.759],[-10.191,12.766],[-10.196,12.785],[-10.206,12.784],[-10.218,12.788],[-10.234,12.801],[-10.235,12.806],[-10.227,12.809],[-10.229,12.816],[-10.239,12.83],[-10.256,12.836],[-10.433,12.782],[-10.505,12.775],[-10.585,12.73],[-10.651,12.729],[-10.743,12.82],[-10.765,12.902],[-10.818,12.939],[-10.887,13.043],[-10.993,13.135],[-10.993,13.319],[-11.115,13.307],[-11.19,13.351],[-11.263,13.466],[-11.384,13.559],[-11.441,13.686],[-11.469,13.691]]]},"properties":{"code":"ML-KENIEBA","nom":"Kéniéba","region":"Kayes","code_region":"ML-KAYES","pays":"Mali"}},{"type":"Feature","geometry":{"type":"Polygon","coordinates":[[[-10.256,12.836],[-10.239,12.83],[-10.229,12.816],[-10.227,12.809],[-10.235,12.806],[-10.234,12.801],[-10.218,12.788],[-10.206,12.784],[-10.196,12.785],[-10.191,12.766],[-10.213,12.759],[-10.239,12.724],[-10.216,12.62],[-10.234,12.596],[-10.247,12.592],[-10.256,12.587],[-10.251,12.577],[-10.255,12.56],[-10.268,12.531],[-10.259,12.511],[-10.289,12.486],[-10.312,12.438],[-10.333,12.425],[-10.354,12.399],[-10.349,12.372],[-10.342,12.356],[-10.347,12.34],[-10.355,12.337],[-10.371,12.338],[-10.379,12.334],[-10.374,12.3],[-10.346,12.307],[-10.346,12.265],[-10.34,12.245],[-10.338,12.23],[-10.343,12.223],[-10.34,12.222],[-10.34,12.221],[-10.331,12.218],[-10.323,12.212],[-10.321,12.215],[-10.321,12.221],[-10.311,12.217],[-10.302,12.19],[-10.298,12.188],[-10.286,12.192],[-10.285,12.195],[-10.287,12.208],[-10.275,12.208],[-10.272,12.209],[-10.265,12.204],[-10.261,12.211],[-10.249,12.211],[-10.244,12.194],[-10.225,12.203],[-10.214,12.198],[-10.194,12.2],[-10.193,12.189],[-10.178,12.181],[-10.171,12.184],[-10.156,12.174],[-10.14,12.17],[-10.099,12.172],[-10.092,12.181],[-10.085,12.171],[-10.093,12.168],[-10.096,12.147],[-9.914,12.097],[-9.901,12.067],[-9.872,12.051],[-9.852,12.056],[-9.827,12.051],[-9.82,12.06],[-9.817,12.06],[-9.806,12.052],[-9.791,12.046],[-9.792,12.041],[-9.791,12.038],[-9.781,12.031],[-9.715,12.021],[-9.709,12.024],[-9.698,12.025],[-9.688,12.032],[-9.695,12.053],[-9.674,12.08],[-9.679,12.099],[-9.68,12.118],[-9.671,12.132],[-9.669,12.135],[-9.668,12.14],[-9.636,12.17],[-9.625,12.172],[-9.616,12.171],[-9.596,12.183],[-9.578,12.187],[-9.575,12.191],[-9.558,12.186],[-9.536,12.19],[-9.5,12.219],[-9.492,12.228],[-9.492,12.237],[-9.485,12.249],[-9.422,12.259],[-9.407,12.257],[-9.406,12.253],[-9.4,12.249],[-9.393,12.255],[-9.39,12.253],[-9.378,12.248],[-9.373,12.244],[-9.369,12.246],[-9.366,12.246],[-9.36,12.248],[-9.359,12.245],[-9.349,12.243],[-9.344,12.242],[-9.342,12.244],[-9.349,12.252],[-9.342,12.269],[-9.322,12.275],[-9.325,12.314],[-9.312,12.321],[-9.313,12.341],[-9.304,12.362],[-9.34,12.375],[-9.341,12.393],[-9.382,12.425],[-9.382,12.444],[-9.385,12.447],[-9.394,12.447],[-9.4,12.441],[-9.408,12.453],[-9.405,12.465],[-9.369,12.477],[-9.369,12.491],[-9.361,12.498],[-9.354,12.499],[-9.315,12.502],[-9.286,12.484],[-9.252,12.504],[-9.158,12.488],[-9.111,12.46],[-9.095,12.448],[-9.084,12.437],[-9.045,12.426],[-8.951,12.499],[-8.896,12.533],[-8.852,12.609],[-8.788,12.589],[-8.611,12.772],[-8.657,12.86],[-8.646,12.871],[-8.638,12.877],[-8.626,12.883],[-8.621,12.883],[-8.624,12.898],[-8.633,12.901],[-8.637,12.909],[-8.632,12.926],[-8.616,12.935],[-8.609,12.93],[-8.605,12.93],[-8.592,12.944],[-8.595,12.954],[-8.595,12.964],[-8.578,13.006],[-8.598,13.099],[-8.576,13.2],[-8.547,13.242],[-8.539,13.261],[-8.526,13.269],[-8.54,13.297],[-8.517,13.313],[-8.513,13.369],[-8.462,13.406],[-8.462,13.428],[-8.466,13.469],[-8.475,13.472],[-8.47,13.485],[-8.475,13.489],[-8.48,13.494],[-8.495,13.499],[-8.513,13.517],[-8.542,13.575],[-8.556,13.632],[-8.557,13.675],[-8.546,13.697],[-8.523,13.733],[-8.493,13.745],[-8.494,13.764],[-8.499,13.769],[-8.498,13.78],[-8.494,13.784],[-8.486,13.784],[-8.479,13.788],[-8.449,13.827],[-8.452,13.905],[-8.481,13.952],[-8.533,13.959],[-8.555,13.955],[-8.561,13.949],[-8.566,13.937],[-8.577,13.891],[-8.597,13.882],[-8.602,13.861],[-8.589,13.862],[-8.578,13.868],[-8.573,13.861],[-8.586,13.854],[-8.586,13.848],[-8.595,13.842],[-8.602,13.834],[-8.631,13.829],[-8.636,13.837],[-8.647,13.845],[-8.657,13.855],[-8.662,13.852],[-8.676,13.843],[-8.688,13.839],[-8.771,13.898],[-8.787,13.935],[-8.848,13.962],[-8.863,13.996],[-8.844,14.024],[-8.843,14.03],[-8.834,14.031],[-8.83,14.032],[-8.822,14.042],[-8.814,14.046],[-8.821,14.065],[-8.82,14.074],[-8.821,14.088],[-8.827,14.103],[-8.82,14.112],[-8.791,14.107],[-8.768,14.092],[-8.748,14.104],[-8.754,14.129],[-8.762,14.145],[-8.755,14.169],[-8.757,14.202],[-8.77,14.202],[-8.78,14.222],[-8.785,14.232],[-8.796,14.241],[-8.793,14.248],[-8.792,14.261],[-8.797,14.265],[-8.816,14.265],[-8.816,14.276],[-8.804,14.285],[-8.799,14.29],[-8.879,14.337],[-8.971,14.363],[-8.977,14.311],[-8.972,14.301],[-8.968,14.288],[-8.971,14.272],[-8.98,14.261],[-8.998,14.246],[-9.015,14.187],[-8.986,14.137],[-9.116,14.134],[-9.2,14.17],[-9.272,14.334],[-9.39,14.314],[-9.386,14.194],[-9.465,14.18],[-9.625,14.327],[-9.661,14.334],[-9.822,14.254],[-9.903,14.237],[-9.992,14.131],[-10.171,14.049],[-10.176,13.998],[-10.136,13.834],[-10.035,13.719],[-9.963,13.571],[-9.915,13.538],[-9.892,13.448],[-10.046,13.429],[-10.15,13.292],[-10.202,13.251],[-10.227,13.136],[-10.204,13.052],[-10.234,12.996],[-10.229,12.874],[-10.251,12.873],[-10.265,12.853],[-10.256,12.844],[-10.256,12.836]]]},"properties":{"code":"ML-KITA","nom":"Kita","region":"Kayes","code_region":"ML-KAYES","pays":"Mali"}},{"type":"Feature","geometry":{"type":"Polygon","coordinates":[[[-10.195,14.606],[-10.143,14.621],[-9.985,14.76],[-9.886,14.819],[-9.812,14.807],[-9.762,14.695],[-9.708,14.693],[-9.474,14.747],[-9.461,14.831],[-9.506,14.947],[-9.527,15.056],[-9.454,15.18],[-9.38,15.2],[-9.323,15.147],[-9.189,15.105],[-9.037,14.946],[-9.001,14.723],[-8.915,14.718],[-8.756,14.842],[-8.677,14.979],[-8.725,15.004],[-8.788,15.14],[-8.804,15.242],[-8.849,15.29],[-8.989,15.359],[-9.122,15.471],[-9.136,15.497],[-9.329,15.497],[-9.334,15.512],[-9.335,15.522],[-9.333,15.566],[-9.309,15.689],[-9.331,15.699],[-9.446,15.6],[-9.402,15.434],[-9.694,15.422],[-9.707,15.422],[-9.726,15.426],[-9.765,15.439],[-9.954,15.42],[-10.005,15.434],[-9.988,15.333],[-10.096,15.202],[-10.133,15.128],[-10.196,15.076],[-10.258,15.079],[-10.393,14.851],[-10.455,14.814],[-10.516,14.717],[-10.656,14.62],[-10.42,14.614],[-10.347,14.645],[-10.195,14.606]]]},"properties":{"code":"ML-NIORO","nom":"Nioro","region":"Kayes","code_region":"ML-KAYES","pays":"Mali"}},{"type":"Feature","geometry":{"type":"Polygon","coordinates":[[[-10.656,14.62],[-10.516,14.717],[-10.455,14.814],[-10.393,14.851],[-10.258,15.079],[-10.196,15.076],[-10.133,15.128],[-10.096,15.202],[-9.988,15.333],[-10.005,15.434],[-10.134,15.464],[-10.258,15.474],[-10.308,15.448],[-10.337,15.431],[-10.371,15.429],[-10.394,15.436],[-10.508,15.437],[-10.563,15.43],[-10.57,15.427],[-10.596,15.423],[-10.609,15.419],[-10.617,15.421],[-10.625,15.42],[-10.631,15.417],[-10.64,15.416],[-10.657,15.42],[-10.669,15.429],[-10.705,15.44],[-10.721,15.439],[-10.727,15.434],[-10.729,15.424],[-10.722,15.381],[-10.716,15.367],[-10.733,15.338],[-10.737,15.333],[-10.745,15.331],[-10.751,15.335],[-10.759,15.332],[-10.765,15.326],[-10.766,15.322],[-10.774,15.321],[-10.777,15.317],[-10.781,15.302],[-10.785,15.302],[-10.793,15.307],[-10.8,15.305],[-10.804,15.3],[-10.806,15.294],[-10.812,15.289],[-10.825,15.283],[-10.831,15.268],[-10.831,15.263],[-10.827,15.253],[-10.825,15.243],[-10.837,15.212],[-10.869,15.189],[-10.876,15.156],[-10.876,15.148],[-10.88,15.138],[-10.911,15.115],[-10.913,15.124],[-10.92,15.132],[-10.92,15.139],[-10.946,15.155],[-10.953,15.157],[-10.989,15.218],[-10.991,15.227],[-11.009,15.179],[-11.018,15.133],[-11.006,15.039],[-10.918,14.946],[-10.826,14.817],[-10.819,14.62],[-10.77,14.628],[-10.656,14.62]]]},"properties":{"code":"ML-YELIMANE","nom":"Yélimané","region":"Kayes","code_region":"ML-KAYES","pays":"Mali"}},{"type":"Feature","geometry":{"type":"Polygon","coordinates":[[[-6.9,13.746],[-6.936,13.822],[-6.9,13.995],[-6.751,14.262],[-6.639,14.42],[-6.849,14.359],[-6.895,14.252],[-7.113,14.178],[-7.215,14.112],[-7.337,14.182],[-7.49,14.213],[-7.584,14.195],[-7.724,14.209],[-7.76,14.308],[-7.819,14.295],[-7.789,14.118],[-7.796,13.968],[-7.691,13.803],[-7.655,13.721],[-7.666,13.638],[-7.558,13.651],[-7.529,13.569],[-7.553,13.492],[-7.504,13.432],[-7.409,13.32],[-7.195,13.363],[-7.205,13.452],[-7.084,13.492],[-7.044,13.548],[-6.945,13.577],[-6.929,13.718],[-6.9,13.746]]]},"properties":{"code":"ML-BANAMBA","nom":"Banamba","region":"Koulikoro","code_region":"ML-KOULIKORO","pays":"Mali"}},{"type":"Feature","geometry":{"type":"Polygon","coordinates":[[[-7.147,12.029],[-7.117,12.037],[-7.106,12.019],[-7.092,12.015],[-7.092,12.001],[-7.101,11.961],[-6.972,11.974],[-6.947,11.859],[-6.841,11.822],[-6.659,11.785],[-6.549,11.738],[-6.547,11.638],[-6.501,11.644],[-6.467,11.753],[-6.354,11.94],[-6.379,12.023],[-6.3,12.107],[-6.095,12.149],[-5.968,12.162],[-5.964,12.232],[-6.009,12.328],[-6.125,12.31],[-6.171,12.398],[-6.235,12.405],[-6.27,12.473],[-6.244,12.523],[-6.297,12.579],[-6.386,12.59],[-6.458,12.728],[-6.501,12.692],[-6.567,12.802],[-6.792,12.784],[-6.808,12.821],[-7.037,12.882],[-7.037,12.962],[-7.067,12.997],[-7.151,12.934],[-7.173,12.927],[-7.23,12.962],[-7.277,12.934],[-7.339,12.808],[-7.49,12.776],[-7.445,12.526],[-7.402,12.479],[-7.377,12.303],[-7.426,12.255],[-7.355,12.216],[-7.289,12.273],[-7.272,12.327],[-7.195,12.355],[-7.167,12.415],[-7.147,12.416],[-7.136,12.428],[-7.137,12.437],[-7.134,12.444],[-7.127,12.44],[-7.123,12.429],[-7.134,12.395],[-7.143,12.385],[-7.143,12.369],[-7.13,12.357],[-7.121,12.333],[-7.124,12.324],[-7.127,12.322],[-7.132,12.314],[-7.117,12.287],[-7.107,12.284],[-7.098,12.285],[-7.088,12.271],[-7.117,12.225],[-7.071,12.171],[-7.098,12.089],[-7.126,12.068],[-7.15,12.071],[-7.153,12.066],[-7.162,12.062],[-7.164,12.055],[-7.161,12.038],[-7.147,12.029]]]},"properties":{"code":"ML-DIOILA","nom":"Dioila","region":"Koulikoro","code_region":"ML-KOULIKORO","pays":"Mali"}},{"type":"Feature","geometry":{"type":"Polygon","coordinates":[[[-8.216,11.711],[-8.176,11.762],[-8.201,11.915],[-8.232,11.969],[-8.308,12],[-8.334,12.066],[-8.394,12.028],[-8.459,12.114],[-8.44,12.178],[-8.481,12.339],[-8.606,12.356],[-8.72,12.276],[-8.803,12.275],[-8.871,12.361],[-8.962,12.352],[-8.933,12.319],[-8.984,12.245],[-8.983,12.217],[-8.978,12.199],[-8.969,12.195],[-8.972,12.188],[-8.971,12.184],[-8.968,12.181],[-8.927,12.184],[-8.925,12.19],[-8.917,12.196],[-8.918,12.191],[-8.884,12.145],[-8.912,12.089],[-8.913,12.054],[-8.908,12.052],[-8.91,12.046],[-8.909,12.04],[-8.906,12.037],[-8.872,12.023],[-8.861,12.026],[-8.852,12.031],[-8.85,12.039],[-8.848,12.037],[-8.843,12.038],[-8.843,12.032],[-8.84,12.029],[-8.834,12.031],[-8.829,12.035],[-8.828,12.03],[-8.824,12.027],[-8.824,12.024],[-8.814,12.014],[-8.81,12.014],[-8.809,12.012],[-8.802,12.008],[-8.806,12.001],[-8.773,11.971],[-8.79,11.857],[-8.849,11.651],[-8.789,11.625],[-8.76,11.627],[-8.746,11.604],[-8.701,11.64],[-8.654,11.516],[-8.614,11.468],[-8.531,11.486],[-8.514,11.576],[-8.397,11.655],[-8.333,11.653],[-8.216,11.711]]]},"properties":{"code":"ML-KANGABA","nom":"Kangaba","region":"Koulikoro","code_region":"ML-KOULIKORO","pays":"Mali"}},{"type":"Feature","geometry":{"type":"Polygon","coordinates":[[[-9.045,12.426],[-9.023,12.419],[-9.012,12.413],[-9.005,12.387],[-8.962,12.352],[-8.871,12.361],[-8.803,12.275],[-8.72,12.276],[-8.606,12.356],[-8.481,12.339],[-8.44,12.178],[-8.459,12.114],[-8.394,12.028],[-8.334,12.066],[-8.308,12],[-8.232,11.969],[-8.201,11.915],[-8.176,11.762],[-8.216,11.711],[-8.175,11.682],[-8.035,11.704],[-7.973,11.77],[-7.755,11.904],[-7.655,11.951],[-7.644,11.95],[-7.547,11.994],[-7.487,12.157],[-7.355,12.216],[-7.426,12.255],[-7.377,12.303],[-7.402,12.479],[-7.445,12.526],[-7.49,12.776],[-7.629,12.809],[-7.734,12.731],[-7.83,12.78],[-7.859,12.865],[-7.82,12.926],[-7.867,13.002],[-7.975,12.966],[-8.041,13.111],[-8.112,13.129],[-8.132,13.181],[-8.206,13.2],[-8.248,13.256],[-8.231,13.322],[-8.376,13.483],[-8.475,13.489],[-8.47,13.485],[-8.475,13.472],[-8.466,13.469],[-8.462,13.428],[-8.462,13.406],[-8.513,13.369],[-8.517,13.313],[-8.54,13.297],[-8.526,13.269],[-8.539,13.261],[-8.547,13.242],[-8.576,13.2],[-8.598,13.099],[-8.578,13.006],[-8.595,12.964],[-8.595,12.954],[-8.592,12.944],[-8.605,12.93],[-8.609,12.93],[-8.616,12.935],[-8.632,12.926],[-8.637,12.909],[-8.633,12.901],[-8.624,12.898],[-8.621,12.883],[-8.626,12.883],[-8.638,12.877],[-8.646,12.871],[-8.657,12.86],[-8.611,12.772],[-8.788,12.589],[-8.852,12.609],[-8.896,12.533],[-8.951,12.499],[-9.045,12.426]],[[-7.929,12.682],[-7.919,12.516],[-8.068,12.562],[-8.053,12.659],[-7.929,12.682]]]},"properties":{"code":"ML-KATI","nom":"Kati","region":"Koulikoro","code_region":"ML-KOULIKORO","pays":"Mali"}},{"type":"Feature","geometry":{"type":"Polygon","coordinates":[[[-8.799,14.29],[-8.804,14.285],[-8.816,14.276],[-8.816,14.265],[-8.797,14.265],[-8.792,14.261],[-8.793,14.248],[-8.796,14.241],[-8.785,14.232],[-8.78,14.222],[-8.77,14.202],[-8.757,14.202],[-8.755,14.169],[-8.762,14.145],[-8.754,14.129],[-8.748,14.104],[-8.768,14.092],[-8.791,14.107],[-8.82,14.112],[-8.827,14.103],[-8.821,14.088],[-8.82,14.074],[-8.821,14.065],[-8.814,14.046],[-8.822,14.042],[-8.83,14.032],[-8.834,14.031],[-8.843,14.03],[-8.844,14.024],[-8.863,13.996],[-8.848,13.962],[-8.787,13.935],[-8.771,13.898],[-8.688,13.839],[-8.676,13.843],[-8.662,13.852],[-8.657,13.855],[-8.647,13.845],[-8.636,13.837],[-8.631,13.829],[-8.602,13.834],[-8.595,13.842],[-8.586,13.848],[-8.586,13.854],[-8.573,13.861],[-8.578,13.868],[-8.589,13.862],[-8.602,13.861],[-8.597,13.882],[-8.577,13.891],[-8.566,13.937],[-8.561,13.949],[-8.555,13.955],[-8.533,13.959],[-8.481,13.952],[-8.452,13.905],[-8.449,13.827],[-8.479,13.788],[-8.486,13.784],[-8.494,13.784],[-8.498,13.78],[-8.499,13.769],[-8.494,13.764],[-8.493,13.745],[-8.523,13.733],[-8.546,13.697],[-8.557,13.675],[-8.556,13.632],[-8.542,13.575],[-8.513,13.517],[-8.495,13.499],[-8.48,13.494],[-8.475,13.489],[-8.376,13.483],[-8.231,13.322],[-8.248,13.256],[-8.206,13.2],[-8.132,13.181],[-8.112,13.129],[-8.041,13.111],[-7.975,12.966],[-7.867,13.002],[-7.845,13.118],[-7.701,13.189],[-7.683,13.231],[-7.723,13.364],[-7.697,13.439],[-7.62,13.452],[-7.504,13.432],[-7.553,13.492],[-7.529,13.569],[-7.558,13.651],[-7.666,13.638],[-7.655,13.721],[-7.691,13.803],[-7.796,13.968],[-7.789,14.118],[-7.819,14.295],[-8.033,14.301],[-8.162,14.317],[-8.443,14.295],[-8.529,14.377],[-8.591,14.398],[-8.65,14.311],[-8.799,14.29]]]},"properties":{"code":"ML-KOLOKANI","nom":"Kolokani","region":"Koulikoro","code_region":"ML-KOULIKORO","pays":"Mali"}},{"type":"Feature","geometry":{"type":"Polygon","coordinates":[[[-7.504,13.432],[-7.62,13.452],[-7.697,13.439],[-7.723,13.364],[-7.683,13.231],[-7.701,13.189],[-7.845,13.118],[-7.867,13.002],[-7.82,12.926],[-7.859,12.865],[-7.83,12.78],[-7.734,12.731],[-7.629,12.809],[-7.49,12.776],[-7.339,12.808],[-7.277,12.934],[-7.23,12.962],[-7.173,12.927],[-7.151,12.934],[-7.067,12.997],[-7.081,13.013],[-7.021,13.143],[-7.039,13.209],[-6.967,13.315],[-6.824,13.399],[-6.759,13.466],[-6.775,13.522],[-6.862,13.624],[-6.841,13.688],[-6.9,13.746],[-6.929,13.718],[-6.945,13.577],[-7.044,13.548],[-7.084,13.492],[-7.205,13.452],[-7.195,13.363],[-7.409,13.32],[-7.504,13.432]]]},"properties":{"code":"ML-KOULIKORO","nom":"Koulikoro","region":"Koulikoro","code_region":"ML-KOULIKORO","pays":"Mali"}},{"type":"Feature","geometry":{"type":"Polygon","coordinates":[[[-8.162,14.317],[-8.033,14.301],[-7.819,14.295],[-7.76,14.308],[-7.724,14.209],[-7.584,14.195],[-7.49,14.213],[-7.337,14.182],[-7.215,14.112],[-7.113,14.178],[-6.895,14.252],[-6.849,14.359],[-6.639,14.42],[-6.582,14.477],[-6.459,14.443],[-6.382,14.533],[-6.381,14.599],[-6.436,14.778],[-6.545,14.941],[-6.528,14.995],[-6.405,15.165],[-6.336,15.373],[-6.309,15.496],[-6.911,15.496],[-7.27,15.495],[-8.344,15.496],[-8.721,15.497],[-8.983,15.496],[-9,15.497],[-9.136,15.497],[-9.122,15.471],[-8.989,15.359],[-8.849,15.29],[-8.804,15.242],[-8.788,15.14],[-8.725,15.004],[-8.677,14.979],[-8.507,14.96],[-8.475,14.873],[-8.471,14.677],[-8.361,14.622],[-8.237,14.517],[-8.164,14.5],[-8.132,14.337],[-8.162,14.317]]]},"properties":{"code":"ML-NARA","nom":"Nara","region":"Koulikoro","code_region":"ML-KOULIKORO","pays":"Mali"}},{"type":"Feature","geometry":{"type":"Polygon","coordinates":[[[-12.012,11.291],[-12.134,11.274],[-12.162,11.192],[-12.209,11.162],[-12.194,11.114],[-12.356,10.942],[-12.351,10.873],[-12.401,10.799],[-12.458,10.652],[-12.496,10.626],[-12.492,10.619],[-12.507,10.565],[-12.401,10.485],[-12.4,10.481],[-12.304,10.504],[-12.284,10.599],[-12.216,10.651],[-12.195,10.773],[-12.034,10.805],[-11.994,10.865],[-11.908,10.873],[-11.865,10.84],[-11.769,10.874],[-11.743,10.987],[-11.863,11.026],[-11.882,11.052],[-11.879,11.178],[-11.962,11.218],[-12.012,11.291]]]},"properties":{"code":"GN-DALABA","nom":"Dalaba","region":"Mamou","code_region":"GN-MAMOU","pays":"Guinée"}},{"type":"Feature","geometry":{"type":"Polygon","coordinates":[[[-8.147,9.584],[-8.101,9.833],[-8.129,9.882],[-8.125,9.901],[-8.167,9.947],[-8.148,9.949],[-8.152,9.98],[-8.148,9.986],[-8.137,9.992],[-8.136,10],[-8.282,10.042],[-8.37,10.102],[-8.459,10.102],[-8.641,10.208],[-8.733,10.214],[-8.807,10.277],[-8.914,10.441],[-8.905,10.587],[-8.934,10.634],[-9.044,10.681],[-9.116,10.935],[-9.181,10.975],[-9.225,11.063],[-9.287,11.023],[-9.339,10.863],[-9.375,10.858],[-9.421,10.711],[-9.572,10.664],[-9.63,10.601],[-9.7,10.413],[-9.711,10.297],[-9.694,10.202],[-9.748,10.136],[-9.681,10.02],[-9.771,9.941],[-9.716,9.86],[-9.77,9.807],[-9.836,9.695],[-9.928,9.655],[-9.843,9.537],[-9.651,9.458],[-9.623,9.4],[-9.487,9.388],[-9.265,9.442],[-9.196,9.437],[-9.095,9.48],[-9.16,9.612],[-9.119,9.677],[-9.134,9.747],[-9.19,9.741],[-9.234,9.814],[-9.233,9.874],[-9.097,9.927],[-8.943,9.818],[-8.856,9.82],[-8.766,9.751],[-8.664,9.624],[-8.617,9.503],[-8.578,9.441],[-8.485,9.513],[-8.352,9.581],[-8.147,9.584]]]},"properties":{"code":"GN-KANKAN","nom":"Kankan","region":"Kankan","code_region":"GN-KANKAN","pays":"Guinée"}},{"type":"Feature","geometry":{"type":"Polygon","coordinates":[[[-8.617,9.503],[-8.664,9.624],[-8.766,9.751],[-8.856,9.82],[-8.943,9.818],[-9.097,9.927],[-9.233,9.874],[-9.234,9.814],[-9.19,9.741],[-9.134,9.747],[-9.119,9.677],[-9.16,9.612],[-9.095,9.48],[-9.196,9.437],[-9.265,9.442],[-9.487,9.388],[-9.623,9.4],[-9.598,9.356],[-9.65,9.253],[-9.74,9.225],[-9.698,9.03],[-9.629,8.992],[-9.655,8.936],[-9.565,8.868],[-9.402,8.896],[-9.255,8.785],[-9.176,8.764],[-9.01,8.793],[-8.949,8.773],[-8.841,8.847],[-8.795,8.914],[-8.7,8.961],[-8.727,9.068],[-8.663,9.187],[-8.623,9.304],[-8.635,9.463],[-8.617,9.503]]]},"properties":{"code":"GN-KEROUANE","nom":"Kérouané","region":"Kankan","code_region":"GN-KANKAN","pays":"Guinée"}},{"type":"Feature","geometry":{"type":"Polygon","coordinates":[[[-11.305,12.017],[-11.312,12.021],[-11.371,12.099],[-11.464,12.134],[-11.494,12.178],[-11.498,12.21],[-11.492,12.216],[-11.495,12.216],[-11.504,12.21],[-11.528,12.187],[-11.538,12.183],[-11.639,12.102],[-11.714,11.993],[-11.862,11.864],[-11.969,11.869],[-12.061,11.805],[-12.139,11.671],[-12.235,11.657],[-12.221,11.498],[-12.13,11.483],[-12.07,11.445],[-12.042,11.358],[-11.987,11.32],[-11.964,11.394],[-11.891,11.459],[-11.852,11.537],[-11.789,11.592],[-11.673,11.649],[-11.58,11.811],[-11.547,11.788],[-11.446,11.906],[-11.362,11.937],[-11.34,11.981],[-11.329,11.996],[-11.309,12.01],[-11.305,12.017]]]},"properties":{"code":"GN-KOUBIA","nom":"Koubia","region":"Labé","code_region":"GN-LABE","pays":"Guinée"}},{"type":"Feature","geometry":{"type":"Polygon","coordinates":[[[-10.468,10.545],[-10.467,10.532],[-10.401,10.547],[-10.238,10.52],[-10.146,10.401],[-10.237,10.256],[-10.229,10.158],[-10.33,10.078],[-10.362,10.002],[-10.328,9.895],[-10.369,9.864],[-10.367,9.783],[-10.414,9.734],[-10.403,9.655],[-10.428,9.595],[-10.369,9.547],[-10.242,9.572],[-10.161,9.699],[-10.066,9.61],[-10.005,9.658],[-9.928,9.655],[-9.836,9.695],[-9.77,9.807],[-9.716,9.86],[-9.771,9.941],[-9.681,10.02],[-9.748,10.136],[-9.694,10.202],[-9.711,10.297],[-9.7,10.413],[-9.63,10.601],[-9.572,10.664],[-9.421,10.711],[-9.375,10.858],[-9.644,10.903],[-9.744,10.937],[-9.804,11.014],[-9.834,11.201],[-9.873,11.235],[-9.876,11.309],[-10.005,11.407],[-10.136,11.369],[-10.249,11.426],[-10.345,11.368],[-10.513,11.197],[-10.663,11.183],[-10.725,11.129],[-10.718,11.059],[-10.791,11],[-10.815,10.93],[-10.909,10.876],[-10.709,10.778],[-10.669,10.735],[-10.512,10.761],[-10.461,10.642],[-10.468,10.545]]]},"properties":{"code":"GN-KOUROUSSA","nom":"Kouroussa","region":"Kankan","code_region":"GN-KANKAN","pays":"Guinée"}},{"type":"Feature","geometry":{"type":"Polygon","coordinates":[[[-12.012,11.291],[-11.987,11.32],[-12.042,11.358],[-12.07,11.445],[-12.13,11.483],[-12.221,11.498],[-12.235,11.657],[-12.362,11.681],[-12.354,11.614],[-12.458,11.54],[-12.468,11.47],[-12.539,11.417],[-12.608,11.327],[-12.596,11.33],[-12.497,11.286],[-12.48,11.156],[-12.293,11.194],[-12.218,11.153],[-12.209,11.162],[-12.162,11.192],[-12.134,11.274],[-12.012,11.291]]]},"properties":{"code":"GN-LABE","nom":"Labé","region":"Labé","code_region":"GN-LABE","pays":"Guinée"}},{"type":"Feature","geometry":{"type":"Polygon","coordinates":[[[-12.763,11.855],[-12.802,11.833],[-12.782,11.678],[-12.704,11.566],[-12.797,11.466],[-12.871,11.439],[-12.984,11.332],[-12.991,11.267],[-12.952,11.105],[-12.859,11.144],[-12.789,11.111],[-12.728,11.236],[-12.624,11.323],[-12.608,11.327],[-12.539,11.417],[-12.468,11.47],[-12.458,11.54],[-12.354,11.614],[-12.362,11.681],[-12.528,11.747],[-12.692,11.924],[-12.763,11.855]]]},"properties":{"code":"GN-LELOUMA","nom":"Lélouma","region":"Labé","code_region":"GN-LABE","pays":"Guinée"}},{"type":"Feature","geometry":{"type":"Polygon","coordinates":[[[-12.763,11.855],[-12.692,11.924],[-12.528,11.747],[-12.362,11.681],[-12.235,11.657],[-12.139,11.671],[-12.061,11.805],[-11.969,11.869],[-11.862,11.864],[-11.714,11.993],[-11.639,12.102],[-11.538,12.183],[-11.528,12.187],[-11.504,12.21],[-11.495,12.216],[-11.492,12.216],[-11.483,12.233],[-11.453,12.253],[-11.434,12.297],[-11.44,12.335],[-11.45,12.351],[-11.449,12.355],[-11.442,12.358],[-11.44,12.363],[-11.44,12.379],[-11.426,12.385],[-11.379,12.414],[-11.409,12.418],[-11.46,12.441],[-11.531,12.443],[-11.6,12.427],[-11.664,12.423],[-11.672,12.42],[-11.688,12.41],[-11.703,12.397],[-11.712,12.393],[-11.762,12.388],[-11.786,12.394],[-11.814,12.393],[-11.849,12.397],[-11.861,12.402],[-11.894,12.427],[-12.017,12.397],[-12.05,12.423],[-12.076,12.418],[-12.082,12.421],[-12.097,12.421],[-12.113,12.412],[-12.14,12.389],[-12.159,12.368],[-12.166,12.368],[-12.173,12.363],[-12.178,12.361],[-12.186,12.361],[-12.189,12.359],[-12.211,12.358],[-12.235,12.355],[-12.344,12.307],[-12.353,12.307],[-12.36,12.311],[-12.368,12.321],[-12.369,12.325],[-12.377,12.337],[-12.39,12.356],[-12.404,12.369],[-12.474,12.399],[-12.563,12.367],[-12.751,12.254],[-12.827,12.144],[-12.81,11.938],[-12.763,11.855]]]},"properties":{"code":"GN-MALI","nom":"Mali","region":"Labé","code_region":"GN-LABE","pays":"Guinée"}},{"type":"Feature","geometry":{"type":"Polygon","coordinates":[[[-11.394,10.435],[-11.528,10.492],[-11.507,10.608],[-11.448,10.724],[-11.437,10.827],[-11.526,10.906],[-11.454,10.993],[-11.381,10.969],[-11.278,10.99],[-11.155,11.055],[-11.307,11.178],[-11.337,11.267],[-11.386,11.232],[-11.447,11.217],[-11.464,11.205],[-11.506,11.185],[-11.561,11.11],[-11.577,11.096],[-11.595,11.084],[-11.65,11.081],[-11.743,10.987],[-11.769,10.874],[-11.865,10.84],[-11.908,10.873],[-11.994,10.865],[-12.034,10.805],[-12.195,10.773],[-12.216,10.651],[-12.284,10.599],[-12.304,10.504],[-12.4,10.481],[-12.396,10.471],[-12.439,10.322],[-12.418,10.274],[-12.332,10.287],[-12.23,10.271],[-12.227,10.226],[-12.157,10.126],[-12.125,10.039],[-12.173,9.975],[-12.148,9.878],[-12.12,9.872],[-11.907,9.936],[-11.886,9.997],[-11.478,10],[-11.388,10.211],[-11.383,10.351],[-11.394,10.435]]]},"properties":{"code":"GN-MAMOU","nom":"Mamou","region":"Mamou","code_region":"GN-MAMOU","pays":"Guinée"}},{"type":"Feature","geometry":{"type":"Polygon","coordinates":[[[-8.136,10],[-8.135,10.008],[-8.017,10.097],[-7.978,10.18],[-7.957,10.201],[-7.952,10.21],[-7.951,10.233],[-7.947,10.241],[-7.949,10.252],[-7.959,10.285],[-7.961,10.295],[-7.969,10.314],[-7.98,10.326],[-7.995,10.338],[-8.007,10.343],[-8.051,10.351],[-8.081,10.353],[-8.092,10.358],[-8.232,10.416],[-8.278,10.531],[-8.273,10.56],[-8.273,10.578],[-8.278,10.588],[-8.301,10.636],[-8.276,10.853],[-8.282,10.896],[-8.279,10.926],[-8.291,10.971],[-8.287,10.995],[-8.293,11.008],[-8.296,11.008],[-8.306,11.026],[-8.324,11.048],[-8.382,11.076],[-8.399,11.064],[-8.416,11.069],[-8.482,11.065],[-8.503,11.031],[-8.514,10.995],[-8.514,10.986],[-8.513,10.974],[-8.515,10.972],[-8.59,10.95],[-8.598,10.955],[-8.611,10.958],[-8.622,10.965],[-8.629,10.964],[-8.661,10.949],[-8.672,10.95],[-8.681,10.967],[-8.679,11.011],[-8.564,11.155],[-8.566,11.205],[-8.553,11.212],[-8.53,11.21],[-8.518,11.219],[-8.512,11.219],[-8.498,11.216],[-8.493,11.218],[-8.486,11.222],[-8.499,11.263],[-8.493,11.277],[-8.479,11.289],[-8.467,11.289],[-8.422,11.27],[-8.394,11.272],[-8.382,11.276],[-8.377,11.279],[-8.364,11.317],[-8.402,11.322],[-8.422,11.336],[-8.397,11.382],[-8.502,11.399],[-8.535,11.478],[-8.582,11.443],[-8.654,11.499],[-8.691,11.587],[-8.76,11.607],[-8.762,11.609],[-8.779,11.555],[-8.973,11.39],[-9.077,11.253],[-9.106,11.181],[-9.225,11.063],[-9.181,10.975],[-9.116,10.935],[-9.044,10.681],[-8.934,10.634],[-8.905,10.587],[-8.914,10.441],[-8.807,10.277],[-8.733,10.214],[-8.641,10.208],[-8.459,10.102],[-8.37,10.102],[-8.282,10.042],[-8.136,10]]]},"properties":{"code":"GN-MANDIANA","nom":"Mandiana","region":"Kankan","code_region":"GN-KANKAN","pays":"Guinée"}},{"type":"Feature","geometry":{"type":"Polygon","coordinates":[[[-12.209,11.162],[-12.218,11.153],[-12.293,11.194],[-12.48,11.156],[-12.497,11.286],[-12.596,11.33],[-12.608,11.327],[-12.624,11.323],[-12.728,11.236],[-12.789,11.111],[-12.827,11.018],[-12.89,10.997],[-12.945,10.936],[-12.967,10.82],[-12.931,10.729],[-12.974,10.577],[-12.947,10.518],[-12.882,10.547],[-12.716,10.49],[-12.504,10.636],[-12.496,10.626],[-12.458,10.652],[-12.401,10.799],[-12.351,10.873],[-12.356,10.942],[-12.194,11.114],[-12.209,11.162]]]},"properties":{"code":"GN-PITA","nom":"Pita","region":"Mamou","code_region":"GN-MAMOU","pays":"Guinée"}},{"type":"Feature","geometry":{"type":"Polygon","coordinates":[[[-10.005,11.407],[-9.876,11.309],[-9.873,11.235],[-9.834,11.201],[-9.804,11.014],[-9.744,10.937],[-9.644,10.903],[-9.375,10.858],[-9.339,10.863],[-9.287,11.023],[-9.225,11.063],[-9.106,11.181],[-9.077,11.253],[-8.973,11.39],[-8.779,11.555],[-8.762,11.609],[-8.773,11.618],[-8.822,11.626],[-8.854,11.628],[-8.822,11.769],[-8.795,11.924],[-8.816,11.973],[-8.805,12.005],[-8.812,12.014],[-8.831,12.031],[-8.832,12.039],[-8.842,12.036],[-8.846,12.037],[-8.85,12.041],[-8.856,12.042],[-8.868,12.026],[-8.896,12.04],[-8.907,12.038],[-8.907,12.041],[-8.913,12.041],[-8.915,12.095],[-8.895,12.147],[-8.914,12.185],[-8.922,12.184],[-8.925,12.19],[-8.922,12.196],[-8.925,12.199],[-8.931,12.196],[-8.939,12.187],[-8.965,12.188],[-8.973,12.183],[-8.979,12.193],[-8.993,12.221],[-8.987,12.281],[-8.969,12.348],[-9.013,12.39],[-9.025,12.413],[-9.034,12.423],[-9.046,12.428],[-9.086,12.439],[-9.136,12.469],[-9.162,12.486],[-9.253,12.503],[-9.284,12.482],[-9.32,12.501],[-9.34,12.493],[-9.349,12.492],[-9.362,12.496],[-9.367,12.476],[-9.405,12.462],[-9.384,12.447],[-9.377,12.426],[-9.356,12.417],[-9.337,12.393],[-9.334,12.377],[-9.312,12.369],[-9.3,12.362],[-9.297,12.355],[-9.308,12.345],[-9.309,12.323],[-9.319,12.277],[-9.345,12.252],[-9.34,12.243],[-9.354,12.246],[-9.36,12.247],[-9.366,12.245],[-9.387,12.251],[-9.391,12.255],[-9.401,12.25],[-9.406,12.25],[-9.411,12.259],[-9.415,12.26],[-9.425,12.258],[-9.442,12.251],[-9.479,12.246],[-9.491,12.239],[-9.5,12.223],[-9.505,12.217],[-9.541,12.193],[-9.569,12.191],[-9.578,12.188],[-9.584,12.187],[-9.589,12.185],[-9.612,12.18],[-9.63,12.173],[-9.637,12.166],[-9.64,12.161],[-9.664,12.141],[-9.678,12.124],[-9.681,12.116],[-9.68,12.1],[-9.676,12.079],[-9.698,12.051],[-9.698,12.035],[-9.7,12.024],[-9.734,12.026],[-9.77,12.032],[-9.791,12.041],[-9.81,12.057],[-9.816,12.058],[-9.825,12.053],[-9.864,12.059],[-9.883,12.057],[-9.914,12.098],[-10.067,12.139],[-10.087,12.178],[-10.112,12.152],[-10.166,12.129],[-10.221,12.076],[-10.176,11.956],[-10.182,11.869],[-10.246,11.775],[-10.266,11.588],[-10.222,11.541],[-10.01,11.463],[-10.005,11.407]]]},"properties":{"code":"GN-SIGUIRI","nom":"Siguiri","region":"Kankan","code_region":"GN-KANKAN","pays":"Guinée"}},{"type":"Feature","geometry":{"type":"Polygon","coordinates":[[[-11.743,10.987],[-11.65,11.081],[-11.595,11.084],[-11.577,11.096],[-11.561,11.11],[-11.506,11.185],[-11.464,11.205],[-11.447,11.217],[-11.386,11.232],[-11.337,11.267],[-11.337,11.308],[-11.268,11.401],[-11.212,11.423],[-11.19,11.424],[-11.123,11.479],[-11.127,11.501],[-11.121,11.518],[-11.137,11.53],[-11.209,11.585],[-11.144,11.628],[-11.07,11.75],[-11.077,11.856],[-11.053,11.889],[-11.16,11.942],[-11.153,11.992],[-11.155,12.011],[-11.161,12.025],[-11.167,12.033],[-11.179,12.02],[-11.192,12.015],[-11.213,12.018],[-11.238,11.996],[-11.247,11.992],[-11.257,11.992],[-11.305,12.017],[-11.309,12.01],[-11.329,11.996],[-11.34,11.981],[-11.362,11.937],[-11.446,11.906],[-11.547,11.788],[-11.58,11.811],[-11.673,11.649],[-11.789,11.592],[-11.852,11.537],[-11.891,11.459],[-11.964,11.394],[-11.987,11.32],[-12.012,11.291],[-11.962,11.218],[-11.879,11.178],[-11.882,11.052],[-11.863,11.026],[-11.743,10.987]]]},"properties":{"code":"GN-TOUGUE","nom":"Tougué","region":"Labé","code_region":"GN-LABE","pays":"Guinée"}}]}